,airline,airline_id,source,source_id,dest,dest_id,equipment,airport_s,city_s,country_x,IATA_s,lat_s,lon_s,alt_s,timezone_s,tz_s,airport_e,city_e,IATA_e,lat_e,lon_e,alt_e,timezone_e,tz_e,name_s,name_e
0,4B,20565,LAS,3877,LAX,3484,PL2,McCarran International Airport,Las Vegas,United States,LAS,36.08010101,-115.15200039999999,2181,-8,America/Los_Angeles,Los Angeles International Airport,Los Angeles,LAX,33.94250107,-118.40799709999999,125,-8,America/Los_Angeles,LAS - McCarran International Airport,LAX - Los Angeles International Airport
1,4B,20565,LAX,3484,LAS,3877,PL2,Los Angeles International Airport,Los Angeles,United States,LAX,33.94250107,-118.40799709999999,125,-8,America/Los_Angeles,McCarran International Airport,Las Vegas,LAS,36.08010101,-115.15200039999999,2181,-8,America/Los_Angeles,LAX - Los Angeles International Airport,LAS - McCarran International Airport
2,AA,24,BOS,3448,DCA,3520,319 E90,General Edward Lawrence Logan International Airport,Boston,United States,BOS,42.36429977,-71.00520325,20,-5,America/New_York,Ronald Reagan Washington National Airport,Washington,DCA,38.8521,-77.037697,15,-5,America/New_York,BOS - General Edward Lawrence Logan International Airport,DCA - Ronald Reagan Washington National Airport
3,AA,24,BOS,3448,JFK,3797,738,General Edward Lawrence Logan International Airport,Boston,United States,BOS,42.36429977,-71.00520325,20,-5,America/New_York,John F Kennedy International Airport,New York,JFK,40.63980103,-73.77890015,13,-5,America/New_York,BOS - General Edward Lawrence Logan International Airport,JFK - John F Kennedy International Airport
4,AA,24,BOS,3448,LAX,3484,738 757,General Edward Lawrence Logan International Airport,Boston,United States,BOS,42.36429977,-71.00520325,20,-5,America/New_York,Los Angeles International Airport,Los Angeles,LAX,33.94250107,-118.40799709999999,125,-8,America/Los_Angeles,BOS - General Edward Lawrence Logan International Airport,LAX - Los Angeles International Airport
5,AA,24,BOS,3448,LGA,3697,E90 319,General Edward Lawrence Logan International Airport,Boston,United States,BOS,42.36429977,-71.00520325,20,-5,America/New_York,La Guardia Airport,New York,LGA,40.77719879,-73.87259674,21,-5,America/New_York,BOS - General Edward Lawrence Logan International Airport,LGA - La Guardia Airport
6,AA,24,BOS,3448,MIA,3576,757 738,General Edward Lawrence Logan International Airport,Boston,United States,BOS,42.36429977,-71.00520325,20,-5,America/New_York,Miami International Airport,Miami,MIA,25.79319954,-80.29060364,8,-5,America/New_York,BOS - General Edward Lawrence Logan International Airport,MIA - Miami International Airport
7,AA,24,BOS,3448,ORD,3830,738,General Edward Lawrence Logan International Airport,Boston,United States,BOS,42.36429977,-71.00520325,20,-5,America/New_York,Chicago O'Hare International Airport,Chicago,ORD,41.97859955,-87.90480042,672,-6,America/Chicago,BOS - General Edward Lawrence Logan International Airport,ORD - Chicago O'Hare International Airport
8,AA,24,BOS,3448,SEA,3577,737,General Edward Lawrence Logan International Airport,Boston,United States,BOS,42.36429977,-71.00520325,20,-5,America/New_York,Seattle Tacoma International Airport,Seattle,SEA,47.44900131,-122.3089981,433,-8,America/Los_Angeles,BOS - General Edward Lawrence Logan International Airport,SEA - Seattle Tacoma International Airport
9,AA,24,DCA,3520,BOS,3448,319 E90,Ronald Reagan Washington National Airport,Washington,United States,DCA,38.8521,-77.037697,15,-5,America/New_York,General Edward Lawrence Logan International Airport,Boston,BOS,42.36429977,-71.00520325,20,-5,America/New_York,DCA - Ronald Reagan Washington National Airport,BOS - General Edward Lawrence Logan International Airport
10,AA,24,DCA,3520,JFK,3797,738,Ronald Reagan Washington National Airport,Washington,United States,DCA,38.8521,-77.037697,15,-5,America/New_York,John F Kennedy International Airport,New York,JFK,40.63980103,-73.77890015,13,-5,America/New_York,DCA - Ronald Reagan Washington National Airport,JFK - John F Kennedy International Airport
11,AA,24,DCA,3520,LAS,3877,319,Ronald Reagan Washington National Airport,Washington,United States,DCA,38.8521,-77.037697,15,-5,America/New_York,McCarran International Airport,Las Vegas,LAS,36.08010101,-115.15200039999999,2181,-8,America/Los_Angeles,DCA - Ronald Reagan Washington National Airport,LAS - McCarran International Airport
12,AA,24,DCA,3520,LAX,3484,738,Ronald Reagan Washington National Airport,Washington,United States,DCA,38.8521,-77.037697,15,-5,America/New_York,Los Angeles International Airport,Los Angeles,LAX,33.94250107,-118.40799709999999,125,-8,America/Los_Angeles,DCA - Ronald Reagan Washington National Airport,LAX - Los Angeles International Airport
13,AA,24,DCA,3520,LGA,3697,319 E90,Ronald Reagan Washington National Airport,Washington,United States,DCA,38.8521,-77.037697,15,-5,America/New_York,La Guardia Airport,New York,LGA,40.77719879,-73.87259674,21,-5,America/New_York,DCA - Ronald Reagan Washington National Airport,LGA - La Guardia Airport
14,AA,24,DCA,3520,MIA,3576,738,Ronald Reagan Washington National Airport,Washington,United States,DCA,38.8521,-77.037697,15,-5,America/New_York,Miami International Airport,Miami,MIA,25.79319954,-80.29060364,8,-5,America/New_York,DCA - Ronald Reagan Washington National Airport,MIA - Miami International Airport
15,AA,24,DCA,3520,MSP,3858,E70 E75,Ronald Reagan Washington National Airport,Washington,United States,DCA,38.8521,-77.037697,15,-5,America/New_York,Minneapolis-St Paul International/Wold-Chamberlain Airport,Minneapolis,MSP,44.88199997,-93.22180176,841,-6,America/Chicago,DCA - Ronald Reagan Washington National Airport,MSP - Minneapolis-St Paul International/Wold-Chamberlain Airport
16,AA,24,DCA,3520,ORD,3830,738 M83 M80,Ronald Reagan Washington National Airport,Washington,United States,DCA,38.8521,-77.037697,15,-5,America/New_York,Chicago O'Hare International Airport,Chicago,ORD,41.97859955,-87.90480042,672,-6,America/Chicago,DCA - Ronald Reagan Washington National Airport,ORD - Chicago O'Hare International Airport
17,AA,24,DEN,3751,LAX,3484,CR7,Denver International Airport,Denver,United States,DEN,39.86169815,-104.6729965,5431,-7,America/Denver,Los Angeles International Airport,Los Angeles,LAX,33.94250107,-118.40799709999999,125,-8,America/Los_Angeles,DEN - Denver International Airport,LAX - Los Angeles International Airport
18,AA,24,DEN,3751,MIA,3576,738,Denver International Airport,Denver,United States,DEN,39.86169815,-104.6729965,5431,-7,America/Denver,Miami International Airport,Miami,MIA,25.79319954,-80.29060364,8,-5,America/New_York,DEN - Denver International Airport,MIA - Miami International Airport
19,AA,24,DEN,3751,ORD,3830,M80 M83,Denver International Airport,Denver,United States,DEN,39.86169815,-104.6729965,5431,-7,America/Denver,Chicago O'Hare International Airport,Chicago,ORD,41.97859955,-87.90480042,672,-6,America/Chicago,DEN - Denver International Airport,ORD - Chicago O'Hare International Airport
20,AA,24,DEN,3751,SEA,3577,737,Denver International Airport,Denver,United States,DEN,39.86169815,-104.6729965,5431,-7,America/Denver,Seattle Tacoma International Airport,Seattle,SEA,47.44900131,-122.3089981,433,-8,America/Los_Angeles,DEN - Denver International Airport,SEA - Seattle Tacoma International Airport
21,AA,24,IAD,3714,LAX,3484,738,Washington Dulles International Airport,Washington,United States,IAD,38.94449997,-77.45580292,312,-5,America/New_York,Los Angeles International Airport,Los Angeles,LAX,33.94250107,-118.40799709999999,125,-8,America/Los_Angeles,IAD - Washington Dulles International Airport,LAX - Los Angeles International Airport
22,AA,24,IAD,3714,MIA,3576,738,Washington Dulles International Airport,Washington,United States,IAD,38.94449997,-77.45580292,312,-5,America/New_York,Miami International Airport,Miami,MIA,25.79319954,-80.29060364,8,-5,America/New_York,IAD - Washington Dulles International Airport,MIA - Miami International Airport
23,AA,24,JFK,3797,BOS,3448,738,John F Kennedy International Airport,New York,United States,JFK,40.63980103,-73.77890015,13,-5,America/New_York,General Edward Lawrence Logan International Airport,Boston,BOS,42.36429977,-71.00520325,20,-5,America/New_York,JFK - John F Kennedy International Airport,BOS - General Edward Lawrence Logan International Airport
24,AA,24,JFK,3797,DCA,3520,738,John F Kennedy International Airport,New York,United States,JFK,40.63980103,-73.77890015,13,-5,America/New_York,Ronald Reagan Washington National Airport,Washington,DCA,38.8521,-77.037697,15,-5,America/New_York,JFK - John F Kennedy International Airport,DCA - Ronald Reagan Washington National Airport
25,AA,24,JFK,3797,LAS,3877,738,John F Kennedy International Airport,New York,United States,JFK,40.63980103,-73.77890015,13,-5,America/New_York,McCarran International Airport,Las Vegas,LAS,36.08010101,-115.15200039999999,2181,-8,America/Los_Angeles,JFK - John F Kennedy International Airport,LAS - McCarran International Airport
26,AA,24,JFK,3797,LAX,3484,32B 762,John F Kennedy International Airport,New York,United States,JFK,40.63980103,-73.77890015,13,-5,America/New_York,Los Angeles International Airport,Los Angeles,LAX,33.94250107,-118.40799709999999,125,-8,America/Los_Angeles,JFK - John F Kennedy International Airport,LAX - Los Angeles International Airport
27,AA,24,JFK,3797,MIA,3576,757 763 738,John F Kennedy International Airport,New York,United States,JFK,40.63980103,-73.77890015,13,-5,America/New_York,Miami International Airport,Miami,MIA,25.79319954,-80.29060364,8,-5,America/New_York,JFK - John F Kennedy International Airport,MIA - Miami International Airport
28,AA,24,JFK,3797,ORD,3830,738,John F Kennedy International Airport,New York,United States,JFK,40.63980103,-73.77890015,13,-5,America/New_York,Chicago O'Hare International Airport,Chicago,ORD,41.97859955,-87.90480042,672,-6,America/Chicago,JFK - John F Kennedy International Airport,ORD - Chicago O'Hare International Airport
29,AA,24,JFK,3797,SEA,3577,738,John F Kennedy International Airport,New York,United States,JFK,40.63980103,-73.77890015,13,-5,America/New_York,Seattle Tacoma International Airport,Seattle,SEA,47.44900131,-122.3089981,433,-8,America/Los_Angeles,JFK - John F Kennedy International Airport,SEA - Seattle Tacoma International Airport
30,AA,24,JFK,3797,SFO,3469,32B 763,John F Kennedy International Airport,New York,United States,JFK,40.63980103,-73.77890015,13,-5,America/New_York,San Francisco International Airport,San Francisco,SFO,37.61899948,-122.375,13,-8,America/Los_Angeles,JFK - John F Kennedy International Airport,SFO - San Francisco International Airport
31,AA,24,LAS,3877,DCA,3520,320 319,McCarran International Airport,Las Vegas,United States,LAS,36.08010101,-115.15200039999999,2181,-8,America/Los_Angeles,Ronald Reagan Washington National Airport,Washington,DCA,38.8521,-77.037697,15,-5,America/New_York,LAS - McCarran International Airport,DCA - Ronald Reagan Washington National Airport
32,AA,24,LAS,3877,JFK,3797,738,McCarran International Airport,Las Vegas,United States,LAS,36.08010101,-115.15200039999999,2181,-8,America/Los_Angeles,John F Kennedy International Airport,New York,JFK,40.63980103,-73.77890015,13,-5,America/New_York,LAS - McCarran International Airport,JFK - John F Kennedy International Airport
33,AA,24,LAS,3877,LAX,3484,738,McCarran International Airport,Las Vegas,United States,LAS,36.08010101,-115.15200039999999,2181,-8,America/Los_Angeles,Los Angeles International Airport,Los Angeles,LAX,33.94250107,-118.40799709999999,125,-8,America/Los_Angeles,LAS - McCarran International Airport,LAX - Los Angeles International Airport
34,AA,24,LAS,3877,MIA,3576,757 738,McCarran International Airport,Las Vegas,United States,LAS,36.08010101,-115.15200039999999,2181,-8,America/Los_Angeles,Miami International Airport,Miami,MIA,25.79319954,-80.29060364,8,-5,America/New_York,LAS - McCarran International Airport,MIA - Miami International Airport
35,AA,24,LAS,3877,ORD,3830,M83 738,McCarran International Airport,Las Vegas,United States,LAS,36.08010101,-115.15200039999999,2181,-8,America/Los_Angeles,Chicago O'Hare International Airport,Chicago,ORD,41.97859955,-87.90480042,672,-6,America/Chicago,LAS - McCarran International Airport,ORD - Chicago O'Hare International Airport
36,AA,24,LAX,3484,BOS,3448,757 738,Los Angeles International Airport,Los Angeles,United States,LAX,33.94250107,-118.40799709999999,125,-8,America/Los_Angeles,General Edward Lawrence Logan International Airport,Boston,BOS,42.36429977,-71.00520325,20,-5,America/New_York,LAX - Los Angeles International Airport,BOS - General Edward Lawrence Logan International Airport
37,AA,24,LAX,3484,DCA,3520,738,Los Angeles International Airport,Los Angeles,United States,LAX,33.94250107,-118.40799709999999,125,-8,America/Los_Angeles,Ronald Reagan Washington National Airport,Washington,DCA,38.8521,-77.037697,15,-5,America/New_York,LAX - Los Angeles International Airport,DCA - Ronald Reagan Washington National Airport
38,AA,24,LAX,3484,DEN,3751,CR7,Los Angeles International Airport,Los Angeles,United States,LAX,33.94250107,-118.40799709999999,125,-8,America/Los_Angeles,Denver International Airport,Denver,DEN,39.86169815,-104.6729965,5431,-7,America/Denver,LAX - Los Angeles International Airport,DEN - Denver International Airport
39,AA,24,LAX,3484,IAD,3714,738,Los Angeles International Airport,Los Angeles,United States,LAX,33.94250107,-118.40799709999999,125,-8,America/Los_Angeles,Washington Dulles International Airport,Washington,IAD,38.94449997,-77.45580292,312,-5,America/New_York,LAX - Los Angeles International Airport,IAD - Washington Dulles International Airport
40,AA,24,LAX,3484,JFK,3797,32B 762,Los Angeles International Airport,Los Angeles,United States,LAX,33.94250107,-118.40799709999999,125,-8,America/Los_Angeles,John F Kennedy International Airport,New York,JFK,40.63980103,-73.77890015,13,-5,America/New_York,LAX - Los Angeles International Airport,JFK - John F Kennedy International Airport
41,AA,24,LAX,3484,LAS,3877,738,Los Angeles International Airport,Los Angeles,United States,LAX,33.94250107,-118.40799709999999,125,-8,America/Los_Angeles,McCarran International Airport,Las Vegas,LAS,36.08010101,-115.15200039999999,2181,-8,America/Los_Angeles,LAX - Los Angeles International Airport,LAS - McCarran International Airport
42,AA,24,LAX,3484,MIA,3576,757 777 763 738,Los Angeles International Airport,Los Angeles,United States,LAX,33.94250107,-118.40799709999999,125,-8,America/Los_Angeles,Miami International Airport,Miami,MIA,25.79319954,-80.29060364,8,-5,America/New_York,LAX - Los Angeles International Airport,MIA - Miami International Airport
43,AA,24,LAX,3484,ORD,3830,738,Los Angeles International Airport,Los Angeles,United States,LAX,33.94250107,-118.40799709999999,125,-8,America/Los_Angeles,Chicago O'Hare International Airport,Chicago,ORD,41.97859955,-87.90480042,672,-6,America/Chicago,LAX - Los Angeles International Airport,ORD - Chicago O'Hare International Airport
44,AA,24,LAX,3484,SEA,3577,737,Los Angeles International Airport,Los Angeles,United States,LAX,33.94250107,-118.40799709999999,125,-8,America/Los_Angeles,Seattle Tacoma International Airport,Seattle,SEA,47.44900131,-122.3089981,433,-8,America/Los_Angeles,LAX - Los Angeles International Airport,SEA - Seattle Tacoma International Airport
45,AA,24,LAX,3484,SFO,3469,738,Los Angeles International Airport,Los Angeles,United States,LAX,33.94250107,-118.40799709999999,125,-8,America/Los_Angeles,San Francisco International Airport,San Francisco,SFO,37.61899948,-122.375,13,-8,America/Los_Angeles,LAX - Los Angeles International Airport,SFO - San Francisco International Airport
46,AA,24,LGA,3697,BOS,3448,319 E90,La Guardia Airport,New York,United States,LGA,40.77719879,-73.87259674,21,-5,America/New_York,General Edward Lawrence Logan International Airport,Boston,BOS,42.36429977,-71.00520325,20,-5,America/New_York,LGA - La Guardia Airport,BOS - General Edward Lawrence Logan International Airport
47,AA,24,LGA,3697,DCA,3520,319 E90,La Guardia Airport,New York,United States,LGA,40.77719879,-73.87259674,21,-5,America/New_York,Ronald Reagan Washington National Airport,Washington,DCA,38.8521,-77.037697,15,-5,America/New_York,LGA - La Guardia Airport,DCA - Ronald Reagan Washington National Airport
48,AA,24,LGA,3697,MIA,3576,738,La Guardia Airport,New York,United States,LGA,40.77719879,-73.87259674,21,-5,America/New_York,Miami International Airport,Miami,MIA,25.79319954,-80.29060364,8,-5,America/New_York,LGA - La Guardia Airport,MIA - Miami International Airport
49,AA,24,LGA,3697,ORD,3830,738,La Guardia Airport,New York,United States,LGA,40.77719879,-73.87259674,21,-5,America/New_York,Chicago O'Hare International Airport,Chicago,ORD,41.97859955,-87.90480042,672,-6,America/Chicago,LGA - La Guardia Airport,ORD - Chicago O'Hare International Airport
50,AA,24,MIA,3576,BOS,3448,757 738,Miami International Airport,Miami,United States,MIA,25.79319954,-80.29060364,8,-5,America/New_York,General Edward Lawrence Logan International Airport,Boston,BOS,42.36429977,-71.00520325,20,-5,America/New_York,MIA - Miami International Airport,BOS - General Edward Lawrence Logan International Airport
51,AA,24,MIA,3576,DCA,3520,738,Miami International Airport,Miami,United States,MIA,25.79319954,-80.29060364,8,-5,America/New_York,Ronald Reagan Washington National Airport,Washington,DCA,38.8521,-77.037697,15,-5,America/New_York,MIA - Miami International Airport,DCA - Ronald Reagan Washington National Airport
52,AA,24,MIA,3576,DEN,3751,738,Miami International Airport,Miami,United States,MIA,25.79319954,-80.29060364,8,-5,America/New_York,Denver International Airport,Denver,DEN,39.86169815,-104.6729965,5431,-7,America/Denver,MIA - Miami International Airport,DEN - Denver International Airport
53,AA,24,MIA,3576,IAD,3714,738,Miami International Airport,Miami,United States,MIA,25.79319954,-80.29060364,8,-5,America/New_York,Washington Dulles International Airport,Washington,IAD,38.94449997,-77.45580292,312,-5,America/New_York,MIA - Miami International Airport,IAD - Washington Dulles International Airport
54,AA,24,MIA,3576,JFK,3797,763 757 738,Miami International Airport,Miami,United States,MIA,25.79319954,-80.29060364,8,-5,America/New_York,John F Kennedy International Airport,New York,JFK,40.63980103,-73.77890015,13,-5,America/New_York,MIA - Miami International Airport,JFK - John F Kennedy International Airport
55,AA,24,MIA,3576,LAS,3877,738 757,Miami International Airport,Miami,United States,MIA,25.79319954,-80.29060364,8,-5,America/New_York,McCarran International Airport,Las Vegas,LAS,36.08010101,-115.15200039999999,2181,-8,America/Los_Angeles,MIA - Miami International Airport,LAS - McCarran International Airport
56,AA,24,MIA,3576,LAX,3484,777 763 757 738,Miami International Airport,Miami,United States,MIA,25.79319954,-80.29060364,8,-5,America/New_York,Los Angeles International Airport,Los Angeles,LAX,33.94250107,-118.40799709999999,125,-8,America/Los_Angeles,MIA - Miami International Airport,LAX - Los Angeles International Airport
57,AA,24,MIA,3576,LGA,3697,738,Miami International Airport,Miami,United States,MIA,25.79319954,-80.29060364,8,-5,America/New_York,La Guardia Airport,New York,LGA,40.77719879,-73.87259674,21,-5,America/New_York,MIA - Miami International Airport,LGA - La Guardia Airport
58,AA,24,MIA,3576,MSP,3858,738,Miami International Airport,Miami,United States,MIA,25.79319954,-80.29060364,8,-5,America/New_York,Minneapolis-St Paul International/Wold-Chamberlain Airport,Minneapolis,MSP,44.88199997,-93.22180176,841,-6,America/Chicago,MIA - Miami International Airport,MSP - Minneapolis-St Paul International/Wold-Chamberlain Airport
59,AA,24,MIA,3576,ORD,3830,738 763,Miami International Airport,Miami,United States,MIA,25.79319954,-80.29060364,8,-5,America/New_York,Chicago O'Hare International Airport,Chicago,ORD,41.97859955,-87.90480042,672,-6,America/Chicago,MIA - Miami International Airport,ORD - Chicago O'Hare International Airport
60,AA,24,MIA,3576,SEA,3577,757,Miami International Airport,Miami,United States,MIA,25.79319954,-80.29060364,8,-5,America/New_York,Seattle Tacoma International Airport,Seattle,SEA,47.44900131,-122.3089981,433,-8,America/Los_Angeles,MIA - Miami International Airport,SEA - Seattle Tacoma International Airport
61,AA,24,MIA,3576,SFO,3469,763 757 738,Miami International Airport,Miami,United States,MIA,25.79319954,-80.29060364,8,-5,America/New_York,San Francisco International Airport,San Francisco,SFO,37.61899948,-122.375,13,-8,America/Los_Angeles,MIA - Miami International Airport,SFO - San Francisco International Airport
62,AA,24,MSP,3858,DCA,3520,E75 E70,Minneapolis-St Paul International/Wold-Chamberlain Airport,Minneapolis,United States,MSP,44.88199997,-93.22180176,841,-6,America/Chicago,Ronald Reagan Washington National Airport,Washington,DCA,38.8521,-77.037697,15,-5,America/New_York,MSP - Minneapolis-St Paul International/Wold-Chamberlain Airport,DCA - Ronald Reagan Washington National Airport
63,AA,24,MSP,3858,MIA,3576,738,Minneapolis-St Paul International/Wold-Chamberlain Airport,Minneapolis,United States,MSP,44.88199997,-93.22180176,841,-6,America/Chicago,Miami International Airport,Miami,MIA,25.79319954,-80.29060364,8,-5,America/New_York,MSP - Minneapolis-St Paul International/Wold-Chamberlain Airport,MIA - Miami International Airport
64,AA,24,MSP,3858,ORD,3830,E75 CR7,Minneapolis-St Paul International/Wold-Chamberlain Airport,Minneapolis,United States,MSP,44.88199997,-93.22180176,841,-6,America/Chicago,Chicago O'Hare International Airport,Chicago,ORD,41.97859955,-87.90480042,672,-6,America/Chicago,MSP - Minneapolis-St Paul International/Wold-Chamberlain Airport,ORD - Chicago O'Hare International Airport
65,AA,24,ORD,3830,BOS,3448,738,Chicago O'Hare International Airport,Chicago,United States,ORD,41.97859955,-87.90480042,672,-6,America/Chicago,General Edward Lawrence Logan International Airport,Boston,BOS,42.36429977,-71.00520325,20,-5,America/New_York,ORD - Chicago O'Hare International Airport,BOS - General Edward Lawrence Logan International Airport
66,AA,24,ORD,3830,DCA,3520,738 M83 M80,Chicago O'Hare International Airport,Chicago,United States,ORD,41.97859955,-87.90480042,672,-6,America/Chicago,Ronald Reagan Washington National Airport,Washington,DCA,38.8521,-77.037697,15,-5,America/New_York,ORD - Chicago O'Hare International Airport,DCA - Ronald Reagan Washington National Airport
67,AA,24,ORD,3830,DEN,3751,M80 M83,Chicago O'Hare International Airport,Chicago,United States,ORD,41.97859955,-87.90480042,672,-6,America/Chicago,Denver International Airport,Denver,DEN,39.86169815,-104.6729965,5431,-7,America/Denver,ORD - Chicago O'Hare International Airport,DEN - Denver International Airport
68,AA,24,ORD,3830,JFK,3797,738,Chicago O'Hare International Airport,Chicago,United States,ORD,41.97859955,-87.90480042,672,-6,America/Chicago,John F Kennedy International Airport,New York,JFK,40.63980103,-73.77890015,13,-5,America/New_York,ORD - Chicago O'Hare International Airport,JFK - John F Kennedy International Airport
69,AA,24,ORD,3830,LAS,3877,M83 738,Chicago O'Hare International Airport,Chicago,United States,ORD,41.97859955,-87.90480042,672,-6,America/Chicago,McCarran International Airport,Las Vegas,LAS,36.08010101,-115.15200039999999,2181,-8,America/Los_Angeles,ORD - Chicago O'Hare International Airport,LAS - McCarran International Airport
70,AA,24,ORD,3830,LAX,3484,738,Chicago O'Hare International Airport,Chicago,United States,ORD,41.97859955,-87.90480042,672,-6,America/Chicago,Los Angeles International Airport,Los Angeles,LAX,33.94250107,-118.40799709999999,125,-8,America/Los_Angeles,ORD - Chicago O'Hare International Airport,LAX - Los Angeles International Airport
71,AA,24,ORD,3830,LGA,3697,738,Chicago O'Hare International Airport,Chicago,United States,ORD,41.97859955,-87.90480042,672,-6,America/Chicago,La Guardia Airport,New York,LGA,40.77719879,-73.87259674,21,-5,America/New_York,ORD - Chicago O'Hare International Airport,LGA - La Guardia Airport
72,AA,24,ORD,3830,MIA,3576,738 763,Chicago O'Hare International Airport,Chicago,United States,ORD,41.97859955,-87.90480042,672,-6,America/Chicago,Miami International Airport,Miami,MIA,25.79319954,-80.29060364,8,-5,America/New_York,ORD - Chicago O'Hare International Airport,MIA - Miami International Airport
73,AA,24,ORD,3830,MSP,3858,E75 CR7,Chicago O'Hare International Airport,Chicago,United States,ORD,41.97859955,-87.90480042,672,-6,America/Chicago,Minneapolis-St Paul International/Wold-Chamberlain Airport,Minneapolis,MSP,44.88199997,-93.22180176,841,-6,America/Chicago,ORD - Chicago O'Hare International Airport,MSP - Minneapolis-St Paul International/Wold-Chamberlain Airport
74,AA,24,ORD,3830,SEA,3577,738,Chicago O'Hare International Airport,Chicago,United States,ORD,41.97859955,-87.90480042,672,-6,America/Chicago,Seattle Tacoma International Airport,Seattle,SEA,47.44900131,-122.3089981,433,-8,America/Los_Angeles,ORD - Chicago O'Hare International Airport,SEA - Seattle Tacoma International Airport
75,AA,24,ORD,3830,SFO,3469,738,Chicago O'Hare International Airport,Chicago,United States,ORD,41.97859955,-87.90480042,672,-6,America/Chicago,San Francisco International Airport,San Francisco,SFO,37.61899948,-122.375,13,-8,America/Los_Angeles,ORD - Chicago O'Hare International Airport,SFO - San Francisco International Airport
76,AA,24,SEA,3577,BOS,3448,737,Seattle Tacoma International Airport,Seattle,United States,SEA,47.44900131,-122.3089981,433,-8,America/Los_Angeles,General Edward Lawrence Logan International Airport,Boston,BOS,42.36429977,-71.00520325,20,-5,America/New_York,SEA - Seattle Tacoma International Airport,BOS - General Edward Lawrence Logan International Airport
77,AA,24,SEA,3577,DEN,3751,737,Seattle Tacoma International Airport,Seattle,United States,SEA,47.44900131,-122.3089981,433,-8,America/Los_Angeles,Denver International Airport,Denver,DEN,39.86169815,-104.6729965,5431,-7,America/Denver,SEA - Seattle Tacoma International Airport,DEN - Denver International Airport
78,AA,24,SEA,3577,JFK,3797,738,Seattle Tacoma International Airport,Seattle,United States,SEA,47.44900131,-122.3089981,433,-8,America/Los_Angeles,John F Kennedy International Airport,New York,JFK,40.63980103,-73.77890015,13,-5,America/New_York,SEA - Seattle Tacoma International Airport,JFK - John F Kennedy International Airport
79,AA,24,SEA,3577,LAX,3484,737,Seattle Tacoma International Airport,Seattle,United States,SEA,47.44900131,-122.3089981,433,-8,America/Los_Angeles,Los Angeles International Airport,Los Angeles,LAX,33.94250107,-118.40799709999999,125,-8,America/Los_Angeles,SEA - Seattle Tacoma International Airport,LAX - Los Angeles International Airport
80,AA,24,SEA,3577,MIA,3576,757,Seattle Tacoma International Airport,Seattle,United States,SEA,47.44900131,-122.3089981,433,-8,America/Los_Angeles,Miami International Airport,Miami,MIA,25.79319954,-80.29060364,8,-5,America/New_York,SEA - Seattle Tacoma International Airport,MIA - Miami International Airport
81,AA,24,SEA,3577,ORD,3830,738,Seattle Tacoma International Airport,Seattle,United States,SEA,47.44900131,-122.3089981,433,-8,America/Los_Angeles,Chicago O'Hare International Airport,Chicago,ORD,41.97859955,-87.90480042,672,-6,America/Chicago,SEA - Seattle Tacoma International Airport,ORD - Chicago O'Hare International Airport
82,AA,24,SEA,3577,SFO,3469,737,Seattle Tacoma International Airport,Seattle,United States,SEA,47.44900131,-122.3089981,433,-8,America/Los_Angeles,San Francisco International Airport,San Francisco,SFO,37.61899948,-122.375,13,-8,America/Los_Angeles,SEA - Seattle Tacoma International Airport,SFO - San Francisco International Airport
83,AA,24,SFO,3469,JFK,3797,763 32B,San Francisco International Airport,San Francisco,United States,SFO,37.61899948,-122.375,13,-8,America/Los_Angeles,John F Kennedy International Airport,New York,JFK,40.63980103,-73.77890015,13,-5,America/New_York,SFO - San Francisco International Airport,JFK - John F Kennedy International Airport
84,AA,24,SFO,3469,LAX,3484,738,San Francisco International Airport,San Francisco,United States,SFO,37.61899948,-122.375,13,-8,America/Los_Angeles,Los Angeles International Airport,Los Angeles,LAX,33.94250107,-118.40799709999999,125,-8,America/Los_Angeles,SFO - San Francisco International Airport,LAX - Los Angeles International Airport
85,AA,24,SFO,3469,MIA,3576,757 763 738,San Francisco International Airport,San Francisco,United States,SFO,37.61899948,-122.375,13,-8,America/Los_Angeles,Miami International Airport,Miami,MIA,25.79319954,-80.29060364,8,-5,America/New_York,SFO - San Francisco International Airport,MIA - Miami International Airport
86,AA,24,SFO,3469,ORD,3830,738,San Francisco International Airport,San Francisco,United States,SFO,37.61899948,-122.375,13,-8,America/Los_Angeles,Chicago O'Hare International Airport,Chicago,ORD,41.97859955,-87.90480042,672,-6,America/Chicago,SFO - San Francisco International Airport,ORD - Chicago O'Hare International Airport
87,AA,24,SFO,3469,SEA,3577,737,San Francisco International Airport,San Francisco,United States,SFO,37.61899948,-122.375,13,-8,America/Los_Angeles,Seattle Tacoma International Airport,Seattle,SEA,47.44900131,-122.3089981,433,-8,America/Los_Angeles,SFO - San Francisco International Airport,SEA - Seattle Tacoma International Airport
88,AF,137,LAX,3484,MSP,3858,757,Los Angeles International Airport,Los Angeles,United States,LAX,33.94250107,-118.40799709999999,125,-8,America/Los_Angeles,Minneapolis-St Paul International/Wold-Chamberlain Airport,Minneapolis,MSP,44.88199997,-93.22180176,841,-6,America/Chicago,LAX - Los Angeles International Airport,MSP - Minneapolis-St Paul International/Wold-Chamberlain Airport
89,AF,137,MSP,3858,LAX,3484,757,Minneapolis-St Paul International/Wold-Chamberlain Airport,Minneapolis,United States,MSP,44.88199997,-93.22180176,841,-6,America/Chicago,Los Angeles International Airport,Los Angeles,LAX,33.94250107,-118.40799709999999,125,-8,America/Los_Angeles,MSP - Minneapolis-St Paul International/Wold-Chamberlain Airport,LAX - Los Angeles International Airport
90,AF,137,MSP,3858,SEA,3577,753,Minneapolis-St Paul International/Wold-Chamberlain Airport,Minneapolis,United States,MSP,44.88199997,-93.22180176,841,-6,America/Chicago,Seattle Tacoma International Airport,Seattle,SEA,47.44900131,-122.3089981,433,-8,America/Los_Angeles,MSP - Minneapolis-St Paul International/Wold-Chamberlain Airport,SEA - Seattle Tacoma International Airport
91,AF,137,MSP,3858,SFO,3469,753,Minneapolis-St Paul International/Wold-Chamberlain Airport,Minneapolis,United States,MSP,44.88199997,-93.22180176,841,-6,America/Chicago,San Francisco International Airport,San Francisco,SFO,37.61899948,-122.375,13,-8,America/Los_Angeles,MSP - Minneapolis-St Paul International/Wold-Chamberlain Airport,SFO - San Francisco International Airport
92,AS,439,BOS,3448,LAX,3484,738 757,General Edward Lawrence Logan International Airport,Boston,United States,BOS,42.36429977,-71.00520325,20,-5,America/New_York,Los Angeles International Airport,Los Angeles,LAX,33.94250107,-118.40799709999999,125,-8,America/Los_Angeles,BOS - General Edward Lawrence Logan International Airport,LAX - Los Angeles International Airport
93,AS,439,BOS,3448,SEA,3577,73J 73H,General Edward Lawrence Logan International Airport,Boston,United States,BOS,42.36429977,-71.00520325,20,-5,America/New_York,Seattle Tacoma International Airport,Seattle,SEA,47.44900131,-122.3089981,433,-8,America/Los_Angeles,BOS - General Edward Lawrence Logan International Airport,SEA - Seattle Tacoma International Airport
94,AS,439,DCA,3520,LAX,3484,73H,Ronald Reagan Washington National Airport,Washington,United States,DCA,38.8521,-77.037697,15,-5,America/New_York,Los Angeles International Airport,Los Angeles,LAX,33.94250107,-118.40799709999999,125,-8,America/Los_Angeles,DCA - Ronald Reagan Washington National Airport,LAX - Los Angeles International Airport
95,AS,439,DCA,3520,SEA,3577,73H,Ronald Reagan Washington National Airport,Washington,United States,DCA,38.8521,-77.037697,15,-5,America/New_York,Seattle Tacoma International Airport,Seattle,SEA,47.44900131,-122.3089981,433,-8,America/Los_Angeles,DCA - Ronald Reagan Washington National Airport,SEA - Seattle Tacoma International Airport
96,AS,439,DEN,3751,LAX,3484,CR7,Denver International Airport,Denver,United States,DEN,39.86169815,-104.6729965,5431,-7,America/Denver,Los Angeles International Airport,Los Angeles,LAX,33.94250107,-118.40799709999999,125,-8,America/Los_Angeles,DEN - Denver International Airport,LAX - Los Angeles International Airport
97,AS,439,DEN,3751,SEA,3577,739 73G 73H,Denver International Airport,Denver,United States,DEN,39.86169815,-104.6729965,5431,-7,America/Denver,Seattle Tacoma International Airport,Seattle,SEA,47.44900131,-122.3089981,433,-8,America/Los_Angeles,DEN - Denver International Airport,SEA - Seattle Tacoma International Airport
98,AS,439,JFK,3797,LAX,3484,321 762,John F Kennedy International Airport,New York,United States,JFK,40.63980103,-73.77890015,13,-5,America/New_York,Los Angeles International Airport,Los Angeles,LAX,33.94250107,-118.40799709999999,125,-8,America/Los_Angeles,JFK - John F Kennedy International Airport,LAX - Los Angeles International Airport
99,AS,439,JFK,3797,SEA,3577,738,John F Kennedy International Airport,New York,United States,JFK,40.63980103,-73.77890015,13,-5,America/New_York,Seattle Tacoma International Airport,Seattle,SEA,47.44900131,-122.3089981,433,-8,America/Los_Angeles,JFK - John F Kennedy International Airport,SEA - Seattle Tacoma International Airport
100,AS,439,JFK,3797,SFO,3469,321 763,John F Kennedy International Airport,New York,United States,JFK,40.63980103,-73.77890015,13,-5,America/New_York,San Francisco International Airport,San Francisco,SFO,37.61899948,-122.375,13,-8,America/Los_Angeles,JFK - John F Kennedy International Airport,SFO - San Francisco International Airport
101,AS,439,LAS,3877,SEA,3577,73G 73H 739 73J,McCarran International Airport,Las Vegas,United States,LAS,36.08010101,-115.15200039999999,2181,-8,America/Los_Angeles,Seattle Tacoma International Airport,Seattle,SEA,47.44900131,-122.3089981,433,-8,America/Los_Angeles,LAS - McCarran International Airport,SEA - Seattle Tacoma International Airport
102,AS,439,LAX,3484,BOS,3448,757 738,Los Angeles International Airport,Los Angeles,United States,LAX,33.94250107,-118.40799709999999,125,-8,America/Los_Angeles,General Edward Lawrence Logan International Airport,Boston,BOS,42.36429977,-71.00520325,20,-5,America/New_York,LAX - Los Angeles International Airport,BOS - General Edward Lawrence Logan International Airport
103,AS,439,LAX,3484,DCA,3520,73H,Los Angeles International Airport,Los Angeles,United States,LAX,33.94250107,-118.40799709999999,125,-8,America/Los_Angeles,Ronald Reagan Washington National Airport,Washington,DCA,38.8521,-77.037697,15,-5,America/New_York,LAX - Los Angeles International Airport,DCA - Ronald Reagan Washington National Airport
104,AS,439,LAX,3484,DEN,3751,CR7,Los Angeles International Airport,Los Angeles,United States,LAX,33.94250107,-118.40799709999999,125,-8,America/Los_Angeles,Denver International Airport,Denver,DEN,39.86169815,-104.6729965,5431,-7,America/Denver,LAX - Los Angeles International Airport,DEN - Denver International Airport
105,AS,439,LAX,3484,JFK,3797,321 762,Los Angeles International Airport,Los Angeles,United States,LAX,33.94250107,-118.40799709999999,125,-8,America/Los_Angeles,John F Kennedy International Airport,New York,JFK,40.63980103,-73.77890015,13,-5,America/New_York,LAX - Los Angeles International Airport,JFK - John F Kennedy International Airport
106,AS,439,LAX,3484,MIA,3576,757 777 763 738,Los Angeles International Airport,Los Angeles,United States,LAX,33.94250107,-118.40799709999999,125,-8,America/Los_Angeles,Miami International Airport,Miami,MIA,25.79319954,-80.29060364,8,-5,America/New_York,LAX - Los Angeles International Airport,MIA - Miami International Airport
107,AS,439,LAX,3484,ORD,3830,738,Los Angeles International Airport,Los Angeles,United States,LAX,33.94250107,-118.40799709999999,125,-8,America/Los_Angeles,Chicago O'Hare International Airport,Chicago,ORD,41.97859955,-87.90480042,672,-6,America/Chicago,LAX - Los Angeles International Airport,ORD - Chicago O'Hare International Airport
108,AS,439,LAX,3484,SEA,3577,73H 734 739 73J 73G,Los Angeles International Airport,Los Angeles,United States,LAX,33.94250107,-118.40799709999999,125,-8,America/Los_Angeles,Seattle Tacoma International Airport,Seattle,SEA,47.44900131,-122.3089981,433,-8,America/Los_Angeles,LAX - Los Angeles International Airport,SEA - Seattle Tacoma International Airport
109,AS,439,LAX,3484,SFO,3469,738,Los Angeles International Airport,Los Angeles,United States,LAX,33.94250107,-118.40799709999999,125,-8,America/Los_Angeles,San Francisco International Airport,San Francisco,SFO,37.61899948,-122.375,13,-8,America/Los_Angeles,LAX - Los Angeles International Airport,SFO - San Francisco International Airport
110,AS,439,MIA,3576,LAX,3484,777 763 757 738,Miami International Airport,Miami,United States,MIA,25.79319954,-80.29060364,8,-5,America/New_York,Los Angeles International Airport,Los Angeles,LAX,33.94250107,-118.40799709999999,125,-8,America/Los_Angeles,MIA - Miami International Airport,LAX - Los Angeles International Airport
111,AS,439,MIA,3576,SFO,3469,763 757 738,Miami International Airport,Miami,United States,MIA,25.79319954,-80.29060364,8,-5,America/New_York,San Francisco International Airport,San Francisco,SFO,37.61899948,-122.375,13,-8,America/Los_Angeles,MIA - Miami International Airport,SFO - San Francisco International Airport
112,AS,439,MSP,3858,LAX,3484,753 757,Minneapolis-St Paul International/Wold-Chamberlain Airport,Minneapolis,United States,MSP,44.88199997,-93.22180176,841,-6,America/Chicago,Los Angeles International Airport,Los Angeles,LAX,33.94250107,-118.40799709999999,125,-8,America/Los_Angeles,MSP - Minneapolis-St Paul International/Wold-Chamberlain Airport,LAX - Los Angeles International Airport
113,AS,439,MSP,3858,SEA,3577,739 73G 73J,Minneapolis-St Paul International/Wold-Chamberlain Airport,Minneapolis,United States,MSP,44.88199997,-93.22180176,841,-6,America/Chicago,Seattle Tacoma International Airport,Seattle,SEA,47.44900131,-122.3089981,433,-8,America/Los_Angeles,MSP - Minneapolis-St Paul International/Wold-Chamberlain Airport,SEA - Seattle Tacoma International Airport
114,AS,439,ORD,3830,LAX,3484,738,Chicago O'Hare International Airport,Chicago,United States,ORD,41.97859955,-87.90480042,672,-6,America/Chicago,Los Angeles International Airport,Los Angeles,LAX,33.94250107,-118.40799709999999,125,-8,America/Los_Angeles,ORD - Chicago O'Hare International Airport,LAX - Los Angeles International Airport
115,AS,439,ORD,3830,SEA,3577,73H 739 73J,Chicago O'Hare International Airport,Chicago,United States,ORD,41.97859955,-87.90480042,672,-6,America/Chicago,Seattle Tacoma International Airport,Seattle,SEA,47.44900131,-122.3089981,433,-8,America/Los_Angeles,ORD - Chicago O'Hare International Airport,SEA - Seattle Tacoma International Airport
116,AS,439,ORD,3830,SFO,3469,738,Chicago O'Hare International Airport,Chicago,United States,ORD,41.97859955,-87.90480042,672,-6,America/Chicago,San Francisco International Airport,San Francisco,SFO,37.61899948,-122.375,13,-8,America/Los_Angeles,ORD - Chicago O'Hare International Airport,SFO - San Francisco International Airport
117,AS,439,SEA,3577,BOS,3448,73H 73J,Seattle Tacoma International Airport,Seattle,United States,SEA,47.44900131,-122.3089981,433,-8,America/Los_Angeles,General Edward Lawrence Logan International Airport,Boston,BOS,42.36429977,-71.00520325,20,-5,America/New_York,SEA - Seattle Tacoma International Airport,BOS - General Edward Lawrence Logan International Airport
118,AS,439,SEA,3577,DCA,3520,73H,Seattle Tacoma International Airport,Seattle,United States,SEA,47.44900131,-122.3089981,433,-8,America/Los_Angeles,Ronald Reagan Washington National Airport,Washington,DCA,38.8521,-77.037697,15,-5,America/New_York,SEA - Seattle Tacoma International Airport,DCA - Ronald Reagan Washington National Airport
119,AS,439,SEA,3577,DEN,3751,73G 73H 739,Seattle Tacoma International Airport,Seattle,United States,SEA,47.44900131,-122.3089981,433,-8,America/Los_Angeles,Denver International Airport,Denver,DEN,39.86169815,-104.6729965,5431,-7,America/Denver,SEA - Seattle Tacoma International Airport,DEN - Denver International Airport
120,AS,439,SEA,3577,JFK,3797,738,Seattle Tacoma International Airport,Seattle,United States,SEA,47.44900131,-122.3089981,433,-8,America/Los_Angeles,John F Kennedy International Airport,New York,JFK,40.63980103,-73.77890015,13,-5,America/New_York,SEA - Seattle Tacoma International Airport,JFK - John F Kennedy International Airport
121,AS,439,SEA,3577,LAS,3877,73H 739 73G 73J,Seattle Tacoma International Airport,Seattle,United States,SEA,47.44900131,-122.3089981,433,-8,America/Los_Angeles,McCarran International Airport,Las Vegas,LAS,36.08010101,-115.15200039999999,2181,-8,America/Los_Angeles,SEA - Seattle Tacoma International Airport,LAS - McCarran International Airport
122,AS,439,SEA,3577,LAX,3484,73J 739 73G 734 73H,Seattle Tacoma International Airport,Seattle,United States,SEA,47.44900131,-122.3089981,433,-8,America/Los_Angeles,Los Angeles International Airport,Los Angeles,LAX,33.94250107,-118.40799709999999,125,-8,America/Los_Angeles,SEA - Seattle Tacoma International Airport,LAX - Los Angeles International Airport
123,AS,439,SEA,3577,MSP,3858,739 73G 73J,Seattle Tacoma International Airport,Seattle,United States,SEA,47.44900131,-122.3089981,433,-8,America/Los_Angeles,Minneapolis-St Paul International/Wold-Chamberlain Airport,Minneapolis,MSP,44.88199997,-93.22180176,841,-6,America/Chicago,SEA - Seattle Tacoma International Airport,MSP - Minneapolis-St Paul International/Wold-Chamberlain Airport
124,AS,439,SEA,3577,ORD,3830,739 73J 73H,Seattle Tacoma International Airport,Seattle,United States,SEA,47.44900131,-122.3089981,433,-8,America/Los_Angeles,Chicago O'Hare International Airport,Chicago,ORD,41.97859955,-87.90480042,672,-6,America/Chicago,SEA - Seattle Tacoma International Airport,ORD - Chicago O'Hare International Airport
125,AS,439,SEA,3577,SFO,3469,73J 734 73G 73H 739,Seattle Tacoma International Airport,Seattle,United States,SEA,47.44900131,-122.3089981,433,-8,America/Los_Angeles,San Francisco International Airport,San Francisco,SFO,37.61899948,-122.375,13,-8,America/Los_Angeles,SEA - Seattle Tacoma International Airport,SFO - San Francisco International Airport
126,AS,439,SFO,3469,JFK,3797,763 321,San Francisco International Airport,San Francisco,United States,SFO,37.61899948,-122.375,13,-8,America/Los_Angeles,John F Kennedy International Airport,New York,JFK,40.63980103,-73.77890015,13,-5,America/New_York,SFO - San Francisco International Airport,JFK - John F Kennedy International Airport
127,AS,439,SFO,3469,LAX,3484,738,San Francisco International Airport,San Francisco,United States,SFO,37.61899948,-122.375,13,-8,America/Los_Angeles,Los Angeles International Airport,Los Angeles,LAX,33.94250107,-118.40799709999999,125,-8,America/Los_Angeles,SFO - San Francisco International Airport,LAX - Los Angeles International Airport
128,AS,439,SFO,3469,MIA,3576,757 763 738,San Francisco International Airport,San Francisco,United States,SFO,37.61899948,-122.375,13,-8,America/Los_Angeles,Miami International Airport,Miami,MIA,25.79319954,-80.29060364,8,-5,America/New_York,SFO - San Francisco International Airport,MIA - Miami International Airport
129,AS,439,SFO,3469,ORD,3830,738,San Francisco International Airport,San Francisco,United States,SFO,37.61899948,-122.375,13,-8,America/Los_Angeles,Chicago O'Hare International Airport,Chicago,ORD,41.97859955,-87.90480042,672,-6,America/Chicago,SFO - San Francisco International Airport,ORD - Chicago O'Hare International Airport
130,AS,439,SFO,3469,SEA,3577,73H 734 73G 73J 739,San Francisco International Airport,San Francisco,United States,SFO,37.61899948,-122.375,13,-8,America/Los_Angeles,Seattle Tacoma International Airport,Seattle,SEA,47.44900131,-122.3089981,433,-8,America/Los_Angeles,SFO - San Francisco International Airport,SEA - Seattle Tacoma International Airport
131,B6,3029,BOS,3448,DCA,3520,320 E90,General Edward Lawrence Logan International Airport,Boston,United States,BOS,42.36429977,-71.00520325,20,-5,America/New_York,Ronald Reagan Washington National Airport,Washington,DCA,38.8521,-77.037697,15,-5,America/New_York,BOS - General Edward Lawrence Logan International Airport,DCA - Ronald Reagan Washington National Airport
132,B6,3029,BOS,3448,DEN,3751,320,General Edward Lawrence Logan International Airport,Boston,United States,BOS,42.36429977,-71.00520325,20,-5,America/New_York,Denver International Airport,Denver,DEN,39.86169815,-104.6729965,5431,-7,America/Denver,BOS - General Edward Lawrence Logan International Airport,DEN - Denver International Airport
133,B6,3029,BOS,3448,IAD,3714,E90,General Edward Lawrence Logan International Airport,Boston,United States,BOS,42.36429977,-71.00520325,20,-5,America/New_York,Washington Dulles International Airport,Washington,IAD,38.94449997,-77.45580292,312,-5,America/New_York,BOS - General Edward Lawrence Logan International Airport,IAD - Washington Dulles International Airport
134,B6,3029,BOS,3448,JFK,3797,320 E90,General Edward Lawrence Logan International Airport,Boston,United States,BOS,42.36429977,-71.00520325,20,-5,America/New_York,John F Kennedy International Airport,New York,JFK,40.63980103,-73.77890015,13,-5,America/New_York,BOS - General Edward Lawrence Logan International Airport,JFK - John F Kennedy International Airport
135,B6,3029,BOS,3448,LAS,3877,320,General Edward Lawrence Logan International Airport,Boston,United States,BOS,42.36429977,-71.00520325,20,-5,America/New_York,McCarran International Airport,Las Vegas,LAS,36.08010101,-115.15200039999999,2181,-8,America/Los_Angeles,BOS - General Edward Lawrence Logan International Airport,LAS - McCarran International Airport
136,B6,3029,BOS,3448,LAX,3484,320,General Edward Lawrence Logan International Airport,Boston,United States,BOS,42.36429977,-71.00520325,20,-5,America/New_York,Los Angeles International Airport,Los Angeles,LAX,33.94250107,-118.40799709999999,125,-8,America/Los_Angeles,BOS - General Edward Lawrence Logan International Airport,LAX - Los Angeles International Airport
137,B6,3029,BOS,3448,ORD,3830,320 E90,General Edward Lawrence Logan International Airport,Boston,United States,BOS,42.36429977,-71.00520325,20,-5,America/New_York,Chicago O'Hare International Airport,Chicago,ORD,41.97859955,-87.90480042,672,-6,America/Chicago,BOS - General Edward Lawrence Logan International Airport,ORD - Chicago O'Hare International Airport
138,B6,3029,BOS,3448,SEA,3577,320,General Edward Lawrence Logan International Airport,Boston,United States,BOS,42.36429977,-71.00520325,20,-5,America/New_York,Seattle Tacoma International Airport,Seattle,SEA,47.44900131,-122.3089981,433,-8,America/Los_Angeles,BOS - General Edward Lawrence Logan International Airport,SEA - Seattle Tacoma International Airport
139,B6,3029,BOS,3448,SFO,3469,320,General Edward Lawrence Logan International Airport,Boston,United States,BOS,42.36429977,-71.00520325,20,-5,America/New_York,San Francisco International Airport,San Francisco,SFO,37.61899948,-122.375,13,-8,America/Los_Angeles,BOS - General Edward Lawrence Logan International Airport,SFO - San Francisco International Airport
140,B6,3029,DCA,3520,BOS,3448,E90 320,Ronald Reagan Washington National Airport,Washington,United States,DCA,38.8521,-77.037697,15,-5,America/New_York,General Edward Lawrence Logan International Airport,Boston,BOS,42.36429977,-71.00520325,20,-5,America/New_York,DCA - Ronald Reagan Washington National Airport,BOS - General Edward Lawrence Logan International Airport
141,B6,3029,DEN,3751,BOS,3448,320,Denver International Airport,Denver,United States,DEN,39.86169815,-104.6729965,5431,-7,America/Denver,General Edward Lawrence Logan International Airport,Boston,BOS,42.36429977,-71.00520325,20,-5,America/New_York,DEN - Denver International Airport,BOS - General Edward Lawrence Logan International Airport
142,B6,3029,DEN,3751,JFK,3797,320,Denver International Airport,Denver,United States,DEN,39.86169815,-104.6729965,5431,-7,America/Denver,John F Kennedy International Airport,New York,JFK,40.63980103,-73.77890015,13,-5,America/New_York,DEN - Denver International Airport,JFK - John F Kennedy International Airport
143,B6,3029,IAD,3714,BOS,3448,E90,Washington Dulles International Airport,Washington,United States,IAD,38.94449997,-77.45580292,312,-5,America/New_York,General Edward Lawrence Logan International Airport,Boston,BOS,42.36429977,-71.00520325,20,-5,America/New_York,IAD - Washington Dulles International Airport,BOS - General Edward Lawrence Logan International Airport
144,B6,3029,IAD,3714,JFK,3797,E90,Washington Dulles International Airport,Washington,United States,IAD,38.94449997,-77.45580292,312,-5,America/New_York,John F Kennedy International Airport,New York,JFK,40.63980103,-73.77890015,13,-5,America/New_York,IAD - Washington Dulles International Airport,JFK - John F Kennedy International Airport
145,B6,3029,JFK,3797,BOS,3448,E90 320,John F Kennedy International Airport,New York,United States,JFK,40.63980103,-73.77890015,13,-5,America/New_York,General Edward Lawrence Logan International Airport,Boston,BOS,42.36429977,-71.00520325,20,-5,America/New_York,JFK - John F Kennedy International Airport,BOS - General Edward Lawrence Logan International Airport
146,B6,3029,JFK,3797,DEN,3751,320,John F Kennedy International Airport,New York,United States,JFK,40.63980103,-73.77890015,13,-5,America/New_York,Denver International Airport,Denver,DEN,39.86169815,-104.6729965,5431,-7,America/Denver,JFK - John F Kennedy International Airport,DEN - Denver International Airport
147,B6,3029,JFK,3797,IAD,3714,E90,John F Kennedy International Airport,New York,United States,JFK,40.63980103,-73.77890015,13,-5,America/New_York,Washington Dulles International Airport,Washington,IAD,38.94449997,-77.45580292,312,-5,America/New_York,JFK - John F Kennedy International Airport,IAD - Washington Dulles International Airport
148,B6,3029,JFK,3797,LAS,3877,320,John F Kennedy International Airport,New York,United States,JFK,40.63980103,-73.77890015,13,-5,America/New_York,McCarran International Airport,Las Vegas,LAS,36.08010101,-115.15200039999999,2181,-8,America/Los_Angeles,JFK - John F Kennedy International Airport,LAS - McCarran International Airport
149,B6,3029,JFK,3797,LAX,3484,320,John F Kennedy International Airport,New York,United States,JFK,40.63980103,-73.77890015,13,-5,America/New_York,Los Angeles International Airport,Los Angeles,LAX,33.94250107,-118.40799709999999,125,-8,America/Los_Angeles,JFK - John F Kennedy International Airport,LAX - Los Angeles International Airport
150,B6,3029,JFK,3797,ORD,3830,320 E90,John F Kennedy International Airport,New York,United States,JFK,40.63980103,-73.77890015,13,-5,America/New_York,Chicago O'Hare International Airport,Chicago,ORD,41.97859955,-87.90480042,672,-6,America/Chicago,JFK - John F Kennedy International Airport,ORD - Chicago O'Hare International Airport
151,B6,3029,JFK,3797,SEA,3577,320,John F Kennedy International Airport,New York,United States,JFK,40.63980103,-73.77890015,13,-5,America/New_York,Seattle Tacoma International Airport,Seattle,SEA,47.44900131,-122.3089981,433,-8,America/Los_Angeles,JFK - John F Kennedy International Airport,SEA - Seattle Tacoma International Airport
152,B6,3029,JFK,3797,SFO,3469,320,John F Kennedy International Airport,New York,United States,JFK,40.63980103,-73.77890015,13,-5,America/New_York,San Francisco International Airport,San Francisco,SFO,37.61899948,-122.375,13,-8,America/Los_Angeles,JFK - John F Kennedy International Airport,SFO - San Francisco International Airport
153,B6,3029,LAS,3877,BOS,3448,320,McCarran International Airport,Las Vegas,United States,LAS,36.08010101,-115.15200039999999,2181,-8,America/Los_Angeles,General Edward Lawrence Logan International Airport,Boston,BOS,42.36429977,-71.00520325,20,-5,America/New_York,LAS - McCarran International Airport,BOS - General Edward Lawrence Logan International Airport
154,B6,3029,LAS,3877,JFK,3797,320,McCarran International Airport,Las Vegas,United States,LAS,36.08010101,-115.15200039999999,2181,-8,America/Los_Angeles,John F Kennedy International Airport,New York,JFK,40.63980103,-73.77890015,13,-5,America/New_York,LAS - McCarran International Airport,JFK - John F Kennedy International Airport
155,B6,3029,LAX,3484,BOS,3448,320,Los Angeles International Airport,Los Angeles,United States,LAX,33.94250107,-118.40799709999999,125,-8,America/Los_Angeles,General Edward Lawrence Logan International Airport,Boston,BOS,42.36429977,-71.00520325,20,-5,America/New_York,LAX - Los Angeles International Airport,BOS - General Edward Lawrence Logan International Airport
156,B6,3029,LAX,3484,JFK,3797,320,Los Angeles International Airport,Los Angeles,United States,LAX,33.94250107,-118.40799709999999,125,-8,America/Los_Angeles,John F Kennedy International Airport,New York,JFK,40.63980103,-73.77890015,13,-5,America/New_York,LAX - Los Angeles International Airport,JFK - John F Kennedy International Airport
157,B6,3029,ORD,3830,BOS,3448,320 E90,Chicago O'Hare International Airport,Chicago,United States,ORD,41.97859955,-87.90480042,672,-6,America/Chicago,General Edward Lawrence Logan International Airport,Boston,BOS,42.36429977,-71.00520325,20,-5,America/New_York,ORD - Chicago O'Hare International Airport,BOS - General Edward Lawrence Logan International Airport
158,B6,3029,ORD,3830,JFK,3797,E90 320,Chicago O'Hare International Airport,Chicago,United States,ORD,41.97859955,-87.90480042,672,-6,America/Chicago,John F Kennedy International Airport,New York,JFK,40.63980103,-73.77890015,13,-5,America/New_York,ORD - Chicago O'Hare International Airport,JFK - John F Kennedy International Airport
159,B6,3029,SEA,3577,BOS,3448,320,Seattle Tacoma International Airport,Seattle,United States,SEA,47.44900131,-122.3089981,433,-8,America/Los_Angeles,General Edward Lawrence Logan International Airport,Boston,BOS,42.36429977,-71.00520325,20,-5,America/New_York,SEA - Seattle Tacoma International Airport,BOS - General Edward Lawrence Logan International Airport
160,B6,3029,SEA,3577,JFK,3797,320,Seattle Tacoma International Airport,Seattle,United States,SEA,47.44900131,-122.3089981,433,-8,America/Los_Angeles,John F Kennedy International Airport,New York,JFK,40.63980103,-73.77890015,13,-5,America/New_York,SEA - Seattle Tacoma International Airport,JFK - John F Kennedy International Airport
161,B6,3029,SFO,3469,BOS,3448,320,San Francisco International Airport,San Francisco,United States,SFO,37.61899948,-122.375,13,-8,America/Los_Angeles,General Edward Lawrence Logan International Airport,Boston,BOS,42.36429977,-71.00520325,20,-5,America/New_York,SFO - San Francisco International Airport,BOS - General Edward Lawrence Logan International Airport
162,B6,3029,SFO,3469,JFK,3797,320,San Francisco International Airport,San Francisco,United States,SFO,37.61899948,-122.375,13,-8,America/Los_Angeles,John F Kennedy International Airport,New York,JFK,40.63980103,-73.77890015,13,-5,America/New_York,SFO - San Francisco International Airport,JFK - John F Kennedy International Airport
163,DL,2009,BOS,3448,JFK,3797,752 CR7 M88,General Edward Lawrence Logan International Airport,Boston,United States,BOS,42.36429977,-71.00520325,20,-5,America/New_York,John F Kennedy International Airport,New York,JFK,40.63980103,-73.77890015,13,-5,America/New_York,BOS - General Edward Lawrence Logan International Airport,JFK - John F Kennedy International Airport
164,DL,2009,BOS,3448,LAS,3877,73H,General Edward Lawrence Logan International Airport,Boston,United States,BOS,42.36429977,-71.00520325,20,-5,America/New_York,McCarran International Airport,Las Vegas,LAS,36.08010101,-115.15200039999999,2181,-8,America/Los_Angeles,BOS - General Edward Lawrence Logan International Airport,LAS - McCarran International Airport
165,DL,2009,BOS,3448,LAX,3484,73H,General Edward Lawrence Logan International Airport,Boston,United States,BOS,42.36429977,-71.00520325,20,-5,America/New_York,Los Angeles International Airport,Los Angeles,LAX,33.94250107,-118.40799709999999,125,-8,America/Los_Angeles,BOS - General Edward Lawrence Logan International Airport,LAX - Los Angeles International Airport
166,DL,2009,BOS,3448,LGA,3697,E75,General Edward Lawrence Logan International Airport,Boston,United States,BOS,42.36429977,-71.00520325,20,-5,America/New_York,La Guardia Airport,New York,LGA,40.77719879,-73.87259674,21,-5,America/New_York,BOS - General Edward Lawrence Logan International Airport,LGA - La Guardia Airport
167,DL,2009,BOS,3448,MSP,3858,738 319 757 M90 320,General Edward Lawrence Logan International Airport,Boston,United States,BOS,42.36429977,-71.00520325,20,-5,America/New_York,Minneapolis-St Paul International/Wold-Chamberlain Airport,Minneapolis,MSP,44.88199997,-93.22180176,841,-6,America/Chicago,BOS - General Edward Lawrence Logan International Airport,MSP - Minneapolis-St Paul International/Wold-Chamberlain Airport
168,DL,2009,DCA,3520,JFK,3797,CR9,Ronald Reagan Washington National Airport,Washington,United States,DCA,38.8521,-77.037697,15,-5,America/New_York,John F Kennedy International Airport,New York,JFK,40.63980103,-73.77890015,13,-5,America/New_York,DCA - Ronald Reagan Washington National Airport,JFK - John F Kennedy International Airport
169,DL,2009,DCA,3520,LAX,3484,73H,Ronald Reagan Washington National Airport,Washington,United States,DCA,38.8521,-77.037697,15,-5,America/New_York,Los Angeles International Airport,Los Angeles,LAX,33.94250107,-118.40799709999999,125,-8,America/Los_Angeles,DCA - Ronald Reagan Washington National Airport,LAX - Los Angeles International Airport
170,DL,2009,DCA,3520,LGA,3697,E70 E75,Ronald Reagan Washington National Airport,Washington,United States,DCA,38.8521,-77.037697,15,-5,America/New_York,La Guardia Airport,New York,LGA,40.77719879,-73.87259674,21,-5,America/New_York,DCA - Ronald Reagan Washington National Airport,LGA - La Guardia Airport
171,DL,2009,DCA,3520,MSP,3858,M90 M88 319 738 320,Ronald Reagan Washington National Airport,Washington,United States,DCA,38.8521,-77.037697,15,-5,America/New_York,Minneapolis-St Paul International/Wold-Chamberlain Airport,Minneapolis,MSP,44.88199997,-93.22180176,841,-6,America/Chicago,DCA - Ronald Reagan Washington National Airport,MSP - Minneapolis-St Paul International/Wold-Chamberlain Airport
172,DL,2009,DEN,3751,JFK,3797,73H,Denver International Airport,Denver,United States,DEN,39.86169815,-104.6729965,5431,-7,America/Denver,John F Kennedy International Airport,New York,JFK,40.63980103,-73.77890015,13,-5,America/New_York,DEN - Denver International Airport,JFK - John F Kennedy International Airport
173,DL,2009,DEN,3751,LGA,3697,320,Denver International Airport,Denver,United States,DEN,39.86169815,-104.6729965,5431,-7,America/Denver,La Guardia Airport,New York,LGA,40.77719879,-73.87259674,21,-5,America/New_York,DEN - Denver International Airport,LGA - La Guardia Airport
174,DL,2009,DEN,3751,MSP,3858,M90 320 738 757,Denver International Airport,Denver,United States,DEN,39.86169815,-104.6729965,5431,-7,America/Denver,Minneapolis-St Paul International/Wold-Chamberlain Airport,Minneapolis,MSP,44.88199997,-93.22180176,841,-6,America/Chicago,DEN - Denver International Airport,MSP - Minneapolis-St Paul International/Wold-Chamberlain Airport
175,DL,2009,IAD,3714,JFK,3797,ERJ CR7,Washington Dulles International Airport,Washington,United States,IAD,38.94449997,-77.45580292,312,-5,America/New_York,John F Kennedy International Airport,New York,JFK,40.63980103,-73.77890015,13,-5,America/New_York,IAD - Washington Dulles International Airport,JFK - John F Kennedy International Airport
176,DL,2009,IAD,3714,MSP,3858,CR9 CR7,Washington Dulles International Airport,Washington,United States,IAD,38.94449997,-77.45580292,312,-5,America/New_York,Minneapolis-St Paul International/Wold-Chamberlain Airport,Minneapolis,MSP,44.88199997,-93.22180176,841,-6,America/Chicago,IAD - Washington Dulles International Airport,MSP - Minneapolis-St Paul International/Wold-Chamberlain Airport
177,DL,2009,JFK,3797,BOS,3448,CR9 752 CR7,John F Kennedy International Airport,New York,United States,JFK,40.63980103,-73.77890015,13,-5,America/New_York,General Edward Lawrence Logan International Airport,Boston,BOS,42.36429977,-71.00520325,20,-5,America/New_York,JFK - John F Kennedy International Airport,BOS - General Edward Lawrence Logan International Airport
178,DL,2009,JFK,3797,DCA,3520,CR9,John F Kennedy International Airport,New York,United States,JFK,40.63980103,-73.77890015,13,-5,America/New_York,Ronald Reagan Washington National Airport,Washington,DCA,38.8521,-77.037697,15,-5,America/New_York,JFK - John F Kennedy International Airport,DCA - Ronald Reagan Washington National Airport
179,DL,2009,JFK,3797,DEN,3751,73H,John F Kennedy International Airport,New York,United States,JFK,40.63980103,-73.77890015,13,-5,America/New_York,Denver International Airport,Denver,DEN,39.86169815,-104.6729965,5431,-7,America/Denver,JFK - John F Kennedy International Airport,DEN - Denver International Airport
180,DL,2009,JFK,3797,IAD,3714,CR7 ERJ CRJ,John F Kennedy International Airport,New York,United States,JFK,40.63980103,-73.77890015,13,-5,America/New_York,Washington Dulles International Airport,Washington,IAD,38.94449997,-77.45580292,312,-5,America/New_York,JFK - John F Kennedy International Airport,IAD - Washington Dulles International Airport
181,DL,2009,JFK,3797,LAS,3877,73H 738 757,John F Kennedy International Airport,New York,United States,JFK,40.63980103,-73.77890015,13,-5,America/New_York,McCarran International Airport,Las Vegas,LAS,36.08010101,-115.15200039999999,2181,-8,America/Los_Angeles,JFK - John F Kennedy International Airport,LAS - McCarran International Airport
182,DL,2009,JFK,3797,LAX,3484,76W 752,John F Kennedy International Airport,New York,United States,JFK,40.63980103,-73.77890015,13,-5,America/New_York,Los Angeles International Airport,Los Angeles,LAX,33.94250107,-118.40799709999999,125,-8,America/Los_Angeles,JFK - John F Kennedy International Airport,LAX - Los Angeles International Airport
183,DL,2009,JFK,3797,MIA,3576,73H M88 738 319,John F Kennedy International Airport,New York,United States,JFK,40.63980103,-73.77890015,13,-5,America/New_York,Miami International Airport,Miami,MIA,25.79319954,-80.29060364,8,-5,America/New_York,JFK - John F Kennedy International Airport,MIA - Miami International Airport
184,DL,2009,JFK,3797,MSP,3858,CR9 319 M88,John F Kennedy International Airport,New York,United States,JFK,40.63980103,-73.77890015,13,-5,America/New_York,Minneapolis-St Paul International/Wold-Chamberlain Airport,Minneapolis,MSP,44.88199997,-93.22180176,841,-6,America/Chicago,JFK - John F Kennedy International Airport,MSP - Minneapolis-St Paul International/Wold-Chamberlain Airport
185,DL,2009,JFK,3797,ORD,3830,CR9,John F Kennedy International Airport,New York,United States,JFK,40.63980103,-73.77890015,13,-5,America/New_York,Chicago O'Hare International Airport,Chicago,ORD,41.97859955,-87.90480042,672,-6,America/Chicago,JFK - John F Kennedy International Airport,ORD - Chicago O'Hare International Airport
186,DL,2009,JFK,3797,SEA,3577,752 757,John F Kennedy International Airport,New York,United States,JFK,40.63980103,-73.77890015,13,-5,America/New_York,Seattle Tacoma International Airport,Seattle,SEA,47.44900131,-122.3089981,433,-8,America/Los_Angeles,JFK - John F Kennedy International Airport,SEA - Seattle Tacoma International Airport
187,DL,2009,JFK,3797,SFO,3469,752,John F Kennedy International Airport,New York,United States,JFK,40.63980103,-73.77890015,13,-5,America/New_York,San Francisco International Airport,San Francisco,SFO,37.61899948,-122.375,13,-8,America/Los_Angeles,JFK - John F Kennedy International Airport,SFO - San Francisco International Airport
188,DL,2009,LAS,3877,BOS,3448,73H,McCarran International Airport,Las Vegas,United States,LAS,36.08010101,-115.15200039999999,2181,-8,America/Los_Angeles,General Edward Lawrence Logan International Airport,Boston,BOS,42.36429977,-71.00520325,20,-5,America/New_York,LAS - McCarran International Airport,BOS - General Edward Lawrence Logan International Airport
189,DL,2009,LAS,3877,JFK,3797,738 757 73H,McCarran International Airport,Las Vegas,United States,LAS,36.08010101,-115.15200039999999,2181,-8,America/Los_Angeles,John F Kennedy International Airport,New York,JFK,40.63980103,-73.77890015,13,-5,America/New_York,LAS - McCarran International Airport,JFK - John F Kennedy International Airport
190,DL,2009,LAS,3877,LAX,3484,319,McCarran International Airport,Las Vegas,United States,LAS,36.08010101,-115.15200039999999,2181,-8,America/Los_Angeles,Los Angeles International Airport,Los Angeles,LAX,33.94250107,-118.40799709999999,125,-8,America/Los_Angeles,LAS - McCarran International Airport,LAX - Los Angeles International Airport
191,DL,2009,LAS,3877,MSP,3858,757 M90 738 739,McCarran International Airport,Las Vegas,United States,LAS,36.08010101,-115.15200039999999,2181,-8,America/Los_Angeles,Minneapolis-St Paul International/Wold-Chamberlain Airport,Minneapolis,MSP,44.88199997,-93.22180176,841,-6,America/Chicago,LAS - McCarran International Airport,MSP - Minneapolis-St Paul International/Wold-Chamberlain Airport
192,DL,2009,LAS,3877,SEA,3577,CR9,McCarran International Airport,Las Vegas,United States,LAS,36.08010101,-115.15200039999999,2181,-8,America/Los_Angeles,Seattle Tacoma International Airport,Seattle,SEA,47.44900131,-122.3089981,433,-8,America/Los_Angeles,LAS - McCarran International Airport,SEA - Seattle Tacoma International Airport
193,DL,2009,LAX,3484,BOS,3448,73H,Los Angeles International Airport,Los Angeles,United States,LAX,33.94250107,-118.40799709999999,125,-8,America/Los_Angeles,General Edward Lawrence Logan International Airport,Boston,BOS,42.36429977,-71.00520325,20,-5,America/New_York,LAX - Los Angeles International Airport,BOS - General Edward Lawrence Logan International Airport
194,DL,2009,LAX,3484,DCA,3520,73H,Los Angeles International Airport,Los Angeles,United States,LAX,33.94250107,-118.40799709999999,125,-8,America/Los_Angeles,Ronald Reagan Washington National Airport,Washington,DCA,38.8521,-77.037697,15,-5,America/New_York,LAX - Los Angeles International Airport,DCA - Ronald Reagan Washington National Airport
195,DL,2009,LAX,3484,JFK,3797,76W 752,Los Angeles International Airport,Los Angeles,United States,LAX,33.94250107,-118.40799709999999,125,-8,America/Los_Angeles,John F Kennedy International Airport,New York,JFK,40.63980103,-73.77890015,13,-5,America/New_York,LAX - Los Angeles International Airport,JFK - John F Kennedy International Airport
196,DL,2009,LAX,3484,LAS,3877,319,Los Angeles International Airport,Los Angeles,United States,LAX,33.94250107,-118.40799709999999,125,-8,America/Los_Angeles,McCarran International Airport,Las Vegas,LAS,36.08010101,-115.15200039999999,2181,-8,America/Los_Angeles,LAX - Los Angeles International Airport,LAS - McCarran International Airport
197,DL,2009,LAX,3484,MIA,3576,738,Los Angeles International Airport,Los Angeles,United States,LAX,33.94250107,-118.40799709999999,125,-8,America/Los_Angeles,Miami International Airport,Miami,MIA,25.79319954,-80.29060364,8,-5,America/New_York,LAX - Los Angeles International Airport,MIA - Miami International Airport
198,DL,2009,LAX,3484,MSP,3858,757 753 739 763 738,Los Angeles International Airport,Los Angeles,United States,LAX,33.94250107,-118.40799709999999,125,-8,America/Los_Angeles,Minneapolis-St Paul International/Wold-Chamberlain Airport,Minneapolis,MSP,44.88199997,-93.22180176,841,-6,America/Chicago,LAX - Los Angeles International Airport,MSP - Minneapolis-St Paul International/Wold-Chamberlain Airport
199,DL,2009,LAX,3484,SEA,3577,73H,Los Angeles International Airport,Los Angeles,United States,LAX,33.94250107,-118.40799709999999,125,-8,America/Los_Angeles,Seattle Tacoma International Airport,Seattle,SEA,47.44900131,-122.3089981,433,-8,America/Los_Angeles,LAX - Los Angeles International Airport,SEA - Seattle Tacoma International Airport
200,DL,2009,LAX,3484,SFO,3469,E75,Los Angeles International Airport,Los Angeles,United States,LAX,33.94250107,-118.40799709999999,125,-8,America/Los_Angeles,San Francisco International Airport,San Francisco,SFO,37.61899948,-122.375,13,-8,America/Los_Angeles,LAX - Los Angeles International Airport,SFO - San Francisco International Airport
201,DL,2009,LGA,3697,BOS,3448,E75,La Guardia Airport,New York,United States,LGA,40.77719879,-73.87259674,21,-5,America/New_York,General Edward Lawrence Logan International Airport,Boston,BOS,42.36429977,-71.00520325,20,-5,America/New_York,LGA - La Guardia Airport,BOS - General Edward Lawrence Logan International Airport
202,DL,2009,LGA,3697,DCA,3520,E70 E75,La Guardia Airport,New York,United States,LGA,40.77719879,-73.87259674,21,-5,America/New_York,Ronald Reagan Washington National Airport,Washington,DCA,38.8521,-77.037697,15,-5,America/New_York,LGA - La Guardia Airport,DCA - Ronald Reagan Washington National Airport
203,DL,2009,LGA,3697,DEN,3751,320,La Guardia Airport,New York,United States,LGA,40.77719879,-73.87259674,21,-5,America/New_York,Denver International Airport,Denver,DEN,39.86169815,-104.6729965,5431,-7,America/Denver,LGA - La Guardia Airport,DEN - Denver International Airport
204,DL,2009,LGA,3697,MIA,3576,M88 320 738,La Guardia Airport,New York,United States,LGA,40.77719879,-73.87259674,21,-5,America/New_York,Miami International Airport,Miami,MIA,25.79319954,-80.29060364,8,-5,America/New_York,LGA - La Guardia Airport,MIA - Miami International Airport
205,DL,2009,LGA,3697,MSP,3858,319 320 M88,La Guardia Airport,New York,United States,LGA,40.77719879,-73.87259674,21,-5,America/New_York,Minneapolis-St Paul International/Wold-Chamberlain Airport,Minneapolis,MSP,44.88199997,-93.22180176,841,-6,America/Chicago,LGA - La Guardia Airport,MSP - Minneapolis-St Paul International/Wold-Chamberlain Airport
206,DL,2009,LGA,3697,ORD,3830,E75 E70,La Guardia Airport,New York,United States,LGA,40.77719879,-73.87259674,21,-5,America/New_York,Chicago O'Hare International Airport,Chicago,ORD,41.97859955,-87.90480042,672,-6,America/Chicago,LGA - La Guardia Airport,ORD - Chicago O'Hare International Airport
207,DL,2009,MDW,3747,MSP,3858,E75 E70 CR7 CR9,Chicago Midway International Airport,Chicago,United States,MDW,41.78599929999999,-87.75240326,620,-6,America/Chicago,Minneapolis-St Paul International/Wold-Chamberlain Airport,Minneapolis,MSP,44.88199997,-93.22180176,841,-6,America/Chicago,MDW - Chicago Midway International Airport,MSP - Minneapolis-St Paul International/Wold-Chamberlain Airport
208,DL,2009,MIA,3576,JFK,3797,M88 73H 738 319,Miami International Airport,Miami,United States,MIA,25.79319954,-80.29060364,8,-5,America/New_York,John F Kennedy International Airport,New York,JFK,40.63980103,-73.77890015,13,-5,America/New_York,MIA - Miami International Airport,JFK - John F Kennedy International Airport
209,DL,2009,MIA,3576,LAX,3484,738,Miami International Airport,Miami,United States,MIA,25.79319954,-80.29060364,8,-5,America/New_York,Los Angeles International Airport,Los Angeles,LAX,33.94250107,-118.40799709999999,125,-8,America/Los_Angeles,MIA - Miami International Airport,LAX - Los Angeles International Airport
210,DL,2009,MIA,3576,LGA,3697,320 M88 738,Miami International Airport,Miami,United States,MIA,25.79319954,-80.29060364,8,-5,America/New_York,La Guardia Airport,New York,LGA,40.77719879,-73.87259674,21,-5,America/New_York,MIA - Miami International Airport,LGA - La Guardia Airport
211,DL,2009,MIA,3576,MSP,3858,320 M90,Miami International Airport,Miami,United States,MIA,25.79319954,-80.29060364,8,-5,America/New_York,Minneapolis-St Paul International/Wold-Chamberlain Airport,Minneapolis,MSP,44.88199997,-93.22180176,841,-6,America/Chicago,MIA - Miami International Airport,MSP - Minneapolis-St Paul International/Wold-Chamberlain Airport
212,DL,2009,MSP,3858,BOS,3448,757 738 73H 320 319 M88,Minneapolis-St Paul International/Wold-Chamberlain Airport,Minneapolis,United States,MSP,44.88199997,-93.22180176,841,-6,America/Chicago,General Edward Lawrence Logan International Airport,Boston,BOS,42.36429977,-71.00520325,20,-5,America/New_York,MSP - Minneapolis-St Paul International/Wold-Chamberlain Airport,BOS - General Edward Lawrence Logan International Airport
213,DL,2009,MSP,3858,DCA,3520,M88 M90 319 738 320,Minneapolis-St Paul International/Wold-Chamberlain Airport,Minneapolis,United States,MSP,44.88199997,-93.22180176,841,-6,America/Chicago,Ronald Reagan Washington National Airport,Washington,DCA,38.8521,-77.037697,15,-5,America/New_York,MSP - Minneapolis-St Paul International/Wold-Chamberlain Airport,DCA - Ronald Reagan Washington National Airport
214,DL,2009,MSP,3858,DEN,3751,M90 320,Minneapolis-St Paul International/Wold-Chamberlain Airport,Minneapolis,United States,MSP,44.88199997,-93.22180176,841,-6,America/Chicago,Denver International Airport,Denver,DEN,39.86169815,-104.6729965,5431,-7,America/Denver,MSP - Minneapolis-St Paul International/Wold-Chamberlain Airport,DEN - Denver International Airport
215,DL,2009,MSP,3858,IAD,3714,CR9 CR7,Minneapolis-St Paul International/Wold-Chamberlain Airport,Minneapolis,United States,MSP,44.88199997,-93.22180176,841,-6,America/Chicago,Washington Dulles International Airport,Washington,IAD,38.94449997,-77.45580292,312,-5,America/New_York,MSP - Minneapolis-St Paul International/Wold-Chamberlain Airport,IAD - Washington Dulles International Airport
216,DL,2009,MSP,3858,JFK,3797,319 M88,Minneapolis-St Paul International/Wold-Chamberlain Airport,Minneapolis,United States,MSP,44.88199997,-93.22180176,841,-6,America/Chicago,John F Kennedy International Airport,New York,JFK,40.63980103,-73.77890015,13,-5,America/New_York,MSP - Minneapolis-St Paul International/Wold-Chamberlain Airport,JFK - John F Kennedy International Airport
217,DL,2009,MSP,3858,LAS,3877,M90 757 320 738,Minneapolis-St Paul International/Wold-Chamberlain Airport,Minneapolis,United States,MSP,44.88199997,-93.22180176,841,-6,America/Chicago,McCarran International Airport,Las Vegas,LAS,36.08010101,-115.15200039999999,2181,-8,America/Los_Angeles,MSP - Minneapolis-St Paul International/Wold-Chamberlain Airport,LAS - McCarran International Airport
218,DL,2009,MSP,3858,LAX,3484,738 763 753 757 739 320,Minneapolis-St Paul International/Wold-Chamberlain Airport,Minneapolis,United States,MSP,44.88199997,-93.22180176,841,-6,America/Chicago,Los Angeles International Airport,Los Angeles,LAX,33.94250107,-118.40799709999999,125,-8,America/Los_Angeles,MSP - Minneapolis-St Paul International/Wold-Chamberlain Airport,LAX - Los Angeles International Airport
219,DL,2009,MSP,3858,LGA,3697,M88 319 320 738,Minneapolis-St Paul International/Wold-Chamberlain Airport,Minneapolis,United States,MSP,44.88199997,-93.22180176,841,-6,America/Chicago,La Guardia Airport,New York,LGA,40.77719879,-73.87259674,21,-5,America/New_York,MSP - Minneapolis-St Paul International/Wold-Chamberlain Airport,LGA - La Guardia Airport
220,DL,2009,MSP,3858,MDW,3747,E75 E70 CR7 CR9,Minneapolis-St Paul International/Wold-Chamberlain Airport,Minneapolis,United States,MSP,44.88199997,-93.22180176,841,-6,America/Chicago,Chicago Midway International Airport,Chicago,MDW,41.78599929999999,-87.75240326,620,-6,America/Chicago,MSP - Minneapolis-St Paul International/Wold-Chamberlain Airport,MDW - Chicago Midway International Airport
221,DL,2009,MSP,3858,MIA,3576,320 M90,Minneapolis-St Paul International/Wold-Chamberlain Airport,Minneapolis,United States,MSP,44.88199997,-93.22180176,841,-6,America/Chicago,Miami International Airport,Miami,MIA,25.79319954,-80.29060364,8,-5,America/New_York,MSP - Minneapolis-St Paul International/Wold-Chamberlain Airport,MIA - Miami International Airport
222,DL,2009,MSP,3858,ORD,3830,M90 M88 320 319,Minneapolis-St Paul International/Wold-Chamberlain Airport,Minneapolis,United States,MSP,44.88199997,-93.22180176,841,-6,America/Chicago,Chicago O'Hare International Airport,Chicago,ORD,41.97859955,-87.90480042,672,-6,America/Chicago,MSP - Minneapolis-St Paul International/Wold-Chamberlain Airport,ORD - Chicago O'Hare International Airport
223,DL,2009,MSP,3858,SEA,3577,738 739 757 753 763,Minneapolis-St Paul International/Wold-Chamberlain Airport,Minneapolis,United States,MSP,44.88199997,-93.22180176,841,-6,America/Chicago,Seattle Tacoma International Airport,Seattle,SEA,47.44900131,-122.3089981,433,-8,America/Los_Angeles,MSP - Minneapolis-St Paul International/Wold-Chamberlain Airport,SEA - Seattle Tacoma International Airport
224,DL,2009,MSP,3858,SFO,3469,320 753 M90 757 738,Minneapolis-St Paul International/Wold-Chamberlain Airport,Minneapolis,United States,MSP,44.88199997,-93.22180176,841,-6,America/Chicago,San Francisco International Airport,San Francisco,SFO,37.61899948,-122.375,13,-8,America/Los_Angeles,MSP - Minneapolis-St Paul International/Wold-Chamberlain Airport,SFO - San Francisco International Airport
225,DL,2009,ORD,3830,JFK,3797,CR9,Chicago O'Hare International Airport,Chicago,United States,ORD,41.97859955,-87.90480042,672,-6,America/Chicago,John F Kennedy International Airport,New York,JFK,40.63980103,-73.77890015,13,-5,America/New_York,ORD - Chicago O'Hare International Airport,JFK - John F Kennedy International Airport
226,DL,2009,ORD,3830,LGA,3697,E75 E70,Chicago O'Hare International Airport,Chicago,United States,ORD,41.97859955,-87.90480042,672,-6,America/Chicago,La Guardia Airport,New York,LGA,40.77719879,-73.87259674,21,-5,America/New_York,ORD - Chicago O'Hare International Airport,LGA - La Guardia Airport
227,DL,2009,ORD,3830,MSP,3858,M88 M90 320 319,Chicago O'Hare International Airport,Chicago,United States,ORD,41.97859955,-87.90480042,672,-6,America/Chicago,Minneapolis-St Paul International/Wold-Chamberlain Airport,Minneapolis,MSP,44.88199997,-93.22180176,841,-6,America/Chicago,ORD - Chicago O'Hare International Airport,MSP - Minneapolis-St Paul International/Wold-Chamberlain Airport
228,DL,2009,SEA,3577,JFK,3797,752 757,Seattle Tacoma International Airport,Seattle,United States,SEA,47.44900131,-122.3089981,433,-8,America/Los_Angeles,John F Kennedy International Airport,New York,JFK,40.63980103,-73.77890015,13,-5,America/New_York,SEA - Seattle Tacoma International Airport,JFK - John F Kennedy International Airport
229,DL,2009,SEA,3577,LAS,3877,CR9,Seattle Tacoma International Airport,Seattle,United States,SEA,47.44900131,-122.3089981,433,-8,America/Los_Angeles,McCarran International Airport,Las Vegas,LAS,36.08010101,-115.15200039999999,2181,-8,America/Los_Angeles,SEA - Seattle Tacoma International Airport,LAS - McCarran International Airport
230,DL,2009,SEA,3577,LAX,3484,73H,Seattle Tacoma International Airport,Seattle,United States,SEA,47.44900131,-122.3089981,433,-8,America/Los_Angeles,Los Angeles International Airport,Los Angeles,LAX,33.94250107,-118.40799709999999,125,-8,America/Los_Angeles,SEA - Seattle Tacoma International Airport,LAX - Los Angeles International Airport
231,DL,2009,SEA,3577,MSP,3858,763 73H 753 738 757,Seattle Tacoma International Airport,Seattle,United States,SEA,47.44900131,-122.3089981,433,-8,America/Los_Angeles,Minneapolis-St Paul International/Wold-Chamberlain Airport,Minneapolis,MSP,44.88199997,-93.22180176,841,-6,America/Chicago,SEA - Seattle Tacoma International Airport,MSP - Minneapolis-St Paul International/Wold-Chamberlain Airport
232,DL,2009,SEA,3577,SFO,3469,E75 734,Seattle Tacoma International Airport,Seattle,United States,SEA,47.44900131,-122.3089981,433,-8,America/Los_Angeles,San Francisco International Airport,San Francisco,SFO,37.61899948,-122.375,13,-8,America/Los_Angeles,SEA - Seattle Tacoma International Airport,SFO - San Francisco International Airport
233,DL,2009,SFO,3469,JFK,3797,752,San Francisco International Airport,San Francisco,United States,SFO,37.61899948,-122.375,13,-8,America/Los_Angeles,John F Kennedy International Airport,New York,JFK,40.63980103,-73.77890015,13,-5,America/New_York,SFO - San Francisco International Airport,JFK - John F Kennedy International Airport
234,DL,2009,SFO,3469,LAX,3484,E75,San Francisco International Airport,San Francisco,United States,SFO,37.61899948,-122.375,13,-8,America/Los_Angeles,Los Angeles International Airport,Los Angeles,LAX,33.94250107,-118.40799709999999,125,-8,America/Los_Angeles,SFO - San Francisco International Airport,LAX - Los Angeles International Airport
235,DL,2009,SFO,3469,MSP,3858,M90 753 320 757 738,San Francisco International Airport,San Francisco,United States,SFO,37.61899948,-122.375,13,-8,America/Los_Angeles,Minneapolis-St Paul International/Wold-Chamberlain Airport,Minneapolis,MSP,44.88199997,-93.22180176,841,-6,America/Chicago,SFO - San Francisco International Airport,MSP - Minneapolis-St Paul International/Wold-Chamberlain Airport
236,DL,2009,SFO,3469,SEA,3577,E75 734,San Francisco International Airport,San Francisco,United States,SFO,37.61899948,-122.375,13,-8,America/Los_Angeles,Seattle Tacoma International Airport,Seattle,SEA,47.44900131,-122.3089981,433,-8,America/Los_Angeles,SFO - San Francisco International Airport,SEA - Seattle Tacoma International Airport
237,EY,2222,JFK,3797,LAS,3877,738,John F Kennedy International Airport,New York,United States,JFK,40.63980103,-73.77890015,13,-5,America/New_York,McCarran International Airport,Las Vegas,LAS,36.08010101,-115.15200039999999,2181,-8,America/Los_Angeles,JFK - John F Kennedy International Airport,LAS - McCarran International Airport
238,EY,2222,LAS,3877,JFK,3797,767 757,McCarran International Airport,Las Vegas,United States,LAS,36.08010101,-115.15200039999999,2181,-8,America/Los_Angeles,John F Kennedy International Airport,New York,JFK,40.63980103,-73.77890015,13,-5,America/New_York,LAS - McCarran International Airport,JFK - John F Kennedy International Airport
239,F9,2468,DCA,3520,DEN,3751,320 319,Ronald Reagan Washington National Airport,Washington,United States,DCA,38.8521,-77.037697,15,-5,America/New_York,Denver International Airport,Denver,DEN,39.86169815,-104.6729965,5431,-7,America/Denver,DCA - Ronald Reagan Washington National Airport,DEN - Denver International Airport
240,F9,2468,DEN,3751,DCA,3520,320 319,Denver International Airport,Denver,United States,DEN,39.86169815,-104.6729965,5431,-7,America/Denver,Ronald Reagan Washington National Airport,Washington,DCA,38.8521,-77.037697,15,-5,America/New_York,DEN - Denver International Airport,DCA - Ronald Reagan Washington National Airport
241,F9,2468,DEN,3751,LAS,3877,320 319,Denver International Airport,Denver,United States,DEN,39.86169815,-104.6729965,5431,-7,America/Denver,McCarran International Airport,Las Vegas,LAS,36.08010101,-115.15200039999999,2181,-8,America/Los_Angeles,DEN - Denver International Airport,LAS - McCarran International Airport
242,F9,2468,DEN,3751,LAX,3484,319 320,Denver International Airport,Denver,United States,DEN,39.86169815,-104.6729965,5431,-7,America/Denver,Los Angeles International Airport,Los Angeles,LAX,33.94250107,-118.40799709999999,125,-8,America/Los_Angeles,DEN - Denver International Airport,LAX - Los Angeles International Airport
243,F9,2468,DEN,3751,LGA,3697,320,Denver International Airport,Denver,United States,DEN,39.86169815,-104.6729965,5431,-7,America/Denver,La Guardia Airport,New York,LGA,40.77719879,-73.87259674,21,-5,America/New_York,DEN - Denver International Airport,LGA - La Guardia Airport
244,F9,2468,DEN,3751,MDW,3747,319,Denver International Airport,Denver,United States,DEN,39.86169815,-104.6729965,5431,-7,America/Denver,Chicago Midway International Airport,Chicago,MDW,41.78599929999999,-87.75240326,620,-6,America/Chicago,DEN - Denver International Airport,MDW - Chicago Midway International Airport
245,F9,2468,DEN,3751,MSP,3858,319 320,Denver International Airport,Denver,United States,DEN,39.86169815,-104.6729965,5431,-7,America/Denver,Minneapolis-St Paul International/Wold-Chamberlain Airport,Minneapolis,MSP,44.88199997,-93.22180176,841,-6,America/Chicago,DEN - Denver International Airport,MSP - Minneapolis-St Paul International/Wold-Chamberlain Airport
246,F9,2468,DEN,3751,SEA,3577,319 320,Denver International Airport,Denver,United States,DEN,39.86169815,-104.6729965,5431,-7,America/Denver,Seattle Tacoma International Airport,Seattle,SEA,47.44900131,-122.3089981,433,-8,America/Los_Angeles,DEN - Denver International Airport,SEA - Seattle Tacoma International Airport
247,F9,2468,DEN,3751,SFO,3469,320 319,Denver International Airport,Denver,United States,DEN,39.86169815,-104.6729965,5431,-7,America/Denver,San Francisco International Airport,San Francisco,SFO,37.61899948,-122.375,13,-8,America/Los_Angeles,DEN - Denver International Airport,SFO - San Francisco International Airport
248,F9,2468,LAS,3877,DEN,3751,319 320,McCarran International Airport,Las Vegas,United States,LAS,36.08010101,-115.15200039999999,2181,-8,America/Los_Angeles,Denver International Airport,Denver,DEN,39.86169815,-104.6729965,5431,-7,America/Denver,LAS - McCarran International Airport,DEN - Denver International Airport
249,F9,2468,LAX,3484,DEN,3751,320 319,Los Angeles International Airport,Los Angeles,United States,LAX,33.94250107,-118.40799709999999,125,-8,America/Los_Angeles,Denver International Airport,Denver,DEN,39.86169815,-104.6729965,5431,-7,America/Denver,LAX - Los Angeles International Airport,DEN - Denver International Airport
250,F9,2468,LGA,3697,DEN,3751,320,La Guardia Airport,New York,United States,LGA,40.77719879,-73.87259674,21,-5,America/New_York,Denver International Airport,Denver,DEN,39.86169815,-104.6729965,5431,-7,America/Denver,LGA - La Guardia Airport,DEN - Denver International Airport
251,F9,2468,MDW,3747,DEN,3751,319,Chicago Midway International Airport,Chicago,United States,MDW,41.78599929999999,-87.75240326,620,-6,America/Chicago,Denver International Airport,Denver,DEN,39.86169815,-104.6729965,5431,-7,America/Denver,MDW - Chicago Midway International Airport,DEN - Denver International Airport
252,F9,2468,MSP,3858,DEN,3751,319 320,Minneapolis-St Paul International/Wold-Chamberlain Airport,Minneapolis,United States,MSP,44.88199997,-93.22180176,841,-6,America/Chicago,Denver International Airport,Denver,DEN,39.86169815,-104.6729965,5431,-7,America/Denver,MSP - Minneapolis-St Paul International/Wold-Chamberlain Airport,DEN - Denver International Airport
253,F9,2468,SEA,3577,DEN,3751,320 319,Seattle Tacoma International Airport,Seattle,United States,SEA,47.44900131,-122.3089981,433,-8,America/Los_Angeles,Denver International Airport,Denver,DEN,39.86169815,-104.6729965,5431,-7,America/Denver,SEA - Seattle Tacoma International Airport,DEN - Denver International Airport
254,F9,2468,SFO,3469,DEN,3751,320 319,San Francisco International Airport,San Francisco,United States,SFO,37.61899948,-122.375,13,-8,America/Los_Angeles,Denver International Airport,Denver,DEN,39.86169815,-104.6729965,5431,-7,America/Denver,SFO - San Francisco International Airport,DEN - Denver International Airport
255,FL,1316,BOS,3448,MDW,3747,73W,General Edward Lawrence Logan International Airport,Boston,United States,BOS,42.36429977,-71.00520325,20,-5,America/New_York,Chicago Midway International Airport,Chicago,MDW,41.78599929999999,-87.75240326,620,-6,America/Chicago,BOS - General Edward Lawrence Logan International Airport,MDW - Chicago Midway International Airport
256,FL,1316,DAL,3502,SEA,3577,73W,Dallas Love Field,Dallas,United States,DAL,32.8470993,-96.85179901,487,-6,America/Chicago,Seattle Tacoma International Airport,Seattle,SEA,47.44900131,-122.3089981,433,-8,America/Los_Angeles,DAL - Dallas Love Field,SEA - Seattle Tacoma International Airport
257,FL,1316,DAL,3502,SFO,3469,73W,Dallas Love Field,Dallas,United States,DAL,32.8470993,-96.85179901,487,-6,America/Chicago,San Francisco International Airport,San Francisco,SFO,37.61899948,-122.375,13,-8,America/Los_Angeles,DAL - Dallas Love Field,SFO - San Francisco International Airport
258,FL,1316,DEN,3751,LAS,3877,73C 73W 73H,Denver International Airport,Denver,United States,DEN,39.86169815,-104.6729965,5431,-7,America/Denver,McCarran International Airport,Las Vegas,LAS,36.08010101,-115.15200039999999,2181,-8,America/Los_Angeles,DEN - Denver International Airport,LAS - McCarran International Airport
259,FL,1316,DEN,3751,LAX,3484,73W 73C,Denver International Airport,Denver,United States,DEN,39.86169815,-104.6729965,5431,-7,America/Denver,Los Angeles International Airport,Los Angeles,LAX,33.94250107,-118.40799709999999,125,-8,America/Los_Angeles,DEN - Denver International Airport,LAX - Los Angeles International Airport
260,FL,1316,DEN,3751,MDW,3747,73W,Denver International Airport,Denver,United States,DEN,39.86169815,-104.6729965,5431,-7,America/Denver,Chicago Midway International Airport,Chicago,MDW,41.78599929999999,-87.75240326,620,-6,America/Chicago,DEN - Denver International Airport,MDW - Chicago Midway International Airport
261,FL,1316,DEN,3751,MSP,3858,73W 73H,Denver International Airport,Denver,United States,DEN,39.86169815,-104.6729965,5431,-7,America/Denver,Minneapolis-St Paul International/Wold-Chamberlain Airport,Minneapolis,MSP,44.88199997,-93.22180176,841,-6,America/Chicago,DEN - Denver International Airport,MSP - Minneapolis-St Paul International/Wold-Chamberlain Airport
262,FL,1316,IAD,3714,DEN,3751,73W,Washington Dulles International Airport,Washington,United States,IAD,38.94449997,-77.45580292,312,-5,America/New_York,Denver International Airport,Denver,DEN,39.86169815,-104.6729965,5431,-7,America/Denver,IAD - Washington Dulles International Airport,DEN - Denver International Airport
263,FL,1316,IAD,3714,MDW,3747,73W,Washington Dulles International Airport,Washington,United States,IAD,38.94449997,-77.45580292,312,-5,America/New_York,Chicago Midway International Airport,Chicago,MDW,41.78599929999999,-87.75240326,620,-6,America/Chicago,IAD - Washington Dulles International Airport,MDW - Chicago Midway International Airport
264,FL,1316,LAS,3877,DEN,3751,73C 73W,McCarran International Airport,Las Vegas,United States,LAS,36.08010101,-115.15200039999999,2181,-8,America/Los_Angeles,Denver International Airport,Denver,DEN,39.86169815,-104.6729965,5431,-7,America/Denver,LAS - McCarran International Airport,DEN - Denver International Airport
265,FL,1316,LAS,3877,LAX,3484,73W,McCarran International Airport,Las Vegas,United States,LAS,36.08010101,-115.15200039999999,2181,-8,America/Los_Angeles,Los Angeles International Airport,Los Angeles,LAX,33.94250107,-118.40799709999999,125,-8,America/Los_Angeles,LAS - McCarran International Airport,LAX - Los Angeles International Airport
266,FL,1316,LAS,3877,MDW,3747,73H 73W,McCarran International Airport,Las Vegas,United States,LAS,36.08010101,-115.15200039999999,2181,-8,America/Los_Angeles,Chicago Midway International Airport,Chicago,MDW,41.78599929999999,-87.75240326,620,-6,America/Chicago,LAS - McCarran International Airport,MDW - Chicago Midway International Airport
267,FL,1316,LAS,3877,SEA,3577,73C,McCarran International Airport,Las Vegas,United States,LAS,36.08010101,-115.15200039999999,2181,-8,America/Los_Angeles,Seattle Tacoma International Airport,Seattle,SEA,47.44900131,-122.3089981,433,-8,America/Los_Angeles,LAS - McCarran International Airport,SEA - Seattle Tacoma International Airport
268,FL,1316,LAX,3484,DEN,3751,73W,Los Angeles International Airport,Los Angeles,United States,LAX,33.94250107,-118.40799709999999,125,-8,America/Los_Angeles,Denver International Airport,Denver,DEN,39.86169815,-104.6729965,5431,-7,America/Denver,LAX - Los Angeles International Airport,DEN - Denver International Airport
269,FL,1316,LAX,3484,LAS,3877,73W,Los Angeles International Airport,Los Angeles,United States,LAX,33.94250107,-118.40799709999999,125,-8,America/Los_Angeles,McCarran International Airport,Las Vegas,LAS,36.08010101,-115.15200039999999,2181,-8,America/Los_Angeles,LAX - Los Angeles International Airport,LAS - McCarran International Airport
270,FL,1316,LAX,3484,MDW,3747,73H 738,Los Angeles International Airport,Los Angeles,United States,LAX,33.94250107,-118.40799709999999,125,-8,America/Los_Angeles,Chicago Midway International Airport,Chicago,MDW,41.78599929999999,-87.75240326,620,-6,America/Chicago,LAX - Los Angeles International Airport,MDW - Chicago Midway International Airport
271,FL,1316,LGA,3697,MDW,3747,73H 73W,La Guardia Airport,New York,United States,LGA,40.77719879,-73.87259674,21,-5,America/New_York,Chicago Midway International Airport,Chicago,MDW,41.78599929999999,-87.75240326,620,-6,America/Chicago,LGA - La Guardia Airport,MDW - Chicago Midway International Airport
272,FL,1316,MDW,3747,BOS,3448,73W,Chicago Midway International Airport,Chicago,United States,MDW,41.78599929999999,-87.75240326,620,-6,America/Chicago,General Edward Lawrence Logan International Airport,Boston,BOS,42.36429977,-71.00520325,20,-5,America/New_York,MDW - Chicago Midway International Airport,BOS - General Edward Lawrence Logan International Airport
273,FL,1316,MDW,3747,DEN,3751,73W,Chicago Midway International Airport,Chicago,United States,MDW,41.78599929999999,-87.75240326,620,-6,America/Chicago,Denver International Airport,Denver,DEN,39.86169815,-104.6729965,5431,-7,America/Denver,MDW - Chicago Midway International Airport,DEN - Denver International Airport
274,FL,1316,MDW,3747,IAD,3714,73W,Chicago Midway International Airport,Chicago,United States,MDW,41.78599929999999,-87.75240326,620,-6,America/Chicago,Washington Dulles International Airport,Washington,IAD,38.94449997,-77.45580292,312,-5,America/New_York,MDW - Chicago Midway International Airport,IAD - Washington Dulles International Airport
275,FL,1316,MDW,3747,LAS,3877,73W 738,Chicago Midway International Airport,Chicago,United States,MDW,41.78599929999999,-87.75240326,620,-6,America/Chicago,McCarran International Airport,Las Vegas,LAS,36.08010101,-115.15200039999999,2181,-8,America/Los_Angeles,MDW - Chicago Midway International Airport,LAS - McCarran International Airport
276,FL,1316,MDW,3747,LAX,3484,73W 73H,Chicago Midway International Airport,Chicago,United States,MDW,41.78599929999999,-87.75240326,620,-6,America/Chicago,Los Angeles International Airport,Los Angeles,LAX,33.94250107,-118.40799709999999,125,-8,America/Los_Angeles,MDW - Chicago Midway International Airport,LAX - Los Angeles International Airport
277,FL,1316,MDW,3747,LGA,3697,73W,Chicago Midway International Airport,Chicago,United States,MDW,41.78599929999999,-87.75240326,620,-6,America/Chicago,La Guardia Airport,New York,LGA,40.77719879,-73.87259674,21,-5,America/New_York,MDW - Chicago Midway International Airport,LGA - La Guardia Airport
278,FL,1316,MDW,3747,MSP,3858,73W,Chicago Midway International Airport,Chicago,United States,MDW,41.78599929999999,-87.75240326,620,-6,America/Chicago,Minneapolis-St Paul International/Wold-Chamberlain Airport,Minneapolis,MSP,44.88199997,-93.22180176,841,-6,America/Chicago,MDW - Chicago Midway International Airport,MSP - Minneapolis-St Paul International/Wold-Chamberlain Airport
279,FL,1316,MDW,3747,SEA,3577,73W 73H,Chicago Midway International Airport,Chicago,United States,MDW,41.78599929999999,-87.75240326,620,-6,America/Chicago,Seattle Tacoma International Airport,Seattle,SEA,47.44900131,-122.3089981,433,-8,America/Los_Angeles,MDW - Chicago Midway International Airport,SEA - Seattle Tacoma International Airport
280,FL,1316,MDW,3747,SFO,3469,73W,Chicago Midway International Airport,Chicago,United States,MDW,41.78599929999999,-87.75240326,620,-6,America/Chicago,San Francisco International Airport,San Francisco,SFO,37.61899948,-122.375,13,-8,America/Los_Angeles,MDW - Chicago Midway International Airport,SFO - San Francisco International Airport
281,FL,1316,MSP,3858,DEN,3751,73C,Minneapolis-St Paul International/Wold-Chamberlain Airport,Minneapolis,United States,MSP,44.88199997,-93.22180176,841,-6,America/Chicago,Denver International Airport,Denver,DEN,39.86169815,-104.6729965,5431,-7,America/Denver,MSP - Minneapolis-St Paul International/Wold-Chamberlain Airport,DEN - Denver International Airport
282,FL,1316,MSP,3858,MDW,3747,73W 73H,Minneapolis-St Paul International/Wold-Chamberlain Airport,Minneapolis,United States,MSP,44.88199997,-93.22180176,841,-6,America/Chicago,Chicago Midway International Airport,Chicago,MDW,41.78599929999999,-87.75240326,620,-6,America/Chicago,MSP - Minneapolis-St Paul International/Wold-Chamberlain Airport,MDW - Chicago Midway International Airport
283,FL,1316,SEA,3577,DEN,3751,73W,Seattle Tacoma International Airport,Seattle,United States,SEA,47.44900131,-122.3089981,433,-8,America/Los_Angeles,Denver International Airport,Denver,DEN,39.86169815,-104.6729965,5431,-7,America/Denver,SEA - Seattle Tacoma International Airport,DEN - Denver International Airport
284,FL,1316,SEA,3577,LAS,3877,73W,Seattle Tacoma International Airport,Seattle,United States,SEA,47.44900131,-122.3089981,433,-8,America/Los_Angeles,McCarran International Airport,Las Vegas,LAS,36.08010101,-115.15200039999999,2181,-8,America/Los_Angeles,SEA - Seattle Tacoma International Airport,LAS - McCarran International Airport
285,FL,1316,SEA,3577,MDW,3747,73W 73H,Seattle Tacoma International Airport,Seattle,United States,SEA,47.44900131,-122.3089981,433,-8,America/Los_Angeles,Chicago Midway International Airport,Chicago,MDW,41.78599929999999,-87.75240326,620,-6,America/Chicago,SEA - Seattle Tacoma International Airport,MDW - Chicago Midway International Airport
286,FL,1316,SFO,3469,DEN,3751,73W,San Francisco International Airport,San Francisco,United States,SFO,37.61899948,-122.375,13,-8,America/Los_Angeles,Denver International Airport,Denver,DEN,39.86169815,-104.6729965,5431,-7,America/Denver,SFO - San Francisco International Airport,DEN - Denver International Airport
287,FL,1316,SFO,3469,MDW,3747,73W,San Francisco International Airport,San Francisco,United States,SFO,37.61899948,-122.375,13,-8,America/Los_Angeles,Chicago Midway International Airport,Chicago,MDW,41.78599929999999,-87.75240326,620,-6,America/Chicago,SFO - San Francisco International Airport,MDW - Chicago Midway International Airport
288,HA,2688,JFK,3797,LAS,3877,320,John F Kennedy International Airport,New York,United States,JFK,40.63980103,-73.77890015,13,-5,America/New_York,McCarran International Airport,Las Vegas,LAS,36.08010101,-115.15200039999999,2181,-8,America/Los_Angeles,JFK - John F Kennedy International Airport,LAS - McCarran International Airport
289,HA,2688,LAS,3877,JFK,3797,320,McCarran International Airport,Las Vegas,United States,LAS,36.08010101,-115.15200039999999,2181,-8,America/Los_Angeles,John F Kennedy International Airport,New York,JFK,40.63980103,-73.77890015,13,-5,America/New_York,LAS - McCarran International Airport,JFK - John F Kennedy International Airport
290,HA,2688,LAS,3877,SFO,3469,320,McCarran International Airport,Las Vegas,United States,LAS,36.08010101,-115.15200039999999,2181,-8,America/Los_Angeles,San Francisco International Airport,San Francisco,SFO,37.61899948,-122.375,13,-8,America/Los_Angeles,LAS - McCarran International Airport,SFO - San Francisco International Airport
291,HA,2688,SFO,3469,LAS,3877,320,San Francisco International Airport,San Francisco,United States,SFO,37.61899948,-122.375,13,-8,America/Los_Angeles,McCarran International Airport,Las Vegas,LAS,36.08010101,-115.15200039999999,2181,-8,America/Los_Angeles,SFO - San Francisco International Airport,LAS - McCarran International Airport
292,KL,3090,LAX,3484,MSP,3858,757 753,Los Angeles International Airport,Los Angeles,United States,LAX,33.94250107,-118.40799709999999,125,-8,America/Los_Angeles,Minneapolis-St Paul International/Wold-Chamberlain Airport,Minneapolis,MSP,44.88199997,-93.22180176,841,-6,America/Chicago,LAX - Los Angeles International Airport,MSP - Minneapolis-St Paul International/Wold-Chamberlain Airport
293,KL,3090,MSP,3858,LAX,3484,757,Minneapolis-St Paul International/Wold-Chamberlain Airport,Minneapolis,United States,MSP,44.88199997,-93.22180176,841,-6,America/Chicago,Los Angeles International Airport,Los Angeles,LAX,33.94250107,-118.40799709999999,125,-8,America/Los_Angeles,MSP - Minneapolis-St Paul International/Wold-Chamberlain Airport,LAX - Los Angeles International Airport
294,KL,3090,MSP,3858,SEA,3577,757,Minneapolis-St Paul International/Wold-Chamberlain Airport,Minneapolis,United States,MSP,44.88199997,-93.22180176,841,-6,America/Chicago,Seattle Tacoma International Airport,Seattle,SEA,47.44900131,-122.3089981,433,-8,America/Los_Angeles,MSP - Minneapolis-St Paul International/Wold-Chamberlain Airport,SEA - Seattle Tacoma International Airport
295,KL,3090,MSP,3858,SFO,3469,757,Minneapolis-St Paul International/Wold-Chamberlain Airport,Minneapolis,United States,MSP,44.88199997,-93.22180176,841,-6,America/Chicago,San Francisco International Airport,San Francisco,SFO,37.61899948,-122.375,13,-8,America/Los_Angeles,MSP - Minneapolis-St Paul International/Wold-Chamberlain Airport,SFO - San Francisco International Airport
296,KL,3090,SFO,3469,SEA,3577,734,San Francisco International Airport,San Francisco,United States,SFO,37.61899948,-122.375,13,-8,America/Los_Angeles,Seattle Tacoma International Airport,Seattle,SEA,47.44900131,-122.3089981,433,-8,America/Los_Angeles,SFO - San Francisco International Airport,SEA - Seattle Tacoma International Airport
297,NK,4687,BOS,3448,ORD,3830,319,General Edward Lawrence Logan International Airport,Boston,United States,BOS,42.36429977,-71.00520325,20,-5,America/New_York,Chicago O'Hare International Airport,Chicago,ORD,41.97859955,-87.90480042,672,-6,America/Chicago,BOS - General Edward Lawrence Logan International Airport,ORD - Chicago O'Hare International Airport
298,NK,4687,DEN,3751,LAS,3877,319,Denver International Airport,Denver,United States,DEN,39.86169815,-104.6729965,5431,-7,America/Denver,McCarran International Airport,Las Vegas,LAS,36.08010101,-115.15200039999999,2181,-8,America/Los_Angeles,DEN - Denver International Airport,LAS - McCarran International Airport
299,NK,4687,DEN,3751,MSP,3858,319,Denver International Airport,Denver,United States,DEN,39.86169815,-104.6729965,5431,-7,America/Denver,Minneapolis-St Paul International/Wold-Chamberlain Airport,Minneapolis,MSP,44.88199997,-93.22180176,841,-6,America/Chicago,DEN - Denver International Airport,MSP - Minneapolis-St Paul International/Wold-Chamberlain Airport
300,NK,4687,DEN,3751,ORD,3830,320,Denver International Airport,Denver,United States,DEN,39.86169815,-104.6729965,5431,-7,America/Denver,Chicago O'Hare International Airport,Chicago,ORD,41.97859955,-87.90480042,672,-6,America/Chicago,DEN - Denver International Airport,ORD - Chicago O'Hare International Airport
301,NK,4687,LAS,3877,DEN,3751,319,McCarran International Airport,Las Vegas,United States,LAS,36.08010101,-115.15200039999999,2181,-8,America/Los_Angeles,Denver International Airport,Denver,DEN,39.86169815,-104.6729965,5431,-7,America/Denver,LAS - McCarran International Airport,DEN - Denver International Airport
302,NK,4687,LAS,3877,LAX,3484,319,McCarran International Airport,Las Vegas,United States,LAS,36.08010101,-115.15200039999999,2181,-8,America/Los_Angeles,Los Angeles International Airport,Los Angeles,LAX,33.94250107,-118.40799709999999,125,-8,America/Los_Angeles,LAS - McCarran International Airport,LAX - Los Angeles International Airport
303,NK,4687,LAS,3877,MSP,3858,320,McCarran International Airport,Las Vegas,United States,LAS,36.08010101,-115.15200039999999,2181,-8,America/Los_Angeles,Minneapolis-St Paul International/Wold-Chamberlain Airport,Minneapolis,MSP,44.88199997,-93.22180176,841,-6,America/Chicago,LAS - McCarran International Airport,MSP - Minneapolis-St Paul International/Wold-Chamberlain Airport
304,NK,4687,LAS,3877,ORD,3830,319 320,McCarran International Airport,Las Vegas,United States,LAS,36.08010101,-115.15200039999999,2181,-8,America/Los_Angeles,Chicago O'Hare International Airport,Chicago,ORD,41.97859955,-87.90480042,672,-6,America/Chicago,LAS - McCarran International Airport,ORD - Chicago O'Hare International Airport
305,NK,4687,LAX,3484,LAS,3877,319,Los Angeles International Airport,Los Angeles,United States,LAX,33.94250107,-118.40799709999999,125,-8,America/Los_Angeles,McCarran International Airport,Las Vegas,LAS,36.08010101,-115.15200039999999,2181,-8,America/Los_Angeles,LAX - Los Angeles International Airport,LAS - McCarran International Airport
306,NK,4687,LAX,3484,MSP,3858,319,Los Angeles International Airport,Los Angeles,United States,LAX,33.94250107,-118.40799709999999,125,-8,America/Los_Angeles,Minneapolis-St Paul International/Wold-Chamberlain Airport,Minneapolis,MSP,44.88199997,-93.22180176,841,-6,America/Chicago,LAX - Los Angeles International Airport,MSP - Minneapolis-St Paul International/Wold-Chamberlain Airport
307,NK,4687,LAX,3484,ORD,3830,319,Los Angeles International Airport,Los Angeles,United States,LAX,33.94250107,-118.40799709999999,125,-8,America/Los_Angeles,Chicago O'Hare International Airport,Chicago,ORD,41.97859955,-87.90480042,672,-6,America/Chicago,LAX - Los Angeles International Airport,ORD - Chicago O'Hare International Airport
308,NK,4687,LGA,3697,ORD,3830,320,La Guardia Airport,New York,United States,LGA,40.77719879,-73.87259674,21,-5,America/New_York,Chicago O'Hare International Airport,Chicago,ORD,41.97859955,-87.90480042,672,-6,America/Chicago,LGA - La Guardia Airport,ORD - Chicago O'Hare International Airport
309,NK,4687,MSP,3858,DEN,3751,319,Minneapolis-St Paul International/Wold-Chamberlain Airport,Minneapolis,United States,MSP,44.88199997,-93.22180176,841,-6,America/Chicago,Denver International Airport,Denver,DEN,39.86169815,-104.6729965,5431,-7,America/Denver,MSP - Minneapolis-St Paul International/Wold-Chamberlain Airport,DEN - Denver International Airport
310,NK,4687,MSP,3858,LAS,3877,320,Minneapolis-St Paul International/Wold-Chamberlain Airport,Minneapolis,United States,MSP,44.88199997,-93.22180176,841,-6,America/Chicago,McCarran International Airport,Las Vegas,LAS,36.08010101,-115.15200039999999,2181,-8,America/Los_Angeles,MSP - Minneapolis-St Paul International/Wold-Chamberlain Airport,LAS - McCarran International Airport
311,NK,4687,MSP,3858,LAX,3484,319,Minneapolis-St Paul International/Wold-Chamberlain Airport,Minneapolis,United States,MSP,44.88199997,-93.22180176,841,-6,America/Chicago,Los Angeles International Airport,Los Angeles,LAX,33.94250107,-118.40799709999999,125,-8,America/Los_Angeles,MSP - Minneapolis-St Paul International/Wold-Chamberlain Airport,LAX - Los Angeles International Airport
312,NK,4687,MSP,3858,ORD,3830,320 319,Minneapolis-St Paul International/Wold-Chamberlain Airport,Minneapolis,United States,MSP,44.88199997,-93.22180176,841,-6,America/Chicago,Chicago O'Hare International Airport,Chicago,ORD,41.97859955,-87.90480042,672,-6,America/Chicago,MSP - Minneapolis-St Paul International/Wold-Chamberlain Airport,ORD - Chicago O'Hare International Airport
313,NK,4687,ORD,3830,BOS,3448,319,Chicago O'Hare International Airport,Chicago,United States,ORD,41.97859955,-87.90480042,672,-6,America/Chicago,General Edward Lawrence Logan International Airport,Boston,BOS,42.36429977,-71.00520325,20,-5,America/New_York,ORD - Chicago O'Hare International Airport,BOS - General Edward Lawrence Logan International Airport
314,NK,4687,ORD,3830,DEN,3751,320,Chicago O'Hare International Airport,Chicago,United States,ORD,41.97859955,-87.90480042,672,-6,America/Chicago,Denver International Airport,Denver,DEN,39.86169815,-104.6729965,5431,-7,America/Denver,ORD - Chicago O'Hare International Airport,DEN - Denver International Airport
315,NK,4687,ORD,3830,LAS,3877,320 319,Chicago O'Hare International Airport,Chicago,United States,ORD,41.97859955,-87.90480042,672,-6,America/Chicago,McCarran International Airport,Las Vegas,LAS,36.08010101,-115.15200039999999,2181,-8,America/Los_Angeles,ORD - Chicago O'Hare International Airport,LAS - McCarran International Airport
316,NK,4687,ORD,3830,LAX,3484,319,Chicago O'Hare International Airport,Chicago,United States,ORD,41.97859955,-87.90480042,672,-6,America/Chicago,Los Angeles International Airport,Los Angeles,LAX,33.94250107,-118.40799709999999,125,-8,America/Los_Angeles,ORD - Chicago O'Hare International Airport,LAX - Los Angeles International Airport
317,NK,4687,ORD,3830,LGA,3697,320,Chicago O'Hare International Airport,Chicago,United States,ORD,41.97859955,-87.90480042,672,-6,America/Chicago,La Guardia Airport,New York,LGA,40.77719879,-73.87259674,21,-5,America/New_York,ORD - Chicago O'Hare International Airport,LGA - La Guardia Airport
318,NK,4687,ORD,3830,MSP,3858,319 320,Chicago O'Hare International Airport,Chicago,United States,ORD,41.97859955,-87.90480042,672,-6,America/Chicago,Minneapolis-St Paul International/Wold-Chamberlain Airport,Minneapolis,MSP,44.88199997,-93.22180176,841,-6,America/Chicago,ORD - Chicago O'Hare International Airport,MSP - Minneapolis-St Paul International/Wold-Chamberlain Airport
319,QF,4089,JFK,3797,LAX,3484,744,John F Kennedy International Airport,New York,United States,JFK,40.63980103,-73.77890015,13,-5,America/New_York,Los Angeles International Airport,Los Angeles,LAX,33.94250107,-118.40799709999999,125,-8,America/Los_Angeles,JFK - John F Kennedy International Airport,LAX - Los Angeles International Airport
320,QF,4089,LAX,3484,JFK,3797,744,Los Angeles International Airport,Los Angeles,United States,LAX,33.94250107,-118.40799709999999,125,-8,America/Los_Angeles,John F Kennedy International Airport,New York,JFK,40.63980103,-73.77890015,13,-5,America/New_York,LAX - Los Angeles International Airport,JFK - John F Kennedy International Airport
321,QR,4091,JFK,3797,LAS,3877,738,John F Kennedy International Airport,New York,United States,JFK,40.63980103,-73.77890015,13,-5,America/New_York,McCarran International Airport,Las Vegas,LAS,36.08010101,-115.15200039999999,2181,-8,America/Los_Angeles,JFK - John F Kennedy International Airport,LAS - McCarran International Airport
322,QR,4091,JFK,3797,ORD,3830,738,John F Kennedy International Airport,New York,United States,JFK,40.63980103,-73.77890015,13,-5,America/New_York,Chicago O'Hare International Airport,Chicago,ORD,41.97859955,-87.90480042,672,-6,America/Chicago,JFK - John F Kennedy International Airport,ORD - Chicago O'Hare International Airport
323,QR,4091,LAS,3877,JFK,3797,757,McCarran International Airport,Las Vegas,United States,LAS,36.08010101,-115.15200039999999,2181,-8,America/Los_Angeles,John F Kennedy International Airport,New York,JFK,40.63980103,-73.77890015,13,-5,America/New_York,LAS - McCarran International Airport,JFK - John F Kennedy International Airport
324,QR,4091,ORD,3830,JFK,3797,738,Chicago O'Hare International Airport,Chicago,United States,ORD,41.97859955,-87.90480042,672,-6,America/Chicago,John F Kennedy International Airport,New York,JFK,40.63980103,-73.77890015,13,-5,America/New_York,ORD - Chicago O'Hare International Airport,JFK - John F Kennedy International Airport
325,SQ,4435,LAX,3484,ORD,3830,320,Los Angeles International Airport,Los Angeles,United States,LAX,33.94250107,-118.40799709999999,125,-8,America/Los_Angeles,Chicago O'Hare International Airport,Chicago,ORD,41.97859955,-87.90480042,672,-6,America/Chicago,LAX - Los Angeles International Airport,ORD - Chicago O'Hare International Airport
326,SY,4356,BOS,3448,MSP,3858,738 73G,General Edward Lawrence Logan International Airport,Boston,United States,BOS,42.36429977,-71.00520325,20,-5,America/New_York,Minneapolis-St Paul International/Wold-Chamberlain Airport,Minneapolis,MSP,44.88199997,-93.22180176,841,-6,America/Chicago,BOS - General Edward Lawrence Logan International Airport,MSP - Minneapolis-St Paul International/Wold-Chamberlain Airport
327,SY,4356,DCA,3520,MSP,3858,73G,Ronald Reagan Washington National Airport,Washington,United States,DCA,38.8521,-77.037697,15,-5,America/New_York,Minneapolis-St Paul International/Wold-Chamberlain Airport,Minneapolis,MSP,44.88199997,-93.22180176,841,-6,America/Chicago,DCA - Ronald Reagan Washington National Airport,MSP - Minneapolis-St Paul International/Wold-Chamberlain Airport
328,SY,4356,JFK,3797,MSP,3858,73G 738,John F Kennedy International Airport,New York,United States,JFK,40.63980103,-73.77890015,13,-5,America/New_York,Minneapolis-St Paul International/Wold-Chamberlain Airport,Minneapolis,MSP,44.88199997,-93.22180176,841,-6,America/Chicago,JFK - John F Kennedy International Airport,MSP - Minneapolis-St Paul International/Wold-Chamberlain Airport
329,SY,4356,LAS,3877,MSP,3858,738,McCarran International Airport,Las Vegas,United States,LAS,36.08010101,-115.15200039999999,2181,-8,America/Los_Angeles,Minneapolis-St Paul International/Wold-Chamberlain Airport,Minneapolis,MSP,44.88199997,-93.22180176,841,-6,America/Chicago,LAS - McCarran International Airport,MSP - Minneapolis-St Paul International/Wold-Chamberlain Airport
330,SY,4356,LAX,3484,MSP,3858,73G 738,Los Angeles International Airport,Los Angeles,United States,LAX,33.94250107,-118.40799709999999,125,-8,America/Los_Angeles,Minneapolis-St Paul International/Wold-Chamberlain Airport,Minneapolis,MSP,44.88199997,-93.22180176,841,-6,America/Chicago,LAX - Los Angeles International Airport,MSP - Minneapolis-St Paul International/Wold-Chamberlain Airport
331,SY,4356,MDW,3747,MSP,3858,73G 738,Chicago Midway International Airport,Chicago,United States,MDW,41.78599929999999,-87.75240326,620,-6,America/Chicago,Minneapolis-St Paul International/Wold-Chamberlain Airport,Minneapolis,MSP,44.88199997,-93.22180176,841,-6,America/Chicago,MDW - Chicago Midway International Airport,MSP - Minneapolis-St Paul International/Wold-Chamberlain Airport
332,SY,4356,MSP,3858,BOS,3448,738 73G,Minneapolis-St Paul International/Wold-Chamberlain Airport,Minneapolis,United States,MSP,44.88199997,-93.22180176,841,-6,America/Chicago,General Edward Lawrence Logan International Airport,Boston,BOS,42.36429977,-71.00520325,20,-5,America/New_York,MSP - Minneapolis-St Paul International/Wold-Chamberlain Airport,BOS - General Edward Lawrence Logan International Airport
333,SY,4356,MSP,3858,DCA,3520,73G,Minneapolis-St Paul International/Wold-Chamberlain Airport,Minneapolis,United States,MSP,44.88199997,-93.22180176,841,-6,America/Chicago,Ronald Reagan Washington National Airport,Washington,DCA,38.8521,-77.037697,15,-5,America/New_York,MSP - Minneapolis-St Paul International/Wold-Chamberlain Airport,DCA - Ronald Reagan Washington National Airport
334,SY,4356,MSP,3858,JFK,3797,73G 738,Minneapolis-St Paul International/Wold-Chamberlain Airport,Minneapolis,United States,MSP,44.88199997,-93.22180176,841,-6,America/Chicago,John F Kennedy International Airport,New York,JFK,40.63980103,-73.77890015,13,-5,America/New_York,MSP - Minneapolis-St Paul International/Wold-Chamberlain Airport,JFK - John F Kennedy International Airport
335,SY,4356,MSP,3858,LAS,3877,738,Minneapolis-St Paul International/Wold-Chamberlain Airport,Minneapolis,United States,MSP,44.88199997,-93.22180176,841,-6,America/Chicago,McCarran International Airport,Las Vegas,LAS,36.08010101,-115.15200039999999,2181,-8,America/Los_Angeles,MSP - Minneapolis-St Paul International/Wold-Chamberlain Airport,LAS - McCarran International Airport
336,SY,4356,MSP,3858,LAX,3484,73G 738,Minneapolis-St Paul International/Wold-Chamberlain Airport,Minneapolis,United States,MSP,44.88199997,-93.22180176,841,-6,America/Chicago,Los Angeles International Airport,Los Angeles,LAX,33.94250107,-118.40799709999999,125,-8,America/Los_Angeles,MSP - Minneapolis-St Paul International/Wold-Chamberlain Airport,LAX - Los Angeles International Airport
337,SY,4356,MSP,3858,MDW,3747,73G 738,Minneapolis-St Paul International/Wold-Chamberlain Airport,Minneapolis,United States,MSP,44.88199997,-93.22180176,841,-6,America/Chicago,Chicago Midway International Airport,Chicago,MDW,41.78599929999999,-87.75240326,620,-6,America/Chicago,MSP - Minneapolis-St Paul International/Wold-Chamberlain Airport,MDW - Chicago Midway International Airport
338,SY,4356,MSP,3858,SEA,3577,73G 738,Minneapolis-St Paul International/Wold-Chamberlain Airport,Minneapolis,United States,MSP,44.88199997,-93.22180176,841,-6,America/Chicago,Seattle Tacoma International Airport,Seattle,SEA,47.44900131,-122.3089981,433,-8,America/Los_Angeles,MSP - Minneapolis-St Paul International/Wold-Chamberlain Airport,SEA - Seattle Tacoma International Airport
339,SY,4356,MSP,3858,SFO,3469,73G 738,Minneapolis-St Paul International/Wold-Chamberlain Airport,Minneapolis,United States,MSP,44.88199997,-93.22180176,841,-6,America/Chicago,San Francisco International Airport,San Francisco,SFO,37.61899948,-122.375,13,-8,America/Los_Angeles,MSP - Minneapolis-St Paul International/Wold-Chamberlain Airport,SFO - San Francisco International Airport
340,SY,4356,SEA,3577,MSP,3858,73G 738,Seattle Tacoma International Airport,Seattle,United States,SEA,47.44900131,-122.3089981,433,-8,America/Los_Angeles,Minneapolis-St Paul International/Wold-Chamberlain Airport,Minneapolis,MSP,44.88199997,-93.22180176,841,-6,America/Chicago,SEA - Seattle Tacoma International Airport,MSP - Minneapolis-St Paul International/Wold-Chamberlain Airport
341,SY,4356,SFO,3469,MSP,3858,73G 738,San Francisco International Airport,San Francisco,United States,SFO,37.61899948,-122.375,13,-8,America/Los_Angeles,Minneapolis-St Paul International/Wold-Chamberlain Airport,Minneapolis,MSP,44.88199997,-93.22180176,841,-6,America/Chicago,SFO - San Francisco International Airport,MSP - Minneapolis-St Paul International/Wold-Chamberlain Airport
342,UA,5209,BOS,3448,DEN,3751,739 320 738,General Edward Lawrence Logan International Airport,Boston,United States,BOS,42.36429977,-71.00520325,20,-5,America/New_York,Denver International Airport,Denver,DEN,39.86169815,-104.6729965,5431,-7,America/Denver,BOS - General Edward Lawrence Logan International Airport,DEN - Denver International Airport
343,UA,5209,BOS,3448,IAD,3714,320 319 739 738 752 73G,General Edward Lawrence Logan International Airport,Boston,United States,BOS,42.36429977,-71.00520325,20,-5,America/New_York,Washington Dulles International Airport,Washington,IAD,38.94449997,-77.45580292,312,-5,America/New_York,BOS - General Edward Lawrence Logan International Airport,IAD - Washington Dulles International Airport
344,UA,5209,BOS,3448,LAX,3484,752,General Edward Lawrence Logan International Airport,Boston,United States,BOS,42.36429977,-71.00520325,20,-5,America/New_York,Los Angeles International Airport,Los Angeles,LAX,33.94250107,-118.40799709999999,125,-8,America/Los_Angeles,BOS - General Edward Lawrence Logan International Airport,LAX - Los Angeles International Airport
345,UA,5209,BOS,3448,ORD,3830,739 752 738 73G 319 320 753,General Edward Lawrence Logan International Airport,Boston,United States,BOS,42.36429977,-71.00520325,20,-5,America/New_York,Chicago O'Hare International Airport,Chicago,ORD,41.97859955,-87.90480042,672,-6,America/Chicago,BOS - General Edward Lawrence Logan International Airport,ORD - Chicago O'Hare International Airport
346,UA,5209,BOS,3448,SFO,3469,752 753 739 738 73G,General Edward Lawrence Logan International Airport,Boston,United States,BOS,42.36429977,-71.00520325,20,-5,America/New_York,San Francisco International Airport,San Francisco,SFO,37.61899948,-122.375,13,-8,America/Los_Angeles,BOS - General Edward Lawrence Logan International Airport,SFO - San Francisco International Airport
347,UA,5209,DCA,3520,DEN,3751,738 752 320,Ronald Reagan Washington National Airport,Washington,United States,DCA,38.8521,-77.037697,15,-5,America/New_York,Denver International Airport,Denver,DEN,39.86169815,-104.6729965,5431,-7,America/Denver,DCA - Ronald Reagan Washington National Airport,DEN - Denver International Airport
348,UA,5209,DCA,3520,ORD,3830,738 320 73G 319,Ronald Reagan Washington National Airport,Washington,United States,DCA,38.8521,-77.037697,15,-5,America/New_York,Chicago O'Hare International Airport,Chicago,ORD,41.97859955,-87.90480042,672,-6,America/Chicago,DCA - Ronald Reagan Washington National Airport,ORD - Chicago O'Hare International Airport
349,UA,5209,DCA,3520,SFO,3469,738 73G,Ronald Reagan Washington National Airport,Washington,United States,DCA,38.8521,-77.037697,15,-5,America/New_York,San Francisco International Airport,San Francisco,SFO,37.61899948,-122.375,13,-8,America/Los_Angeles,DCA - Ronald Reagan Washington National Airport,SFO - San Francisco International Airport
350,UA,5209,DEN,3751,BOS,3448,739 752 738 320,Denver International Airport,Denver,United States,DEN,39.86169815,-104.6729965,5431,-7,America/Denver,General Edward Lawrence Logan International Airport,Boston,BOS,42.36429977,-71.00520325,20,-5,America/New_York,DEN - Denver International Airport,BOS - General Edward Lawrence Logan International Airport
351,UA,5209,DEN,3751,DCA,3520,738 752 320,Denver International Airport,Denver,United States,DEN,39.86169815,-104.6729965,5431,-7,America/Denver,Ronald Reagan Washington National Airport,Washington,DCA,38.8521,-77.037697,15,-5,America/New_York,DEN - Denver International Airport,DCA - Ronald Reagan Washington National Airport
352,UA,5209,DEN,3751,IAD,3714,320 752 319 739 738,Denver International Airport,Denver,United States,DEN,39.86169815,-104.6729965,5431,-7,America/Denver,Washington Dulles International Airport,Washington,IAD,38.94449997,-77.45580292,312,-5,America/New_York,DEN - Denver International Airport,IAD - Washington Dulles International Airport
353,UA,5209,DEN,3751,LAS,3877,738 320 739 752,Denver International Airport,Denver,United States,DEN,39.86169815,-104.6729965,5431,-7,America/Denver,McCarran International Airport,Las Vegas,LAS,36.08010101,-115.15200039999999,2181,-8,America/Los_Angeles,DEN - Denver International Airport,LAS - McCarran International Airport
354,UA,5209,DEN,3751,LAX,3484,739 320 319 738 753 752,Denver International Airport,Denver,United States,DEN,39.86169815,-104.6729965,5431,-7,America/Denver,Los Angeles International Airport,Los Angeles,LAX,33.94250107,-118.40799709999999,125,-8,America/Los_Angeles,DEN - Denver International Airport,LAX - Los Angeles International Airport
355,UA,5209,DEN,3751,LGA,3697,752 738 320,Denver International Airport,Denver,United States,DEN,39.86169815,-104.6729965,5431,-7,America/Denver,La Guardia Airport,New York,LGA,40.77719879,-73.87259674,21,-5,America/New_York,DEN - Denver International Airport,LGA - La Guardia Airport
356,UA,5209,DEN,3751,MIA,3576,319,Denver International Airport,Denver,United States,DEN,39.86169815,-104.6729965,5431,-7,America/Denver,Miami International Airport,Miami,MIA,25.79319954,-80.29060364,8,-5,America/New_York,DEN - Denver International Airport,MIA - Miami International Airport
357,UA,5209,DEN,3751,MSP,3858,320,Denver International Airport,Denver,United States,DEN,39.86169815,-104.6729965,5431,-7,America/Denver,Minneapolis-St Paul International/Wold-Chamberlain Airport,Minneapolis,MSP,44.88199997,-93.22180176,841,-6,America/Chicago,DEN - Denver International Airport,MSP - Minneapolis-St Paul International/Wold-Chamberlain Airport
358,UA,5209,DEN,3751,ORD,3830,739 752 738 319 320 73G,Denver International Airport,Denver,United States,DEN,39.86169815,-104.6729965,5431,-7,America/Denver,Chicago O'Hare International Airport,Chicago,ORD,41.97859955,-87.90480042,672,-6,America/Chicago,DEN - Denver International Airport,ORD - Chicago O'Hare International Airport
359,UA,5209,DEN,3751,SEA,3577,320 738 739,Denver International Airport,Denver,United States,DEN,39.86169815,-104.6729965,5431,-7,America/Denver,Seattle Tacoma International Airport,Seattle,SEA,47.44900131,-122.3089981,433,-8,America/Los_Angeles,DEN - Denver International Airport,SEA - Seattle Tacoma International Airport
360,UA,5209,DEN,3751,SFO,3469,752 738 320 739 73G 319 753,Denver International Airport,Denver,United States,DEN,39.86169815,-104.6729965,5431,-7,America/Denver,San Francisco International Airport,San Francisco,SFO,37.61899948,-122.375,13,-8,America/Los_Angeles,DEN - Denver International Airport,SFO - San Francisco International Airport
361,UA,5209,IAD,3714,BOS,3448,320 752 73G 739 738,Washington Dulles International Airport,Washington,United States,IAD,38.94449997,-77.45580292,312,-5,America/New_York,General Edward Lawrence Logan International Airport,Boston,BOS,42.36429977,-71.00520325,20,-5,America/New_York,IAD - Washington Dulles International Airport,BOS - General Edward Lawrence Logan International Airport
362,UA,5209,IAD,3714,DEN,3751,739 752 319 738 320 753,Washington Dulles International Airport,Washington,United States,IAD,38.94449997,-77.45580292,312,-5,America/New_York,Denver International Airport,Denver,DEN,39.86169815,-104.6729965,5431,-7,America/Denver,IAD - Washington Dulles International Airport,DEN - Denver International Airport
363,UA,5209,IAD,3714,JFK,3797,CRJ,Washington Dulles International Airport,Washington,United States,IAD,38.94449997,-77.45580292,312,-5,America/New_York,John F Kennedy International Airport,New York,JFK,40.63980103,-73.77890015,13,-5,America/New_York,IAD - Washington Dulles International Airport,JFK - John F Kennedy International Airport
364,UA,5209,IAD,3714,LAS,3877,320 752,Washington Dulles International Airport,Washington,United States,IAD,38.94449997,-77.45580292,312,-5,America/New_York,McCarran International Airport,Las Vegas,LAS,36.08010101,-115.15200039999999,2181,-8,America/Los_Angeles,IAD - Washington Dulles International Airport,LAS - McCarran International Airport
365,UA,5209,IAD,3714,LAX,3484,753 320 319 752 739 738,Washington Dulles International Airport,Washington,United States,IAD,38.94449997,-77.45580292,312,-5,America/New_York,Los Angeles International Airport,Los Angeles,LAX,33.94250107,-118.40799709999999,125,-8,America/Los_Angeles,IAD - Washington Dulles International Airport,LAX - Los Angeles International Airport
366,UA,5209,IAD,3714,LGA,3697,CRJ ERJ E70 CR7,Washington Dulles International Airport,Washington,United States,IAD,38.94449997,-77.45580292,312,-5,America/New_York,La Guardia Airport,New York,LGA,40.77719879,-73.87259674,21,-5,America/New_York,IAD - Washington Dulles International Airport,LGA - La Guardia Airport
367,UA,5209,IAD,3714,MIA,3576,319,Washington Dulles International Airport,Washington,United States,IAD,38.94449997,-77.45580292,312,-5,America/New_York,Miami International Airport,Miami,MIA,25.79319954,-80.29060364,8,-5,America/New_York,IAD - Washington Dulles International Airport,MIA - Miami International Airport
368,UA,5209,IAD,3714,MSP,3858,CR7,Washington Dulles International Airport,Washington,United States,IAD,38.94449997,-77.45580292,312,-5,America/New_York,Minneapolis-St Paul International/Wold-Chamberlain Airport,Minneapolis,MSP,44.88199997,-93.22180176,841,-6,America/Chicago,IAD - Washington Dulles International Airport,MSP - Minneapolis-St Paul International/Wold-Chamberlain Airport
369,UA,5209,IAD,3714,ORD,3830,319 320 752 753 739 738,Washington Dulles International Airport,Washington,United States,IAD,38.94449997,-77.45580292,312,-5,America/New_York,Chicago O'Hare International Airport,Chicago,ORD,41.97859955,-87.90480042,672,-6,America/Chicago,IAD - Washington Dulles International Airport,ORD - Chicago O'Hare International Airport
370,UA,5209,IAD,3714,SEA,3577,739 752 320,Washington Dulles International Airport,Washington,United States,IAD,38.94449997,-77.45580292,312,-5,America/New_York,Seattle Tacoma International Airport,Seattle,SEA,47.44900131,-122.3089981,433,-8,America/Los_Angeles,IAD - Washington Dulles International Airport,SEA - Seattle Tacoma International Airport
371,UA,5209,IAD,3714,SFO,3469,752 320 753 738 739 319,Washington Dulles International Airport,Washington,United States,IAD,38.94449997,-77.45580292,312,-5,America/New_York,San Francisco International Airport,San Francisco,SFO,37.61899948,-122.375,13,-8,America/Los_Angeles,IAD - Washington Dulles International Airport,SFO - San Francisco International Airport
372,UA,5209,JFK,3797,IAD,3714,CRJ,John F Kennedy International Airport,New York,United States,JFK,40.63980103,-73.77890015,13,-5,America/New_York,Washington Dulles International Airport,Washington,IAD,38.94449997,-77.45580292,312,-5,America/New_York,JFK - John F Kennedy International Airport,IAD - Washington Dulles International Airport
373,UA,5209,JFK,3797,LAX,3484,757,John F Kennedy International Airport,New York,United States,JFK,40.63980103,-73.77890015,13,-5,America/New_York,Los Angeles International Airport,Los Angeles,LAX,33.94250107,-118.40799709999999,125,-8,America/Los_Angeles,JFK - John F Kennedy International Airport,LAX - Los Angeles International Airport
374,UA,5209,JFK,3797,SFO,3469,757,John F Kennedy International Airport,New York,United States,JFK,40.63980103,-73.77890015,13,-5,America/New_York,San Francisco International Airport,San Francisco,SFO,37.61899948,-122.375,13,-8,America/Los_Angeles,JFK - John F Kennedy International Airport,SFO - San Francisco International Airport
375,UA,5209,LAS,3877,DEN,3751,320 752 319 738 739,McCarran International Airport,Las Vegas,United States,LAS,36.08010101,-115.15200039999999,2181,-8,America/Los_Angeles,Denver International Airport,Denver,DEN,39.86169815,-104.6729965,5431,-7,America/Denver,LAS - McCarran International Airport,DEN - Denver International Airport
376,UA,5209,LAS,3877,IAD,3714,320 752 739,McCarran International Airport,Las Vegas,United States,LAS,36.08010101,-115.15200039999999,2181,-8,America/Los_Angeles,Washington Dulles International Airport,Washington,IAD,38.94449997,-77.45580292,312,-5,America/New_York,LAS - McCarran International Airport,IAD - Washington Dulles International Airport
377,UA,5209,LAS,3877,LAX,3484,752 738 319 320 739,McCarran International Airport,Las Vegas,United States,LAS,36.08010101,-115.15200039999999,2181,-8,America/Los_Angeles,Los Angeles International Airport,Los Angeles,LAX,33.94250107,-118.40799709999999,125,-8,America/Los_Angeles,LAS - McCarran International Airport,LAX - Los Angeles International Airport
378,UA,5209,LAS,3877,ORD,3830,73G 738 739 320 752 319,McCarran International Airport,Las Vegas,United States,LAS,36.08010101,-115.15200039999999,2181,-8,America/Los_Angeles,Chicago O'Hare International Airport,Chicago,ORD,41.97859955,-87.90480042,672,-6,America/Chicago,LAS - McCarran International Airport,ORD - Chicago O'Hare International Airport
379,UA,5209,LAS,3877,SFO,3469,739 738 320 752 319 753,McCarran International Airport,Las Vegas,United States,LAS,36.08010101,-115.15200039999999,2181,-8,America/Los_Angeles,San Francisco International Airport,San Francisco,SFO,37.61899948,-122.375,13,-8,America/Los_Angeles,LAS - McCarran International Airport,SFO - San Francisco International Airport
380,UA,5209,LAX,3484,BOS,3448,752 753 320 739,Los Angeles International Airport,Los Angeles,United States,LAX,33.94250107,-118.40799709999999,125,-8,America/Los_Angeles,General Edward Lawrence Logan International Airport,Boston,BOS,42.36429977,-71.00520325,20,-5,America/New_York,LAX - Los Angeles International Airport,BOS - General Edward Lawrence Logan International Airport
381,UA,5209,LAX,3484,DEN,3751,752 739 738 320 753 319,Los Angeles International Airport,Los Angeles,United States,LAX,33.94250107,-118.40799709999999,125,-8,America/Los_Angeles,Denver International Airport,Denver,DEN,39.86169815,-104.6729965,5431,-7,America/Denver,LAX - Los Angeles International Airport,DEN - Denver International Airport
382,UA,5209,LAX,3484,IAD,3714,753 320 752 739 738,Los Angeles International Airport,Los Angeles,United States,LAX,33.94250107,-118.40799709999999,125,-8,America/Los_Angeles,Washington Dulles International Airport,Washington,IAD,38.94449997,-77.45580292,312,-5,America/New_York,LAX - Los Angeles International Airport,IAD - Washington Dulles International Airport
383,UA,5209,LAX,3484,JFK,3797,757,Los Angeles International Airport,Los Angeles,United States,LAX,33.94250107,-118.40799709999999,125,-8,America/Los_Angeles,John F Kennedy International Airport,New York,JFK,40.63980103,-73.77890015,13,-5,America/New_York,LAX - Los Angeles International Airport,JFK - John F Kennedy International Airport
384,UA,5209,LAX,3484,LAS,3877,739 319 738 320 752,Los Angeles International Airport,Los Angeles,United States,LAX,33.94250107,-118.40799709999999,125,-8,America/Los_Angeles,McCarran International Airport,Las Vegas,LAS,36.08010101,-115.15200039999999,2181,-8,America/Los_Angeles,LAX - Los Angeles International Airport,LAS - McCarran International Airport
385,UA,5209,LAX,3484,MSP,3858,CR7,Los Angeles International Airport,Los Angeles,United States,LAX,33.94250107,-118.40799709999999,125,-8,America/Los_Angeles,Minneapolis-St Paul International/Wold-Chamberlain Airport,Minneapolis,MSP,44.88199997,-93.22180176,841,-6,America/Chicago,LAX - Los Angeles International Airport,MSP - Minneapolis-St Paul International/Wold-Chamberlain Airport
386,UA,5209,LAX,3484,ORD,3830,739 738 752 320 319 753,Los Angeles International Airport,Los Angeles,United States,LAX,33.94250107,-118.40799709999999,125,-8,America/Los_Angeles,Chicago O'Hare International Airport,Chicago,ORD,41.97859955,-87.90480042,672,-6,America/Chicago,LAX - Los Angeles International Airport,ORD - Chicago O'Hare International Airport
387,UA,5209,LAX,3484,SEA,3577,319 738 320 752,Los Angeles International Airport,Los Angeles,United States,LAX,33.94250107,-118.40799709999999,125,-8,America/Los_Angeles,Seattle Tacoma International Airport,Seattle,SEA,47.44900131,-122.3089981,433,-8,America/Los_Angeles,LAX - Los Angeles International Airport,SEA - Seattle Tacoma International Airport
388,UA,5209,LAX,3484,SFO,3469,739 752 753 319 320 738,Los Angeles International Airport,Los Angeles,United States,LAX,33.94250107,-118.40799709999999,125,-8,America/Los_Angeles,San Francisco International Airport,San Francisco,SFO,37.61899948,-122.375,13,-8,America/Los_Angeles,LAX - Los Angeles International Airport,SFO - San Francisco International Airport
389,UA,5209,LGA,3697,DEN,3751,752 320 738,La Guardia Airport,New York,United States,LGA,40.77719879,-73.87259674,21,-5,America/New_York,Denver International Airport,Denver,DEN,39.86169815,-104.6729965,5431,-7,America/Denver,LGA - La Guardia Airport,DEN - Denver International Airport
390,UA,5209,LGA,3697,IAD,3714,CRJ ERJ E70 CR7,La Guardia Airport,New York,United States,LGA,40.77719879,-73.87259674,21,-5,America/New_York,Washington Dulles International Airport,Washington,IAD,38.94449997,-77.45580292,312,-5,America/New_York,LGA - La Guardia Airport,IAD - Washington Dulles International Airport
391,UA,5209,LGA,3697,ORD,3830,319 320 738 73G 752,La Guardia Airport,New York,United States,LGA,40.77719879,-73.87259674,21,-5,America/New_York,Chicago O'Hare International Airport,Chicago,ORD,41.97859955,-87.90480042,672,-6,America/Chicago,LGA - La Guardia Airport,ORD - Chicago O'Hare International Airport
392,UA,5209,MIA,3576,DEN,3751,319,Miami International Airport,Miami,United States,MIA,25.79319954,-80.29060364,8,-5,America/New_York,Denver International Airport,Denver,DEN,39.86169815,-104.6729965,5431,-7,America/Denver,MIA - Miami International Airport,DEN - Denver International Airport
393,UA,5209,MIA,3576,IAD,3714,319,Miami International Airport,Miami,United States,MIA,25.79319954,-80.29060364,8,-5,America/New_York,Washington Dulles International Airport,Washington,IAD,38.94449997,-77.45580292,312,-5,America/New_York,MIA - Miami International Airport,IAD - Washington Dulles International Airport
394,UA,5209,MIA,3576,ORD,3830,CR7,Miami International Airport,Miami,United States,MIA,25.79319954,-80.29060364,8,-5,America/New_York,Chicago O'Hare International Airport,Chicago,ORD,41.97859955,-87.90480042,672,-6,America/Chicago,MIA - Miami International Airport,ORD - Chicago O'Hare International Airport
395,UA,5209,MSP,3858,DEN,3751,320,Minneapolis-St Paul International/Wold-Chamberlain Airport,Minneapolis,United States,MSP,44.88199997,-93.22180176,841,-6,America/Chicago,Denver International Airport,Denver,DEN,39.86169815,-104.6729965,5431,-7,America/Denver,MSP - Minneapolis-St Paul International/Wold-Chamberlain Airport,DEN - Denver International Airport
396,UA,5209,MSP,3858,IAD,3714,CR7 ERJ,Minneapolis-St Paul International/Wold-Chamberlain Airport,Minneapolis,United States,MSP,44.88199997,-93.22180176,841,-6,America/Chicago,Washington Dulles International Airport,Washington,IAD,38.94449997,-77.45580292,312,-5,America/New_York,MSP - Minneapolis-St Paul International/Wold-Chamberlain Airport,IAD - Washington Dulles International Airport
397,UA,5209,MSP,3858,LAX,3484,CR7,Minneapolis-St Paul International/Wold-Chamberlain Airport,Minneapolis,United States,MSP,44.88199997,-93.22180176,841,-6,America/Chicago,Los Angeles International Airport,Los Angeles,LAX,33.94250107,-118.40799709999999,125,-8,America/Los_Angeles,MSP - Minneapolis-St Paul International/Wold-Chamberlain Airport,LAX - Los Angeles International Airport
398,UA,5209,MSP,3858,ORD,3830,73G 738 319,Minneapolis-St Paul International/Wold-Chamberlain Airport,Minneapolis,United States,MSP,44.88199997,-93.22180176,841,-6,America/Chicago,Chicago O'Hare International Airport,Chicago,ORD,41.97859955,-87.90480042,672,-6,America/Chicago,MSP - Minneapolis-St Paul International/Wold-Chamberlain Airport,ORD - Chicago O'Hare International Airport
399,UA,5209,MSP,3858,SFO,3469,320 739 319,Minneapolis-St Paul International/Wold-Chamberlain Airport,Minneapolis,United States,MSP,44.88199997,-93.22180176,841,-6,America/Chicago,San Francisco International Airport,San Francisco,SFO,37.61899948,-122.375,13,-8,America/Los_Angeles,MSP - Minneapolis-St Paul International/Wold-Chamberlain Airport,SFO - San Francisco International Airport
400,UA,5209,ORD,3830,BOS,3448,320 752 739 738 73G 319,Chicago O'Hare International Airport,Chicago,United States,ORD,41.97859955,-87.90480042,672,-6,America/Chicago,General Edward Lawrence Logan International Airport,Boston,BOS,42.36429977,-71.00520325,20,-5,America/New_York,ORD - Chicago O'Hare International Airport,BOS - General Edward Lawrence Logan International Airport
401,UA,5209,ORD,3830,DCA,3520,320 319 738 73G 752,Chicago O'Hare International Airport,Chicago,United States,ORD,41.97859955,-87.90480042,672,-6,America/Chicago,Ronald Reagan Washington National Airport,Washington,DCA,38.8521,-77.037697,15,-5,America/New_York,ORD - Chicago O'Hare International Airport,DCA - Ronald Reagan Washington National Airport
402,UA,5209,ORD,3830,DEN,3751,752 738 320 739 73G 753 319,Chicago O'Hare International Airport,Chicago,United States,ORD,41.97859955,-87.90480042,672,-6,America/Chicago,Denver International Airport,Denver,DEN,39.86169815,-104.6729965,5431,-7,America/Denver,ORD - Chicago O'Hare International Airport,DEN - Denver International Airport
403,UA,5209,ORD,3830,IAD,3714,777 320 752 739 73G 753 319,Chicago O'Hare International Airport,Chicago,United States,ORD,41.97859955,-87.90480042,672,-6,America/Chicago,Washington Dulles International Airport,Washington,IAD,38.94449997,-77.45580292,312,-5,America/New_York,ORD - Chicago O'Hare International Airport,IAD - Washington Dulles International Airport
404,UA,5209,ORD,3830,LAS,3877,738 752 320 319 73G 739 753,Chicago O'Hare International Airport,Chicago,United States,ORD,41.97859955,-87.90480042,672,-6,America/Chicago,McCarran International Airport,Las Vegas,LAS,36.08010101,-115.15200039999999,2181,-8,America/Los_Angeles,ORD - Chicago O'Hare International Airport,LAS - McCarran International Airport
405,UA,5209,ORD,3830,LAX,3484,738 753 320 739 752 319,Chicago O'Hare International Airport,Chicago,United States,ORD,41.97859955,-87.90480042,672,-6,America/Chicago,Los Angeles International Airport,Los Angeles,LAX,33.94250107,-118.40799709999999,125,-8,America/Los_Angeles,ORD - Chicago O'Hare International Airport,LAX - Los Angeles International Airport
406,UA,5209,ORD,3830,LGA,3697,738 320 319 752 73G,Chicago O'Hare International Airport,Chicago,United States,ORD,41.97859955,-87.90480042,672,-6,America/Chicago,La Guardia Airport,New York,LGA,40.77719879,-73.87259674,21,-5,America/New_York,ORD - Chicago O'Hare International Airport,LGA - La Guardia Airport
407,UA,5209,ORD,3830,MIA,3576,CR7,Chicago O'Hare International Airport,Chicago,United States,ORD,41.97859955,-87.90480042,672,-6,America/Chicago,Miami International Airport,Miami,MIA,25.79319954,-80.29060364,8,-5,America/New_York,ORD - Chicago O'Hare International Airport,MIA - Miami International Airport
408,UA,5209,ORD,3830,MSP,3858,73G 738 319 320,Chicago O'Hare International Airport,Chicago,United States,ORD,41.97859955,-87.90480042,672,-6,America/Chicago,Minneapolis-St Paul International/Wold-Chamberlain Airport,Minneapolis,MSP,44.88199997,-93.22180176,841,-6,America/Chicago,ORD - Chicago O'Hare International Airport,MSP - Minneapolis-St Paul International/Wold-Chamberlain Airport
409,UA,5209,ORD,3830,SEA,3577,320 752 738 739,Chicago O'Hare International Airport,Chicago,United States,ORD,41.97859955,-87.90480042,672,-6,America/Chicago,Seattle Tacoma International Airport,Seattle,SEA,47.44900131,-122.3089981,433,-8,America/Los_Angeles,ORD - Chicago O'Hare International Airport,SEA - Seattle Tacoma International Airport
410,UA,5209,ORD,3830,SFO,3469,752 739 320 738 753 319 777,Chicago O'Hare International Airport,Chicago,United States,ORD,41.97859955,-87.90480042,672,-6,America/Chicago,San Francisco International Airport,San Francisco,SFO,37.61899948,-122.375,13,-8,America/Los_Angeles,ORD - Chicago O'Hare International Airport,SFO - San Francisco International Airport
411,UA,5209,SEA,3577,DEN,3751,738 320 739 752 753 319,Seattle Tacoma International Airport,Seattle,United States,SEA,47.44900131,-122.3089981,433,-8,America/Los_Angeles,Denver International Airport,Denver,DEN,39.86169815,-104.6729965,5431,-7,America/Denver,SEA - Seattle Tacoma International Airport,DEN - Denver International Airport
412,UA,5209,SEA,3577,IAD,3714,752 320 739 738,Seattle Tacoma International Airport,Seattle,United States,SEA,47.44900131,-122.3089981,433,-8,America/Los_Angeles,Washington Dulles International Airport,Washington,IAD,38.94449997,-77.45580292,312,-5,America/New_York,SEA - Seattle Tacoma International Airport,IAD - Washington Dulles International Airport
413,UA,5209,SEA,3577,LAX,3484,739 320,Seattle Tacoma International Airport,Seattle,United States,SEA,47.44900131,-122.3089981,433,-8,America/Los_Angeles,Los Angeles International Airport,Los Angeles,LAX,33.94250107,-118.40799709999999,125,-8,America/Los_Angeles,SEA - Seattle Tacoma International Airport,LAX - Los Angeles International Airport
414,UA,5209,SEA,3577,ORD,3830,738 320 739 752 319,Seattle Tacoma International Airport,Seattle,United States,SEA,47.44900131,-122.3089981,433,-8,America/Los_Angeles,Chicago O'Hare International Airport,Chicago,ORD,41.97859955,-87.90480042,672,-6,America/Chicago,SEA - Seattle Tacoma International Airport,ORD - Chicago O'Hare International Airport
415,UA,5209,SEA,3577,SFO,3469,319 739 320 738 752,Seattle Tacoma International Airport,Seattle,United States,SEA,47.44900131,-122.3089981,433,-8,America/Los_Angeles,San Francisco International Airport,San Francisco,SFO,37.61899948,-122.375,13,-8,America/Los_Angeles,SEA - Seattle Tacoma International Airport,SFO - San Francisco International Airport
416,UA,5209,SFO,3469,BOS,3448,752 753 738 739 319 320,San Francisco International Airport,San Francisco,United States,SFO,37.61899948,-122.375,13,-8,America/Los_Angeles,General Edward Lawrence Logan International Airport,Boston,BOS,42.36429977,-71.00520325,20,-5,America/New_York,SFO - San Francisco International Airport,BOS - General Edward Lawrence Logan International Airport
417,UA,5209,SFO,3469,DCA,3520,738 73G,San Francisco International Airport,San Francisco,United States,SFO,37.61899948,-122.375,13,-8,America/Los_Angeles,Ronald Reagan Washington National Airport,Washington,DCA,38.8521,-77.037697,15,-5,America/New_York,SFO - San Francisco International Airport,DCA - Ronald Reagan Washington National Airport
418,UA,5209,SFO,3469,DEN,3751,752 739 738 320 319,San Francisco International Airport,San Francisco,United States,SFO,37.61899948,-122.375,13,-8,America/Los_Angeles,Denver International Airport,Denver,DEN,39.86169815,-104.6729965,5431,-7,America/Denver,SFO - San Francisco International Airport,DEN - Denver International Airport
419,UA,5209,SFO,3469,IAD,3714,753 752 738 739 320 319,San Francisco International Airport,San Francisco,United States,SFO,37.61899948,-122.375,13,-8,America/Los_Angeles,Washington Dulles International Airport,Washington,IAD,38.94449997,-77.45580292,312,-5,America/New_York,SFO - San Francisco International Airport,IAD - Washington Dulles International Airport
420,UA,5209,SFO,3469,JFK,3797,757,San Francisco International Airport,San Francisco,United States,SFO,37.61899948,-122.375,13,-8,America/Los_Angeles,John F Kennedy International Airport,New York,JFK,40.63980103,-73.77890015,13,-5,America/New_York,SFO - San Francisco International Airport,JFK - John F Kennedy International Airport
421,UA,5209,SFO,3469,LAS,3877,752 738 739 320 319,San Francisco International Airport,San Francisco,United States,SFO,37.61899948,-122.375,13,-8,America/Los_Angeles,McCarran International Airport,Las Vegas,LAS,36.08010101,-115.15200039999999,2181,-8,America/Los_Angeles,SFO - San Francisco International Airport,LAS - McCarran International Airport
422,UA,5209,SFO,3469,LAX,3484,319 320 752 738 753 739,San Francisco International Airport,San Francisco,United States,SFO,37.61899948,-122.375,13,-8,America/Los_Angeles,Los Angeles International Airport,Los Angeles,LAX,33.94250107,-118.40799709999999,125,-8,America/Los_Angeles,SFO - San Francisco International Airport,LAX - Los Angeles International Airport
423,UA,5209,SFO,3469,MSP,3858,320 739 319,San Francisco International Airport,San Francisco,United States,SFO,37.61899948,-122.375,13,-8,America/Los_Angeles,Minneapolis-St Paul International/Wold-Chamberlain Airport,Minneapolis,MSP,44.88199997,-93.22180176,841,-6,America/Chicago,SFO - San Francisco International Airport,MSP - Minneapolis-St Paul International/Wold-Chamberlain Airport
424,UA,5209,SFO,3469,ORD,3830,738 739 752 320 753 319 777 73G,San Francisco International Airport,San Francisco,United States,SFO,37.61899948,-122.375,13,-8,America/Los_Angeles,Chicago O'Hare International Airport,Chicago,ORD,41.97859955,-87.90480042,672,-6,America/Chicago,SFO - San Francisco International Airport,ORD - Chicago O'Hare International Airport
425,UA,5209,SFO,3469,SEA,3577,319 738 739 320 752 753,San Francisco International Airport,San Francisco,United States,SFO,37.61899948,-122.375,13,-8,America/Los_Angeles,Seattle Tacoma International Airport,Seattle,SEA,47.44900131,-122.3089981,433,-8,America/Los_Angeles,SFO - San Francisco International Airport,SEA - Seattle Tacoma International Airport
426,US,5265,BOS,3448,DCA,3520,319 E90,General Edward Lawrence Logan International Airport,Boston,United States,BOS,42.36429977,-71.00520325,20,-5,America/New_York,Ronald Reagan Washington National Airport,Washington,DCA,38.8521,-77.037697,15,-5,America/New_York,BOS - General Edward Lawrence Logan International Airport,DCA - Ronald Reagan Washington National Airport
427,US,5265,BOS,3448,JFK,3797,738,General Edward Lawrence Logan International Airport,Boston,United States,BOS,42.36429977,-71.00520325,20,-5,America/New_York,John F Kennedy International Airport,New York,JFK,40.63980103,-73.77890015,13,-5,America/New_York,BOS - General Edward Lawrence Logan International Airport,JFK - John F Kennedy International Airport
428,US,5265,BOS,3448,LAX,3484,738 757,General Edward Lawrence Logan International Airport,Boston,United States,BOS,42.36429977,-71.00520325,20,-5,America/New_York,Los Angeles International Airport,Los Angeles,LAX,33.94250107,-118.40799709999999,125,-8,America/Los_Angeles,BOS - General Edward Lawrence Logan International Airport,LAX - Los Angeles International Airport
429,US,5265,BOS,3448,LGA,3697,E90 319,General Edward Lawrence Logan International Airport,Boston,United States,BOS,42.36429977,-71.00520325,20,-5,America/New_York,La Guardia Airport,New York,LGA,40.77719879,-73.87259674,21,-5,America/New_York,BOS - General Edward Lawrence Logan International Airport,LGA - La Guardia Airport
430,US,5265,BOS,3448,MIA,3576,757 738,General Edward Lawrence Logan International Airport,Boston,United States,BOS,42.36429977,-71.00520325,20,-5,America/New_York,Miami International Airport,Miami,MIA,25.79319954,-80.29060364,8,-5,America/New_York,BOS - General Edward Lawrence Logan International Airport,MIA - Miami International Airport
431,US,5265,BOS,3448,ORD,3830,738,General Edward Lawrence Logan International Airport,Boston,United States,BOS,42.36429977,-71.00520325,20,-5,America/New_York,Chicago O'Hare International Airport,Chicago,ORD,41.97859955,-87.90480042,672,-6,America/Chicago,BOS - General Edward Lawrence Logan International Airport,ORD - Chicago O'Hare International Airport
432,US,5265,DCA,3520,BOS,3448,319 E90,Ronald Reagan Washington National Airport,Washington,United States,DCA,38.8521,-77.037697,15,-5,America/New_York,General Edward Lawrence Logan International Airport,Boston,BOS,42.36429977,-71.00520325,20,-5,America/New_York,DCA - Ronald Reagan Washington National Airport,BOS - General Edward Lawrence Logan International Airport
433,US,5265,DCA,3520,JFK,3797,738,Ronald Reagan Washington National Airport,Washington,United States,DCA,38.8521,-77.037697,15,-5,America/New_York,John F Kennedy International Airport,New York,JFK,40.63980103,-73.77890015,13,-5,America/New_York,DCA - Ronald Reagan Washington National Airport,JFK - John F Kennedy International Airport
434,US,5265,DCA,3520,LAS,3877,319,Ronald Reagan Washington National Airport,Washington,United States,DCA,38.8521,-77.037697,15,-5,America/New_York,McCarran International Airport,Las Vegas,LAS,36.08010101,-115.15200039999999,2181,-8,America/Los_Angeles,DCA - Ronald Reagan Washington National Airport,LAS - McCarran International Airport
435,US,5265,DCA,3520,LAX,3484,738,Ronald Reagan Washington National Airport,Washington,United States,DCA,38.8521,-77.037697,15,-5,America/New_York,Los Angeles International Airport,Los Angeles,LAX,33.94250107,-118.40799709999999,125,-8,America/Los_Angeles,DCA - Ronald Reagan Washington National Airport,LAX - Los Angeles International Airport
436,US,5265,DCA,3520,LGA,3697,319 E90,Ronald Reagan Washington National Airport,Washington,United States,DCA,38.8521,-77.037697,15,-5,America/New_York,La Guardia Airport,New York,LGA,40.77719879,-73.87259674,21,-5,America/New_York,DCA - Ronald Reagan Washington National Airport,LGA - La Guardia Airport
437,US,5265,DCA,3520,MIA,3576,738,Ronald Reagan Washington National Airport,Washington,United States,DCA,38.8521,-77.037697,15,-5,America/New_York,Miami International Airport,Miami,MIA,25.79319954,-80.29060364,8,-5,America/New_York,DCA - Ronald Reagan Washington National Airport,MIA - Miami International Airport
438,US,5265,DCA,3520,MSP,3858,E70 E75,Ronald Reagan Washington National Airport,Washington,United States,DCA,38.8521,-77.037697,15,-5,America/New_York,Minneapolis-St Paul International/Wold-Chamberlain Airport,Minneapolis,MSP,44.88199997,-93.22180176,841,-6,America/Chicago,DCA - Ronald Reagan Washington National Airport,MSP - Minneapolis-St Paul International/Wold-Chamberlain Airport
439,US,5265,DCA,3520,ORD,3830,738 M83,Ronald Reagan Washington National Airport,Washington,United States,DCA,38.8521,-77.037697,15,-5,America/New_York,Chicago O'Hare International Airport,Chicago,ORD,41.97859955,-87.90480042,672,-6,America/Chicago,DCA - Ronald Reagan Washington National Airport,ORD - Chicago O'Hare International Airport
440,US,5265,DEN,3751,LAX,3484,CR7,Denver International Airport,Denver,United States,DEN,39.86169815,-104.6729965,5431,-7,America/Denver,Los Angeles International Airport,Los Angeles,LAX,33.94250107,-118.40799709999999,125,-8,America/Los_Angeles,DEN - Denver International Airport,LAX - Los Angeles International Airport
441,US,5265,DEN,3751,MIA,3576,738,Denver International Airport,Denver,United States,DEN,39.86169815,-104.6729965,5431,-7,America/Denver,Miami International Airport,Miami,MIA,25.79319954,-80.29060364,8,-5,America/New_York,DEN - Denver International Airport,MIA - Miami International Airport
442,US,5265,DEN,3751,ORD,3830,CR7,Denver International Airport,Denver,United States,DEN,39.86169815,-104.6729965,5431,-7,America/Denver,Chicago O'Hare International Airport,Chicago,ORD,41.97859955,-87.90480042,672,-6,America/Chicago,DEN - Denver International Airport,ORD - Chicago O'Hare International Airport
443,US,5265,IAD,3714,LAX,3484,738,Washington Dulles International Airport,Washington,United States,IAD,38.94449997,-77.45580292,312,-5,America/New_York,Los Angeles International Airport,Los Angeles,LAX,33.94250107,-118.40799709999999,125,-8,America/Los_Angeles,IAD - Washington Dulles International Airport,LAX - Los Angeles International Airport
444,US,5265,IAD,3714,MIA,3576,738,Washington Dulles International Airport,Washington,United States,IAD,38.94449997,-77.45580292,312,-5,America/New_York,Miami International Airport,Miami,MIA,25.79319954,-80.29060364,8,-5,America/New_York,IAD - Washington Dulles International Airport,MIA - Miami International Airport
445,US,5265,JFK,3797,BOS,3448,738,John F Kennedy International Airport,New York,United States,JFK,40.63980103,-73.77890015,13,-5,America/New_York,General Edward Lawrence Logan International Airport,Boston,BOS,42.36429977,-71.00520325,20,-5,America/New_York,JFK - John F Kennedy International Airport,BOS - General Edward Lawrence Logan International Airport
446,US,5265,JFK,3797,DCA,3520,738,John F Kennedy International Airport,New York,United States,JFK,40.63980103,-73.77890015,13,-5,America/New_York,Ronald Reagan Washington National Airport,Washington,DCA,38.8521,-77.037697,15,-5,America/New_York,JFK - John F Kennedy International Airport,DCA - Ronald Reagan Washington National Airport
447,US,5265,JFK,3797,LAS,3877,738,John F Kennedy International Airport,New York,United States,JFK,40.63980103,-73.77890015,13,-5,America/New_York,McCarran International Airport,Las Vegas,LAS,36.08010101,-115.15200039999999,2181,-8,America/Los_Angeles,JFK - John F Kennedy International Airport,LAS - McCarran International Airport
448,US,5265,JFK,3797,LAX,3484,32B 762,John F Kennedy International Airport,New York,United States,JFK,40.63980103,-73.77890015,13,-5,America/New_York,Los Angeles International Airport,Los Angeles,LAX,33.94250107,-118.40799709999999,125,-8,America/Los_Angeles,JFK - John F Kennedy International Airport,LAX - Los Angeles International Airport
449,US,5265,JFK,3797,MIA,3576,757 738,John F Kennedy International Airport,New York,United States,JFK,40.63980103,-73.77890015,13,-5,America/New_York,Miami International Airport,Miami,MIA,25.79319954,-80.29060364,8,-5,America/New_York,JFK - John F Kennedy International Airport,MIA - Miami International Airport
450,US,5265,JFK,3797,ORD,3830,738,John F Kennedy International Airport,New York,United States,JFK,40.63980103,-73.77890015,13,-5,America/New_York,Chicago O'Hare International Airport,Chicago,ORD,41.97859955,-87.90480042,672,-6,America/Chicago,JFK - John F Kennedy International Airport,ORD - Chicago O'Hare International Airport
451,US,5265,JFK,3797,SEA,3577,738,John F Kennedy International Airport,New York,United States,JFK,40.63980103,-73.77890015,13,-5,America/New_York,Seattle Tacoma International Airport,Seattle,SEA,47.44900131,-122.3089981,433,-8,America/Los_Angeles,JFK - John F Kennedy International Airport,SEA - Seattle Tacoma International Airport
452,US,5265,JFK,3797,SFO,3469,32B 763,John F Kennedy International Airport,New York,United States,JFK,40.63980103,-73.77890015,13,-5,America/New_York,San Francisco International Airport,San Francisco,SFO,37.61899948,-122.375,13,-8,America/Los_Angeles,JFK - John F Kennedy International Airport,SFO - San Francisco International Airport
453,US,5265,LAS,3877,DCA,3520,320 319,McCarran International Airport,Las Vegas,United States,LAS,36.08010101,-115.15200039999999,2181,-8,America/Los_Angeles,Ronald Reagan Washington National Airport,Washington,DCA,38.8521,-77.037697,15,-5,America/New_York,LAS - McCarran International Airport,DCA - Ronald Reagan Washington National Airport
454,US,5265,LAS,3877,JFK,3797,738,McCarran International Airport,Las Vegas,United States,LAS,36.08010101,-115.15200039999999,2181,-8,America/Los_Angeles,John F Kennedy International Airport,New York,JFK,40.63980103,-73.77890015,13,-5,America/New_York,LAS - McCarran International Airport,JFK - John F Kennedy International Airport
455,US,5265,LAS,3877,LAX,3484,738,McCarran International Airport,Las Vegas,United States,LAS,36.08010101,-115.15200039999999,2181,-8,America/Los_Angeles,Los Angeles International Airport,Los Angeles,LAX,33.94250107,-118.40799709999999,125,-8,America/Los_Angeles,LAS - McCarran International Airport,LAX - Los Angeles International Airport
456,US,5265,LAS,3877,MIA,3576,738,McCarran International Airport,Las Vegas,United States,LAS,36.08010101,-115.15200039999999,2181,-8,America/Los_Angeles,Miami International Airport,Miami,MIA,25.79319954,-80.29060364,8,-5,America/New_York,LAS - McCarran International Airport,MIA - Miami International Airport
457,US,5265,LAS,3877,ORD,3830,M83 738,McCarran International Airport,Las Vegas,United States,LAS,36.08010101,-115.15200039999999,2181,-8,America/Los_Angeles,Chicago O'Hare International Airport,Chicago,ORD,41.97859955,-87.90480042,672,-6,America/Chicago,LAS - McCarran International Airport,ORD - Chicago O'Hare International Airport
458,US,5265,LAX,3484,BOS,3448,757 738,Los Angeles International Airport,Los Angeles,United States,LAX,33.94250107,-118.40799709999999,125,-8,America/Los_Angeles,General Edward Lawrence Logan International Airport,Boston,BOS,42.36429977,-71.00520325,20,-5,America/New_York,LAX - Los Angeles International Airport,BOS - General Edward Lawrence Logan International Airport
459,US,5265,LAX,3484,DCA,3520,738,Los Angeles International Airport,Los Angeles,United States,LAX,33.94250107,-118.40799709999999,125,-8,America/Los_Angeles,Ronald Reagan Washington National Airport,Washington,DCA,38.8521,-77.037697,15,-5,America/New_York,LAX - Los Angeles International Airport,DCA - Ronald Reagan Washington National Airport
460,US,5265,LAX,3484,DEN,3751,CR7,Los Angeles International Airport,Los Angeles,United States,LAX,33.94250107,-118.40799709999999,125,-8,America/Los_Angeles,Denver International Airport,Denver,DEN,39.86169815,-104.6729965,5431,-7,America/Denver,LAX - Los Angeles International Airport,DEN - Denver International Airport
461,US,5265,LAX,3484,IAD,3714,738,Los Angeles International Airport,Los Angeles,United States,LAX,33.94250107,-118.40799709999999,125,-8,America/Los_Angeles,Washington Dulles International Airport,Washington,IAD,38.94449997,-77.45580292,312,-5,America/New_York,LAX - Los Angeles International Airport,IAD - Washington Dulles International Airport
462,US,5265,LAX,3484,JFK,3797,32B 762,Los Angeles International Airport,Los Angeles,United States,LAX,33.94250107,-118.40799709999999,125,-8,America/Los_Angeles,John F Kennedy International Airport,New York,JFK,40.63980103,-73.77890015,13,-5,America/New_York,LAX - Los Angeles International Airport,JFK - John F Kennedy International Airport
463,US,5265,LAX,3484,LAS,3877,738,Los Angeles International Airport,Los Angeles,United States,LAX,33.94250107,-118.40799709999999,125,-8,America/Los_Angeles,McCarran International Airport,Las Vegas,LAS,36.08010101,-115.15200039999999,2181,-8,America/Los_Angeles,LAX - Los Angeles International Airport,LAS - McCarran International Airport
464,US,5265,LAX,3484,MIA,3576,757 777 763 738,Los Angeles International Airport,Los Angeles,United States,LAX,33.94250107,-118.40799709999999,125,-8,America/Los_Angeles,Miami International Airport,Miami,MIA,25.79319954,-80.29060364,8,-5,America/New_York,LAX - Los Angeles International Airport,MIA - Miami International Airport
465,US,5265,LAX,3484,ORD,3830,738,Los Angeles International Airport,Los Angeles,United States,LAX,33.94250107,-118.40799709999999,125,-8,America/Los_Angeles,Chicago O'Hare International Airport,Chicago,ORD,41.97859955,-87.90480042,672,-6,America/Chicago,LAX - Los Angeles International Airport,ORD - Chicago O'Hare International Airport
466,US,5265,LAX,3484,SFO,3469,738,Los Angeles International Airport,Los Angeles,United States,LAX,33.94250107,-118.40799709999999,125,-8,America/Los_Angeles,San Francisco International Airport,San Francisco,SFO,37.61899948,-122.375,13,-8,America/Los_Angeles,LAX - Los Angeles International Airport,SFO - San Francisco International Airport
467,US,5265,LGA,3697,BOS,3448,319 E90,La Guardia Airport,New York,United States,LGA,40.77719879,-73.87259674,21,-5,America/New_York,General Edward Lawrence Logan International Airport,Boston,BOS,42.36429977,-71.00520325,20,-5,America/New_York,LGA - La Guardia Airport,BOS - General Edward Lawrence Logan International Airport
468,US,5265,LGA,3697,DCA,3520,319 E90,La Guardia Airport,New York,United States,LGA,40.77719879,-73.87259674,21,-5,America/New_York,Ronald Reagan Washington National Airport,Washington,DCA,38.8521,-77.037697,15,-5,America/New_York,LGA - La Guardia Airport,DCA - Ronald Reagan Washington National Airport
469,US,5265,LGA,3697,MIA,3576,738,La Guardia Airport,New York,United States,LGA,40.77719879,-73.87259674,21,-5,America/New_York,Miami International Airport,Miami,MIA,25.79319954,-80.29060364,8,-5,America/New_York,LGA - La Guardia Airport,MIA - Miami International Airport
470,US,5265,LGA,3697,ORD,3830,738,La Guardia Airport,New York,United States,LGA,40.77719879,-73.87259674,21,-5,America/New_York,Chicago O'Hare International Airport,Chicago,ORD,41.97859955,-87.90480042,672,-6,America/Chicago,LGA - La Guardia Airport,ORD - Chicago O'Hare International Airport
471,US,5265,MIA,3576,BOS,3448,757 738,Miami International Airport,Miami,United States,MIA,25.79319954,-80.29060364,8,-5,America/New_York,General Edward Lawrence Logan International Airport,Boston,BOS,42.36429977,-71.00520325,20,-5,America/New_York,MIA - Miami International Airport,BOS - General Edward Lawrence Logan International Airport
472,US,5265,MIA,3576,DCA,3520,738,Miami International Airport,Miami,United States,MIA,25.79319954,-80.29060364,8,-5,America/New_York,Ronald Reagan Washington National Airport,Washington,DCA,38.8521,-77.037697,15,-5,America/New_York,MIA - Miami International Airport,DCA - Ronald Reagan Washington National Airport
473,US,5265,MIA,3576,DEN,3751,738,Miami International Airport,Miami,United States,MIA,25.79319954,-80.29060364,8,-5,America/New_York,Denver International Airport,Denver,DEN,39.86169815,-104.6729965,5431,-7,America/Denver,MIA - Miami International Airport,DEN - Denver International Airport
474,US,5265,MIA,3576,IAD,3714,738,Miami International Airport,Miami,United States,MIA,25.79319954,-80.29060364,8,-5,America/New_York,Washington Dulles International Airport,Washington,IAD,38.94449997,-77.45580292,312,-5,America/New_York,MIA - Miami International Airport,IAD - Washington Dulles International Airport
475,US,5265,MIA,3576,JFK,3797,763 757 738,Miami International Airport,Miami,United States,MIA,25.79319954,-80.29060364,8,-5,America/New_York,John F Kennedy International Airport,New York,JFK,40.63980103,-73.77890015,13,-5,America/New_York,MIA - Miami International Airport,JFK - John F Kennedy International Airport
476,US,5265,MIA,3576,LAS,3877,738,Miami International Airport,Miami,United States,MIA,25.79319954,-80.29060364,8,-5,America/New_York,McCarran International Airport,Las Vegas,LAS,36.08010101,-115.15200039999999,2181,-8,America/Los_Angeles,MIA - Miami International Airport,LAS - McCarran International Airport
477,US,5265,MIA,3576,LAX,3484,777 763 757,Miami International Airport,Miami,United States,MIA,25.79319954,-80.29060364,8,-5,America/New_York,Los Angeles International Airport,Los Angeles,LAX,33.94250107,-118.40799709999999,125,-8,America/Los_Angeles,MIA - Miami International Airport,LAX - Los Angeles International Airport
478,US,5265,MIA,3576,LGA,3697,738,Miami International Airport,Miami,United States,MIA,25.79319954,-80.29060364,8,-5,America/New_York,La Guardia Airport,New York,LGA,40.77719879,-73.87259674,21,-5,America/New_York,MIA - Miami International Airport,LGA - La Guardia Airport
479,US,5265,MIA,3576,MSP,3858,738,Miami International Airport,Miami,United States,MIA,25.79319954,-80.29060364,8,-5,America/New_York,Minneapolis-St Paul International/Wold-Chamberlain Airport,Minneapolis,MSP,44.88199997,-93.22180176,841,-6,America/Chicago,MIA - Miami International Airport,MSP - Minneapolis-St Paul International/Wold-Chamberlain Airport
480,US,5265,MIA,3576,ORD,3830,738 763,Miami International Airport,Miami,United States,MIA,25.79319954,-80.29060364,8,-5,America/New_York,Chicago O'Hare International Airport,Chicago,ORD,41.97859955,-87.90480042,672,-6,America/Chicago,MIA - Miami International Airport,ORD - Chicago O'Hare International Airport
481,US,5265,MIA,3576,SEA,3577,757,Miami International Airport,Miami,United States,MIA,25.79319954,-80.29060364,8,-5,America/New_York,Seattle Tacoma International Airport,Seattle,SEA,47.44900131,-122.3089981,433,-8,America/Los_Angeles,MIA - Miami International Airport,SEA - Seattle Tacoma International Airport
482,US,5265,MIA,3576,SFO,3469,763 757 738,Miami International Airport,Miami,United States,MIA,25.79319954,-80.29060364,8,-5,America/New_York,San Francisco International Airport,San Francisco,SFO,37.61899948,-122.375,13,-8,America/Los_Angeles,MIA - Miami International Airport,SFO - San Francisco International Airport
483,US,5265,MSP,3858,DCA,3520,E75 E70,Minneapolis-St Paul International/Wold-Chamberlain Airport,Minneapolis,United States,MSP,44.88199997,-93.22180176,841,-6,America/Chicago,Ronald Reagan Washington National Airport,Washington,DCA,38.8521,-77.037697,15,-5,America/New_York,MSP - Minneapolis-St Paul International/Wold-Chamberlain Airport,DCA - Ronald Reagan Washington National Airport
484,US,5265,MSP,3858,MIA,3576,738,Minneapolis-St Paul International/Wold-Chamberlain Airport,Minneapolis,United States,MSP,44.88199997,-93.22180176,841,-6,America/Chicago,Miami International Airport,Miami,MIA,25.79319954,-80.29060364,8,-5,America/New_York,MSP - Minneapolis-St Paul International/Wold-Chamberlain Airport,MIA - Miami International Airport
485,US,5265,MSP,3858,ORD,3830,E75,Minneapolis-St Paul International/Wold-Chamberlain Airport,Minneapolis,United States,MSP,44.88199997,-93.22180176,841,-6,America/Chicago,Chicago O'Hare International Airport,Chicago,ORD,41.97859955,-87.90480042,672,-6,America/Chicago,MSP - Minneapolis-St Paul International/Wold-Chamberlain Airport,ORD - Chicago O'Hare International Airport
486,US,5265,ORD,3830,BOS,3448,738,Chicago O'Hare International Airport,Chicago,United States,ORD,41.97859955,-87.90480042,672,-6,America/Chicago,General Edward Lawrence Logan International Airport,Boston,BOS,42.36429977,-71.00520325,20,-5,America/New_York,ORD - Chicago O'Hare International Airport,BOS - General Edward Lawrence Logan International Airport
487,US,5265,ORD,3830,DCA,3520,738 M83,Chicago O'Hare International Airport,Chicago,United States,ORD,41.97859955,-87.90480042,672,-6,America/Chicago,Ronald Reagan Washington National Airport,Washington,DCA,38.8521,-77.037697,15,-5,America/New_York,ORD - Chicago O'Hare International Airport,DCA - Ronald Reagan Washington National Airport
488,US,5265,ORD,3830,DEN,3751,CR7,Chicago O'Hare International Airport,Chicago,United States,ORD,41.97859955,-87.90480042,672,-6,America/Chicago,Denver International Airport,Denver,DEN,39.86169815,-104.6729965,5431,-7,America/Denver,ORD - Chicago O'Hare International Airport,DEN - Denver International Airport
489,US,5265,ORD,3830,JFK,3797,738,Chicago O'Hare International Airport,Chicago,United States,ORD,41.97859955,-87.90480042,672,-6,America/Chicago,John F Kennedy International Airport,New York,JFK,40.63980103,-73.77890015,13,-5,America/New_York,ORD - Chicago O'Hare International Airport,JFK - John F Kennedy International Airport
490,US,5265,ORD,3830,LAS,3877,738 M83,Chicago O'Hare International Airport,Chicago,United States,ORD,41.97859955,-87.90480042,672,-6,America/Chicago,McCarran International Airport,Las Vegas,LAS,36.08010101,-115.15200039999999,2181,-8,America/Los_Angeles,ORD - Chicago O'Hare International Airport,LAS - McCarran International Airport
491,US,5265,ORD,3830,LAX,3484,738,Chicago O'Hare International Airport,Chicago,United States,ORD,41.97859955,-87.90480042,672,-6,America/Chicago,Los Angeles International Airport,Los Angeles,LAX,33.94250107,-118.40799709999999,125,-8,America/Los_Angeles,ORD - Chicago O'Hare International Airport,LAX - Los Angeles International Airport
492,US,5265,ORD,3830,LGA,3697,738,Chicago O'Hare International Airport,Chicago,United States,ORD,41.97859955,-87.90480042,672,-6,America/Chicago,La Guardia Airport,New York,LGA,40.77719879,-73.87259674,21,-5,America/New_York,ORD - Chicago O'Hare International Airport,LGA - La Guardia Airport
493,US,5265,ORD,3830,MIA,3576,738 763,Chicago O'Hare International Airport,Chicago,United States,ORD,41.97859955,-87.90480042,672,-6,America/Chicago,Miami International Airport,Miami,MIA,25.79319954,-80.29060364,8,-5,America/New_York,ORD - Chicago O'Hare International Airport,MIA - Miami International Airport
494,US,5265,ORD,3830,MSP,3858,E75,Chicago O'Hare International Airport,Chicago,United States,ORD,41.97859955,-87.90480042,672,-6,America/Chicago,Minneapolis-St Paul International/Wold-Chamberlain Airport,Minneapolis,MSP,44.88199997,-93.22180176,841,-6,America/Chicago,ORD - Chicago O'Hare International Airport,MSP - Minneapolis-St Paul International/Wold-Chamberlain Airport
495,US,5265,ORD,3830,SEA,3577,738,Chicago O'Hare International Airport,Chicago,United States,ORD,41.97859955,-87.90480042,672,-6,America/Chicago,Seattle Tacoma International Airport,Seattle,SEA,47.44900131,-122.3089981,433,-8,America/Los_Angeles,ORD - Chicago O'Hare International Airport,SEA - Seattle Tacoma International Airport
496,US,5265,ORD,3830,SFO,3469,738,Chicago O'Hare International Airport,Chicago,United States,ORD,41.97859955,-87.90480042,672,-6,America/Chicago,San Francisco International Airport,San Francisco,SFO,37.61899948,-122.375,13,-8,America/Los_Angeles,ORD - Chicago O'Hare International Airport,SFO - San Francisco International Airport
497,US,5265,SEA,3577,JFK,3797,738,Seattle Tacoma International Airport,Seattle,United States,SEA,47.44900131,-122.3089981,433,-8,America/Los_Angeles,John F Kennedy International Airport,New York,JFK,40.63980103,-73.77890015,13,-5,America/New_York,SEA - Seattle Tacoma International Airport,JFK - John F Kennedy International Airport
498,US,5265,SEA,3577,MIA,3576,757,Seattle Tacoma International Airport,Seattle,United States,SEA,47.44900131,-122.3089981,433,-8,America/Los_Angeles,Miami International Airport,Miami,MIA,25.79319954,-80.29060364,8,-5,America/New_York,SEA - Seattle Tacoma International Airport,MIA - Miami International Airport
499,US,5265,SEA,3577,ORD,3830,738,Seattle Tacoma International Airport,Seattle,United States,SEA,47.44900131,-122.3089981,433,-8,America/Los_Angeles,Chicago O'Hare International Airport,Chicago,ORD,41.97859955,-87.90480042,672,-6,America/Chicago,SEA - Seattle Tacoma International Airport,ORD - Chicago O'Hare International Airport
500,US,5265,SFO,3469,JFK,3797,763 32B,San Francisco International Airport,San Francisco,United States,SFO,37.61899948,-122.375,13,-8,America/Los_Angeles,John F Kennedy International Airport,New York,JFK,40.63980103,-73.77890015,13,-5,America/New_York,SFO - San Francisco International Airport,JFK - John F Kennedy International Airport
501,US,5265,SFO,3469,LAX,3484,738,San Francisco International Airport,San Francisco,United States,SFO,37.61899948,-122.375,13,-8,America/Los_Angeles,Los Angeles International Airport,Los Angeles,LAX,33.94250107,-118.40799709999999,125,-8,America/Los_Angeles,SFO - San Francisco International Airport,LAX - Los Angeles International Airport
502,US,5265,SFO,3469,MIA,3576,757 763 738,San Francisco International Airport,San Francisco,United States,SFO,37.61899948,-122.375,13,-8,America/Los_Angeles,Miami International Airport,Miami,MIA,25.79319954,-80.29060364,8,-5,America/New_York,SFO - San Francisco International Airport,MIA - Miami International Airport
503,US,5265,SFO,3469,ORD,3830,738,San Francisco International Airport,San Francisco,United States,SFO,37.61899948,-122.375,13,-8,America/Los_Angeles,Chicago O'Hare International Airport,Chicago,ORD,41.97859955,-87.90480042,672,-6,America/Chicago,SFO - San Francisco International Airport,ORD - Chicago O'Hare International Airport
504,VX,5331,BOS,3448,LAX,3484,319 320,General Edward Lawrence Logan International Airport,Boston,United States,BOS,42.36429977,-71.00520325,20,-5,America/New_York,Los Angeles International Airport,Los Angeles,LAX,33.94250107,-118.40799709999999,125,-8,America/Los_Angeles,BOS - General Edward Lawrence Logan International Airport,LAX - Los Angeles International Airport
505,VX,5331,BOS,3448,SFO,3469,320,General Edward Lawrence Logan International Airport,Boston,United States,BOS,42.36429977,-71.00520325,20,-5,America/New_York,San Francisco International Airport,San Francisco,SFO,37.61899948,-122.375,13,-8,America/Los_Angeles,BOS - General Edward Lawrence Logan International Airport,SFO - San Francisco International Airport
506,VX,5331,DCA,3520,SFO,3469,320,Ronald Reagan Washington National Airport,Washington,United States,DCA,38.8521,-77.037697,15,-5,America/New_York,San Francisco International Airport,San Francisco,SFO,37.61899948,-122.375,13,-8,America/Los_Angeles,DCA - Ronald Reagan Washington National Airport,SFO - San Francisco International Airport
507,VX,5331,IAD,3714,LAX,3484,320 319,Washington Dulles International Airport,Washington,United States,IAD,38.94449997,-77.45580292,312,-5,America/New_York,Los Angeles International Airport,Los Angeles,LAX,33.94250107,-118.40799709999999,125,-8,America/Los_Angeles,IAD - Washington Dulles International Airport,LAX - Los Angeles International Airport
508,VX,5331,IAD,3714,SFO,3469,319 320,Washington Dulles International Airport,Washington,United States,IAD,38.94449997,-77.45580292,312,-5,America/New_York,San Francisco International Airport,San Francisco,SFO,37.61899948,-122.375,13,-8,America/Los_Angeles,IAD - Washington Dulles International Airport,SFO - San Francisco International Airport
509,VX,5331,JFK,3797,LAS,3877,320,John F Kennedy International Airport,New York,United States,JFK,40.63980103,-73.77890015,13,-5,America/New_York,McCarran International Airport,Las Vegas,LAS,36.08010101,-115.15200039999999,2181,-8,America/Los_Angeles,JFK - John F Kennedy International Airport,LAS - McCarran International Airport
510,VX,5331,JFK,3797,LAX,3484,320,John F Kennedy International Airport,New York,United States,JFK,40.63980103,-73.77890015,13,-5,America/New_York,Los Angeles International Airport,Los Angeles,LAX,33.94250107,-118.40799709999999,125,-8,America/Los_Angeles,JFK - John F Kennedy International Airport,LAX - Los Angeles International Airport
511,VX,5331,JFK,3797,SFO,3469,320,John F Kennedy International Airport,New York,United States,JFK,40.63980103,-73.77890015,13,-5,America/New_York,San Francisco International Airport,San Francisco,SFO,37.61899948,-122.375,13,-8,America/Los_Angeles,JFK - John F Kennedy International Airport,SFO - San Francisco International Airport
512,VX,5331,LAS,3877,JFK,3797,320,McCarran International Airport,Las Vegas,United States,LAS,36.08010101,-115.15200039999999,2181,-8,America/Los_Angeles,John F Kennedy International Airport,New York,JFK,40.63980103,-73.77890015,13,-5,America/New_York,LAS - McCarran International Airport,JFK - John F Kennedy International Airport
513,VX,5331,LAS,3877,LAX,3484,320,McCarran International Airport,Las Vegas,United States,LAS,36.08010101,-115.15200039999999,2181,-8,America/Los_Angeles,Los Angeles International Airport,Los Angeles,LAX,33.94250107,-118.40799709999999,125,-8,America/Los_Angeles,LAS - McCarran International Airport,LAX - Los Angeles International Airport
514,VX,5331,LAS,3877,SFO,3469,320 319,McCarran International Airport,Las Vegas,United States,LAS,36.08010101,-115.15200039999999,2181,-8,America/Los_Angeles,San Francisco International Airport,San Francisco,SFO,37.61899948,-122.375,13,-8,America/Los_Angeles,LAS - McCarran International Airport,SFO - San Francisco International Airport
515,VX,5331,LAX,3484,BOS,3448,320 319,Los Angeles International Airport,Los Angeles,United States,LAX,33.94250107,-118.40799709999999,125,-8,America/Los_Angeles,General Edward Lawrence Logan International Airport,Boston,BOS,42.36429977,-71.00520325,20,-5,America/New_York,LAX - Los Angeles International Airport,BOS - General Edward Lawrence Logan International Airport
516,VX,5331,LAX,3484,IAD,3714,320 319,Los Angeles International Airport,Los Angeles,United States,LAX,33.94250107,-118.40799709999999,125,-8,America/Los_Angeles,Washington Dulles International Airport,Washington,IAD,38.94449997,-77.45580292,312,-5,America/New_York,LAX - Los Angeles International Airport,IAD - Washington Dulles International Airport
517,VX,5331,LAX,3484,JFK,3797,320,Los Angeles International Airport,Los Angeles,United States,LAX,33.94250107,-118.40799709999999,125,-8,America/Los_Angeles,John F Kennedy International Airport,New York,JFK,40.63980103,-73.77890015,13,-5,America/New_York,LAX - Los Angeles International Airport,JFK - John F Kennedy International Airport
518,VX,5331,LAX,3484,LAS,3877,320,Los Angeles International Airport,Los Angeles,United States,LAX,33.94250107,-118.40799709999999,125,-8,America/Los_Angeles,McCarran International Airport,Las Vegas,LAS,36.08010101,-115.15200039999999,2181,-8,America/Los_Angeles,LAX - Los Angeles International Airport,LAS - McCarran International Airport
519,VX,5331,LAX,3484,ORD,3830,320,Los Angeles International Airport,Los Angeles,United States,LAX,33.94250107,-118.40799709999999,125,-8,America/Los_Angeles,Chicago O'Hare International Airport,Chicago,ORD,41.97859955,-87.90480042,672,-6,America/Chicago,LAX - Los Angeles International Airport,ORD - Chicago O'Hare International Airport
520,VX,5331,LAX,3484,SEA,3577,319 320,Los Angeles International Airport,Los Angeles,United States,LAX,33.94250107,-118.40799709999999,125,-8,America/Los_Angeles,Seattle Tacoma International Airport,Seattle,SEA,47.44900131,-122.3089981,433,-8,America/Los_Angeles,LAX - Los Angeles International Airport,SEA - Seattle Tacoma International Airport
521,VX,5331,LAX,3484,SFO,3469,320 319,Los Angeles International Airport,Los Angeles,United States,LAX,33.94250107,-118.40799709999999,125,-8,America/Los_Angeles,San Francisco International Airport,San Francisco,SFO,37.61899948,-122.375,13,-8,America/Los_Angeles,LAX - Los Angeles International Airport,SFO - San Francisco International Airport
522,VX,5331,ORD,3830,LAX,3484,320,Chicago O'Hare International Airport,Chicago,United States,ORD,41.97859955,-87.90480042,672,-6,America/Chicago,Los Angeles International Airport,Los Angeles,LAX,33.94250107,-118.40799709999999,125,-8,America/Los_Angeles,ORD - Chicago O'Hare International Airport,LAX - Los Angeles International Airport
523,VX,5331,ORD,3830,SFO,3469,320,Chicago O'Hare International Airport,Chicago,United States,ORD,41.97859955,-87.90480042,672,-6,America/Chicago,San Francisco International Airport,San Francisco,SFO,37.61899948,-122.375,13,-8,America/Los_Angeles,ORD - Chicago O'Hare International Airport,SFO - San Francisco International Airport
524,VX,5331,SEA,3577,LAX,3484,320 319,Seattle Tacoma International Airport,Seattle,United States,SEA,47.44900131,-122.3089981,433,-8,America/Los_Angeles,Los Angeles International Airport,Los Angeles,LAX,33.94250107,-118.40799709999999,125,-8,America/Los_Angeles,SEA - Seattle Tacoma International Airport,LAX - Los Angeles International Airport
525,VX,5331,SEA,3577,SFO,3469,319 320,Seattle Tacoma International Airport,Seattle,United States,SEA,47.44900131,-122.3089981,433,-8,America/Los_Angeles,San Francisco International Airport,San Francisco,SFO,37.61899948,-122.375,13,-8,America/Los_Angeles,SEA - Seattle Tacoma International Airport,SFO - San Francisco International Airport
526,VX,5331,SFO,3469,BOS,3448,320,San Francisco International Airport,San Francisco,United States,SFO,37.61899948,-122.375,13,-8,America/Los_Angeles,General Edward Lawrence Logan International Airport,Boston,BOS,42.36429977,-71.00520325,20,-5,America/New_York,SFO - San Francisco International Airport,BOS - General Edward Lawrence Logan International Airport
527,VX,5331,SFO,3469,DCA,3520,320,San Francisco International Airport,San Francisco,United States,SFO,37.61899948,-122.375,13,-8,America/Los_Angeles,Ronald Reagan Washington National Airport,Washington,DCA,38.8521,-77.037697,15,-5,America/New_York,SFO - San Francisco International Airport,DCA - Ronald Reagan Washington National Airport
528,VX,5331,SFO,3469,IAD,3714,320 319,San Francisco International Airport,San Francisco,United States,SFO,37.61899948,-122.375,13,-8,America/Los_Angeles,Washington Dulles International Airport,Washington,IAD,38.94449997,-77.45580292,312,-5,America/New_York,SFO - San Francisco International Airport,IAD - Washington Dulles International Airport
529,VX,5331,SFO,3469,JFK,3797,320,San Francisco International Airport,San Francisco,United States,SFO,37.61899948,-122.375,13,-8,America/Los_Angeles,John F Kennedy International Airport,New York,JFK,40.63980103,-73.77890015,13,-5,America/New_York,SFO - San Francisco International Airport,JFK - John F Kennedy International Airport
530,VX,5331,SFO,3469,LAS,3877,319 320,San Francisco International Airport,San Francisco,United States,SFO,37.61899948,-122.375,13,-8,America/Los_Angeles,McCarran International Airport,Las Vegas,LAS,36.08010101,-115.15200039999999,2181,-8,America/Los_Angeles,SFO - San Francisco International Airport,LAS - McCarran International Airport
531,VX,5331,SFO,3469,LAX,3484,320 319,San Francisco International Airport,San Francisco,United States,SFO,37.61899948,-122.375,13,-8,America/Los_Angeles,Los Angeles International Airport,Los Angeles,LAX,33.94250107,-118.40799709999999,125,-8,America/Los_Angeles,SFO - San Francisco International Airport,LAX - Los Angeles International Airport
532,VX,5331,SFO,3469,ORD,3830,320,San Francisco International Airport,San Francisco,United States,SFO,37.61899948,-122.375,13,-8,America/Los_Angeles,Chicago O'Hare International Airport,Chicago,ORD,41.97859955,-87.90480042,672,-6,America/Chicago,SFO - San Francisco International Airport,ORD - Chicago O'Hare International Airport
533,VX,5331,SFO,3469,SEA,3577,320 319,San Francisco International Airport,San Francisco,United States,SFO,37.61899948,-122.375,13,-8,America/Los_Angeles,Seattle Tacoma International Airport,Seattle,SEA,47.44900131,-122.3089981,433,-8,America/Los_Angeles,SFO - San Francisco International Airport,SEA - Seattle Tacoma International Airport
534,WN,4547,BOS,3448,DEN,3751,73W,General Edward Lawrence Logan International Airport,Boston,United States,BOS,42.36429977,-71.00520325,20,-5,America/New_York,Denver International Airport,Denver,DEN,39.86169815,-104.6729965,5431,-7,America/Denver,BOS - General Edward Lawrence Logan International Airport,DEN - Denver International Airport
535,WN,4547,BOS,3448,MDW,3747,73W 733,General Edward Lawrence Logan International Airport,Boston,United States,BOS,42.36429977,-71.00520325,20,-5,America/New_York,Chicago Midway International Airport,Chicago,MDW,41.78599929999999,-87.75240326,620,-6,America/Chicago,BOS - General Edward Lawrence Logan International Airport,MDW - Chicago Midway International Airport
536,WN,4547,DEN,3751,BOS,3448,73W,Denver International Airport,Denver,United States,DEN,39.86169815,-104.6729965,5431,-7,America/Denver,General Edward Lawrence Logan International Airport,Boston,BOS,42.36429977,-71.00520325,20,-5,America/New_York,DEN - Denver International Airport,BOS - General Edward Lawrence Logan International Airport
537,WN,4547,DEN,3751,IAD,3714,73W,Denver International Airport,Denver,United States,DEN,39.86169815,-104.6729965,5431,-7,America/Denver,Washington Dulles International Airport,Washington,IAD,38.94449997,-77.45580292,312,-5,America/New_York,DEN - Denver International Airport,IAD - Washington Dulles International Airport
538,WN,4547,DEN,3751,LAS,3877,73W 73C 73H 738,Denver International Airport,Denver,United States,DEN,39.86169815,-104.6729965,5431,-7,America/Denver,McCarran International Airport,Las Vegas,LAS,36.08010101,-115.15200039999999,2181,-8,America/Los_Angeles,DEN - Denver International Airport,LAS - McCarran International Airport
539,WN,4547,DEN,3751,LAX,3484,733 73H 73C 73W,Denver International Airport,Denver,United States,DEN,39.86169815,-104.6729965,5431,-7,America/Denver,Los Angeles International Airport,Los Angeles,LAX,33.94250107,-118.40799709999999,125,-8,America/Los_Angeles,DEN - Denver International Airport,LAX - Los Angeles International Airport
540,WN,4547,DEN,3751,LGA,3697,73W,Denver International Airport,Denver,United States,DEN,39.86169815,-104.6729965,5431,-7,America/Denver,La Guardia Airport,New York,LGA,40.77719879,-73.87259674,21,-5,America/New_York,DEN - Denver International Airport,LGA - La Guardia Airport
541,WN,4547,DEN,3751,MDW,3747,73W 738,Denver International Airport,Denver,United States,DEN,39.86169815,-104.6729965,5431,-7,America/Denver,Chicago Midway International Airport,Chicago,MDW,41.78599929999999,-87.75240326,620,-6,America/Chicago,DEN - Denver International Airport,MDW - Chicago Midway International Airport
542,WN,4547,DEN,3751,MSP,3858,73W 73H 733 73C,Denver International Airport,Denver,United States,DEN,39.86169815,-104.6729965,5431,-7,America/Denver,Minneapolis-St Paul International/Wold-Chamberlain Airport,Minneapolis,MSP,44.88199997,-93.22180176,841,-6,America/Chicago,DEN - Denver International Airport,MSP - Minneapolis-St Paul International/Wold-Chamberlain Airport
543,WN,4547,DEN,3751,SEA,3577,73W 73H,Denver International Airport,Denver,United States,DEN,39.86169815,-104.6729965,5431,-7,America/Denver,Seattle Tacoma International Airport,Seattle,SEA,47.44900131,-122.3089981,433,-8,America/Los_Angeles,DEN - Denver International Airport,SEA - Seattle Tacoma International Airport
544,WN,4547,DEN,3751,SFO,3469,73W,Denver International Airport,Denver,United States,DEN,39.86169815,-104.6729965,5431,-7,America/Denver,San Francisco International Airport,San Francisco,SFO,37.61899948,-122.375,13,-8,America/Los_Angeles,DEN - Denver International Airport,SFO - San Francisco International Airport
545,WN,4547,IAD,3714,DEN,3751,73W,Washington Dulles International Airport,Washington,United States,IAD,38.94449997,-77.45580292,312,-5,America/New_York,Denver International Airport,Denver,DEN,39.86169815,-104.6729965,5431,-7,America/Denver,IAD - Washington Dulles International Airport,DEN - Denver International Airport
546,WN,4547,IAD,3714,MDW,3747,73W 73H,Washington Dulles International Airport,Washington,United States,IAD,38.94449997,-77.45580292,312,-5,America/New_York,Chicago Midway International Airport,Chicago,MDW,41.78599929999999,-87.75240326,620,-6,America/Chicago,IAD - Washington Dulles International Airport,MDW - Chicago Midway International Airport
547,WN,4547,LAS,3877,DEN,3751,73W 73H 73C 733 738,McCarran International Airport,Las Vegas,United States,LAS,36.08010101,-115.15200039999999,2181,-8,America/Los_Angeles,Denver International Airport,Denver,DEN,39.86169815,-104.6729965,5431,-7,America/Denver,LAS - McCarran International Airport,DEN - Denver International Airport
548,WN,4547,LAS,3877,LAX,3484,73W 73C 733,McCarran International Airport,Las Vegas,United States,LAS,36.08010101,-115.15200039999999,2181,-8,America/Los_Angeles,Los Angeles International Airport,Los Angeles,LAX,33.94250107,-118.40799709999999,125,-8,America/Los_Angeles,LAS - McCarran International Airport,LAX - Los Angeles International Airport
549,WN,4547,LAS,3877,MDW,3747,73H 73W 738,McCarran International Airport,Las Vegas,United States,LAS,36.08010101,-115.15200039999999,2181,-8,America/Los_Angeles,Chicago Midway International Airport,Chicago,MDW,41.78599929999999,-87.75240326,620,-6,America/Chicago,LAS - McCarran International Airport,MDW - Chicago Midway International Airport
550,WN,4547,LAS,3877,SEA,3577,73W 733 73C 73H,McCarran International Airport,Las Vegas,United States,LAS,36.08010101,-115.15200039999999,2181,-8,America/Los_Angeles,Seattle Tacoma International Airport,Seattle,SEA,47.44900131,-122.3089981,433,-8,America/Los_Angeles,LAS - McCarran International Airport,SEA - Seattle Tacoma International Airport
551,WN,4547,LAS,3877,SFO,3469,733 73W 73H 73C,McCarran International Airport,Las Vegas,United States,LAS,36.08010101,-115.15200039999999,2181,-8,America/Los_Angeles,San Francisco International Airport,San Francisco,SFO,37.61899948,-122.375,13,-8,America/Los_Angeles,LAS - McCarran International Airport,SFO - San Francisco International Airport
552,WN,4547,LAX,3484,DEN,3751,73W 73C 733,Los Angeles International Airport,Los Angeles,United States,LAX,33.94250107,-118.40799709999999,125,-8,America/Los_Angeles,Denver International Airport,Denver,DEN,39.86169815,-104.6729965,5431,-7,America/Denver,LAX - Los Angeles International Airport,DEN - Denver International Airport
553,WN,4547,LAX,3484,LAS,3877,73W 733 738 73C 73H,Los Angeles International Airport,Los Angeles,United States,LAX,33.94250107,-118.40799709999999,125,-8,America/Los_Angeles,McCarran International Airport,Las Vegas,LAS,36.08010101,-115.15200039999999,2181,-8,America/Los_Angeles,LAX - Los Angeles International Airport,LAS - McCarran International Airport
554,WN,4547,LAX,3484,MDW,3747,738 73H 73W,Los Angeles International Airport,Los Angeles,United States,LAX,33.94250107,-118.40799709999999,125,-8,America/Los_Angeles,Chicago Midway International Airport,Chicago,MDW,41.78599929999999,-87.75240326,620,-6,America/Chicago,LAX - Los Angeles International Airport,MDW - Chicago Midway International Airport
555,WN,4547,LAX,3484,SFO,3469,73W 73C 733,Los Angeles International Airport,Los Angeles,United States,LAX,33.94250107,-118.40799709999999,125,-8,America/Los_Angeles,San Francisco International Airport,San Francisco,SFO,37.61899948,-122.375,13,-8,America/Los_Angeles,LAX - Los Angeles International Airport,SFO - San Francisco International Airport
556,WN,4547,LGA,3697,DEN,3751,73W,La Guardia Airport,New York,United States,LGA,40.77719879,-73.87259674,21,-5,America/New_York,Denver International Airport,Denver,DEN,39.86169815,-104.6729965,5431,-7,America/Denver,LGA - La Guardia Airport,DEN - Denver International Airport
557,WN,4547,LGA,3697,MDW,3747,73H 73W,La Guardia Airport,New York,United States,LGA,40.77719879,-73.87259674,21,-5,America/New_York,Chicago Midway International Airport,Chicago,MDW,41.78599929999999,-87.75240326,620,-6,America/Chicago,LGA - La Guardia Airport,MDW - Chicago Midway International Airport
558,WN,4547,MDW,3747,BOS,3448,73W,Chicago Midway International Airport,Chicago,United States,MDW,41.78599929999999,-87.75240326,620,-6,America/Chicago,General Edward Lawrence Logan International Airport,Boston,BOS,42.36429977,-71.00520325,20,-5,America/New_York,MDW - Chicago Midway International Airport,BOS - General Edward Lawrence Logan International Airport
559,WN,4547,MDW,3747,DEN,3751,73W 73H,Chicago Midway International Airport,Chicago,United States,MDW,41.78599929999999,-87.75240326,620,-6,America/Chicago,Denver International Airport,Denver,DEN,39.86169815,-104.6729965,5431,-7,America/Denver,MDW - Chicago Midway International Airport,DEN - Denver International Airport
560,WN,4547,MDW,3747,IAD,3714,73W 73H,Chicago Midway International Airport,Chicago,United States,MDW,41.78599929999999,-87.75240326,620,-6,America/Chicago,Washington Dulles International Airport,Washington,IAD,38.94449997,-77.45580292,312,-5,America/New_York,MDW - Chicago Midway International Airport,IAD - Washington Dulles International Airport
561,WN,4547,MDW,3747,LAS,3877,73W 73H 738,Chicago Midway International Airport,Chicago,United States,MDW,41.78599929999999,-87.75240326,620,-6,America/Chicago,McCarran International Airport,Las Vegas,LAS,36.08010101,-115.15200039999999,2181,-8,America/Los_Angeles,MDW - Chicago Midway International Airport,LAS - McCarran International Airport
562,WN,4547,MDW,3747,LAX,3484,73W 73H,Chicago Midway International Airport,Chicago,United States,MDW,41.78599929999999,-87.75240326,620,-6,America/Chicago,Los Angeles International Airport,Los Angeles,LAX,33.94250107,-118.40799709999999,125,-8,America/Los_Angeles,MDW - Chicago Midway International Airport,LAX - Los Angeles International Airport
563,WN,4547,MDW,3747,LGA,3697,73W 73H,Chicago Midway International Airport,Chicago,United States,MDW,41.78599929999999,-87.75240326,620,-6,America/Chicago,La Guardia Airport,New York,LGA,40.77719879,-73.87259674,21,-5,America/New_York,MDW - Chicago Midway International Airport,LGA - La Guardia Airport
564,WN,4547,MDW,3747,MSP,3858,73W 73H,Chicago Midway International Airport,Chicago,United States,MDW,41.78599929999999,-87.75240326,620,-6,America/Chicago,Minneapolis-St Paul International/Wold-Chamberlain Airport,Minneapolis,MSP,44.88199997,-93.22180176,841,-6,America/Chicago,MDW - Chicago Midway International Airport,MSP - Minneapolis-St Paul International/Wold-Chamberlain Airport
565,WN,4547,MDW,3747,SEA,3577,73H 73W,Chicago Midway International Airport,Chicago,United States,MDW,41.78599929999999,-87.75240326,620,-6,America/Chicago,Seattle Tacoma International Airport,Seattle,SEA,47.44900131,-122.3089981,433,-8,America/Los_Angeles,MDW - Chicago Midway International Airport,SEA - Seattle Tacoma International Airport
566,WN,4547,MDW,3747,SFO,3469,73W,Chicago Midway International Airport,Chicago,United States,MDW,41.78599929999999,-87.75240326,620,-6,America/Chicago,San Francisco International Airport,San Francisco,SFO,37.61899948,-122.375,13,-8,America/Los_Angeles,MDW - Chicago Midway International Airport,SFO - San Francisco International Airport
567,WN,4547,MSP,3858,DEN,3751,73W 73H 73C,Minneapolis-St Paul International/Wold-Chamberlain Airport,Minneapolis,United States,MSP,44.88199997,-93.22180176,841,-6,America/Chicago,Denver International Airport,Denver,DEN,39.86169815,-104.6729965,5431,-7,America/Denver,MSP - Minneapolis-St Paul International/Wold-Chamberlain Airport,DEN - Denver International Airport
568,WN,4547,MSP,3858,MDW,3747,73W 73H,Minneapolis-St Paul International/Wold-Chamberlain Airport,Minneapolis,United States,MSP,44.88199997,-93.22180176,841,-6,America/Chicago,Chicago Midway International Airport,Chicago,MDW,41.78599929999999,-87.75240326,620,-6,America/Chicago,MSP - Minneapolis-St Paul International/Wold-Chamberlain Airport,MDW - Chicago Midway International Airport
569,WN,4547,SEA,3577,DEN,3751,73W 733 73C,Seattle Tacoma International Airport,Seattle,United States,SEA,47.44900131,-122.3089981,433,-8,America/Los_Angeles,Denver International Airport,Denver,DEN,39.86169815,-104.6729965,5431,-7,America/Denver,SEA - Seattle Tacoma International Airport,DEN - Denver International Airport
570,WN,4547,SEA,3577,LAS,3877,733 73H 73W,Seattle Tacoma International Airport,Seattle,United States,SEA,47.44900131,-122.3089981,433,-8,America/Los_Angeles,McCarran International Airport,Las Vegas,LAS,36.08010101,-115.15200039999999,2181,-8,America/Los_Angeles,SEA - Seattle Tacoma International Airport,LAS - McCarran International Airport
571,WN,4547,SEA,3577,MDW,3747,73H 73W,Seattle Tacoma International Airport,Seattle,United States,SEA,47.44900131,-122.3089981,433,-8,America/Los_Angeles,Chicago Midway International Airport,Chicago,MDW,41.78599929999999,-87.75240326,620,-6,America/Chicago,SEA - Seattle Tacoma International Airport,MDW - Chicago Midway International Airport
572,WN,4547,SFO,3469,DEN,3751,73C 73W,San Francisco International Airport,San Francisco,United States,SFO,37.61899948,-122.375,13,-8,America/Los_Angeles,Denver International Airport,Denver,DEN,39.86169815,-104.6729965,5431,-7,America/Denver,SFO - San Francisco International Airport,DEN - Denver International Airport
573,WN,4547,SFO,3469,LAS,3877,73W 73C 733 73H,San Francisco International Airport,San Francisco,United States,SFO,37.61899948,-122.375,13,-8,America/Los_Angeles,McCarran International Airport,Las Vegas,LAS,36.08010101,-115.15200039999999,2181,-8,America/Los_Angeles,SFO - San Francisco International Airport,LAS - McCarran International Airport
574,WN,4547,SFO,3469,LAX,3484,733 73W 73C,San Francisco International Airport,San Francisco,United States,SFO,37.61899948,-122.375,13,-8,America/Los_Angeles,Los Angeles International Airport,Los Angeles,LAX,33.94250107,-118.40799709999999,125,-8,America/Los_Angeles,SFO - San Francisco International Airport,LAX - Los Angeles International Airport
575,WN,4547,SFO,3469,MDW,3747,73W,San Francisco International Airport,San Francisco,United States,SFO,37.61899948,-122.375,13,-8,America/Los_Angeles,Chicago Midway International Airport,Chicago,MDW,41.78599929999999,-87.75240326,620,-6,America/Chicago,SFO - San Francisco International Airport,MDW - Chicago Midway International Airport
